<?xml version="1.0" encoding="UTF-8"?>
<gpx version="1.1" creator="Chemins Noirs"
  xmlns="http://www.topografix.com/GPX/1/1"
  xmlns:xsi="http://www.w3.org/2001/XMLSchema-instance"
  xsi:schemaLocation="http://www.topografix.com/GPX/1/1 http://www.topografix.com/GPX/1/1/gpx.xsd">
<metadata><name>J1 — Buis — Gorges et Cols</name>
<desc>Boucle depuis Buis-les-Baronnies. Gorges calcaires, rocher St-Julien, 3 cols. Balisage PR jaune. — 18.8 km, +825m</desc></metadata>
<wpt lat="44.275238" lon="5.274063"><ele>366</ele>
  <name>🅿️ Allée des Platanes, Buis-les-Baronnies</name><sym>Parking Area</sym></wpt>
<trk><name>J1 — Buis — Gorges et Cols</name>
  <desc>Boucle depuis Buis-les-Baronnies. Gorges calcaires, rocher St-Julien, 3 cols. Balisage PR jaune.</desc><trkseg>
    <trkpt lat="44.275238" lon="5.274063"><ele>366.3</ele></trkpt>
    <trkpt lat="44.275208" lon="5.273838"><ele>366.9</ele></trkpt>
    <trkpt lat="44.275196" lon="5.273745"><ele>367.2</ele></trkpt>
    <trkpt lat="44.275154" lon="5.273434"><ele>367.8</ele></trkpt>
    <trkpt lat="44.275115" lon="5.273130"><ele>368.3</ele></trkpt>
    <trkpt lat="44.275062" lon="5.272594"><ele>369.2</ele></trkpt>
    <trkpt lat="44.275057" lon="5.272279"><ele>370.0</ele></trkpt>
    <trkpt lat="44.275399" lon="5.272205"><ele>371.4</ele></trkpt>
    <trkpt lat="44.275820" lon="5.272118"><ele>373.0</ele></trkpt>
    <trkpt lat="44.275890" lon="5.272087"><ele>373.1</ele></trkpt>
    <trkpt lat="44.276094" lon="5.271935"><ele>373.9</ele></trkpt>
    <trkpt lat="44.276372" lon="5.271612"><ele>374.9</ele></trkpt>
    <trkpt lat="44.276593" lon="5.271244"><ele>376.5</ele></trkpt>
    <trkpt lat="44.276598" lon="5.271234"><ele>376.5</ele></trkpt>
    <trkpt lat="44.276668" lon="5.271106"><ele>377.0</ele></trkpt>
    <trkpt lat="44.276738" lon="5.271011"><ele>377.1</ele></trkpt>
    <trkpt lat="44.276805" lon="5.270951"><ele>377.5</ele></trkpt>
    <trkpt lat="44.276951" lon="5.270891"><ele>378.8</ele></trkpt>
    <trkpt lat="44.276991" lon="5.270875"><ele>379.2</ele></trkpt>
    <trkpt lat="44.277130" lon="5.270763"><ele>380.7</ele></trkpt>
    <trkpt lat="44.277232" lon="5.270664"><ele>382.3</ele></trkpt>
    <trkpt lat="44.277373" lon="5.270484"><ele>385.2</ele></trkpt>
    <trkpt lat="44.277403" lon="5.270405"><ele>386.2</ele></trkpt>
    <trkpt lat="44.277408" lon="5.270292"><ele>387.2</ele></trkpt>
    <trkpt lat="44.277410" lon="5.270249"><ele>387.6</ele></trkpt>
    <trkpt lat="44.277401" lon="5.270191"><ele>387.7</ele></trkpt>
    <trkpt lat="44.277369" lon="5.269993"><ele>388.2</ele></trkpt>
    <trkpt lat="44.277367" lon="5.269878"><ele>388.6</ele></trkpt>
    <trkpt lat="44.277389" lon="5.269738"><ele>389.5</ele></trkpt>
    <trkpt lat="44.277459" lon="5.269417"><ele>393.0</ele></trkpt>
    <trkpt lat="44.277569" lon="5.269069"><ele>396.2</ele></trkpt>
    <trkpt lat="44.277606" lon="5.268971"><ele>397.4</ele></trkpt>
    <trkpt lat="44.277679" lon="5.268822"><ele>399.6</ele></trkpt>
    <trkpt lat="44.277752" lon="5.268693"><ele>401.5</ele></trkpt>
    <trkpt lat="44.277765" lon="5.268664"><ele>401.8</ele></trkpt>
    <trkpt lat="44.277809" lon="5.268554"><ele>402.6</ele></trkpt>
    <trkpt lat="44.277864" lon="5.268412"><ele>403.8</ele></trkpt>
    <trkpt lat="44.277914" lon="5.268241"><ele>404.9</ele></trkpt>
    <trkpt lat="44.278048" lon="5.267854"><ele>407.3</ele></trkpt>
    <trkpt lat="44.278086" lon="5.267778"><ele>408.2</ele></trkpt>
    <trkpt lat="44.278148" lon="5.267679"><ele>409.7</ele></trkpt>
    <trkpt lat="44.278199" lon="5.267554"><ele>410.7</ele></trkpt>
    <trkpt lat="44.278324" lon="5.267184"><ele>410.7</ele></trkpt>
    <trkpt lat="44.278341" lon="5.267150"><ele>410.5</ele></trkpt>
    <trkpt lat="44.278372" lon="5.267127"><ele>411.0</ele></trkpt>
    <trkpt lat="44.278409" lon="5.267138"><ele>412.7</ele></trkpt>
    <trkpt lat="44.278434" lon="5.267174"><ele>414.5</ele></trkpt>
    <trkpt lat="44.278449" lon="5.267239"><ele>416.4</ele></trkpt>
    <trkpt lat="44.278433" lon="5.267352"><ele>417.1</ele></trkpt>
    <trkpt lat="44.278402" lon="5.267467"><ele>417.6</ele></trkpt>
    <trkpt lat="44.278389" lon="5.267591"><ele>418.3</ele></trkpt>
    <trkpt lat="44.278439" lon="5.267907"><ele>421.3</ele></trkpt>
    <trkpt lat="44.278503" lon="5.268150"><ele>423.1</ele></trkpt>
    <trkpt lat="44.278544" lon="5.268250"><ele>423.8</ele></trkpt>
    <trkpt lat="44.278599" lon="5.268358"><ele>424.6</ele></trkpt>
    <trkpt lat="44.278677" lon="5.268436"><ele>426.1</ele></trkpt>
    <trkpt lat="44.278727" lon="5.268468"><ele>427.0</ele></trkpt>
    <trkpt lat="44.278773" lon="5.268497"><ele>427.8</ele></trkpt>
    <trkpt lat="44.279177" lon="5.268692"><ele>432.0</ele></trkpt>
    <trkpt lat="44.279323" lon="5.268753"><ele>433.5</ele></trkpt>
    <trkpt lat="44.279432" lon="5.268782"><ele>434.7</ele></trkpt>
    <trkpt lat="44.279550" lon="5.268791"><ele>435.5</ele></trkpt>
    <trkpt lat="44.279628" lon="5.268786"><ele>436.2</ele></trkpt>
    <trkpt lat="44.279672" lon="5.268782"><ele>436.6</ele></trkpt>
    <trkpt lat="44.279786" lon="5.268763"><ele>437.7</ele></trkpt>
    <trkpt lat="44.279857" lon="5.268742"><ele>438.6</ele></trkpt>
    <trkpt lat="44.279874" lon="5.268713"><ele>439.3</ele></trkpt>
    <trkpt lat="44.279886" lon="5.268661"><ele>440.3</ele></trkpt>
    <trkpt lat="44.279884" lon="5.268557"><ele>441.9</ele></trkpt>
    <trkpt lat="44.279866" lon="5.268405"><ele>444.0</ele></trkpt>
    <trkpt lat="44.279843" lon="5.268236"><ele>445.9</ele></trkpt>
    <trkpt lat="44.279769" lon="5.267884"><ele>447.4</ele></trkpt>
    <trkpt lat="44.279753" lon="5.267803"><ele>447.3</ele></trkpt>
    <trkpt lat="44.279750" lon="5.267753"><ele>447.2</ele></trkpt>
    <trkpt lat="44.279752" lon="5.267748"><ele>447.2</ele></trkpt>
    <trkpt lat="44.279777" lon="5.267690"><ele>447.3</ele></trkpt>
    <trkpt lat="44.279920" lon="5.267612"><ele>449.0</ele></trkpt>
    <trkpt lat="44.280001" lon="5.267589"><ele>450.0</ele></trkpt>
    <trkpt lat="44.280123" lon="5.267541"><ele>451.7</ele></trkpt>
    <trkpt lat="44.280185" lon="5.267492"><ele>452.7</ele></trkpt>
    <trkpt lat="44.280234" lon="5.267439"><ele>453.3</ele></trkpt>
    <trkpt lat="44.280284" lon="5.267313"><ele>454.1</ele></trkpt>
    <trkpt lat="44.280333" lon="5.267146"><ele>454.8</ele></trkpt>
    <trkpt lat="44.280406" lon="5.266859"><ele>455.3</ele></trkpt>
    <trkpt lat="44.280431" lon="5.266765"><ele>455.4</ele></trkpt>
    <trkpt lat="44.280446" lon="5.266743"><ele>455.6</ele></trkpt>
    <trkpt lat="44.280466" lon="5.266735"><ele>456.1</ele></trkpt>
    <trkpt lat="44.280492" lon="5.266733"><ele>456.7</ele></trkpt>
    <trkpt lat="44.280516" lon="5.266739"><ele>457.3</ele></trkpt>
    <trkpt lat="44.280534" lon="5.266760"><ele>457.8</ele></trkpt>
    <trkpt lat="44.280554" lon="5.266821"><ele>458.5</ele></trkpt>
    <trkpt lat="44.280603" lon="5.266958"><ele>459.9</ele></trkpt>
    <trkpt lat="44.280649" lon="5.267029"><ele>460.7</ele></trkpt>
    <trkpt lat="44.280742" lon="5.267093"><ele>462.4</ele></trkpt>
    <trkpt lat="44.280867" lon="5.267205"><ele>464.5</ele></trkpt>
    <trkpt lat="44.281064" lon="5.267412"><ele>466.0</ele></trkpt>
    <trkpt lat="44.281257" lon="5.267612"><ele>467.3</ele></trkpt>
    <trkpt lat="44.281339" lon="5.267676"><ele>468.0</ele></trkpt>
    <trkpt lat="44.281424" lon="5.267702"><ele>469.1</ele></trkpt>
    <trkpt lat="44.281572" lon="5.267700"><ele>471.4</ele></trkpt>
    <trkpt lat="44.281741" lon="5.267674"><ele>474.5</ele></trkpt>
    <trkpt lat="44.281868" lon="5.267649"><ele>477.0</ele></trkpt>
    <trkpt lat="44.281987" lon="5.267603"><ele>479.3</ele></trkpt>
    <trkpt lat="44.282067" lon="5.267537"><ele>480.9</ele></trkpt>
    <trkpt lat="44.282268" lon="5.267333"><ele>484.4</ele></trkpt>
    <trkpt lat="44.282385" lon="5.267177"><ele>487.3</ele></trkpt>
    <trkpt lat="44.282388" lon="5.267107"><ele>487.8</ele></trkpt>
    <trkpt lat="44.282385" lon="5.267036"><ele>488.3</ele></trkpt>
    <trkpt lat="44.282323" lon="5.266479"><ele>491.4</ele></trkpt>
    <trkpt lat="44.282288" lon="5.266340"><ele>491.9</ele></trkpt>
    <trkpt lat="44.282270" lon="5.266293"><ele>492.1</ele></trkpt>
    <trkpt lat="44.282249" lon="5.266238"><ele>492.2</ele></trkpt>
    <trkpt lat="44.282200" lon="5.266123"><ele>492.3</ele></trkpt>
    <trkpt lat="44.282188" lon="5.266020"><ele>492.8</ele></trkpt>
    <trkpt lat="44.282206" lon="5.265613"><ele>495.4</ele></trkpt>
    <trkpt lat="44.282216" lon="5.265477"><ele>496.1</ele></trkpt>
    <trkpt lat="44.282235" lon="5.265393"><ele>496.9</ele></trkpt>
    <trkpt lat="44.282258" lon="5.265331"><ele>497.6</ele></trkpt>
    <trkpt lat="44.282337" lon="5.265221"><ele>499.4</ele></trkpt>
    <trkpt lat="44.282417" lon="5.265136"><ele>500.8</ele></trkpt>
    <trkpt lat="44.282457" lon="5.265059"><ele>501.4</ele></trkpt>
    <trkpt lat="44.282462" lon="5.264991"><ele>501.3</ele></trkpt>
    <trkpt lat="44.282443" lon="5.264881"><ele>501.4</ele></trkpt>
    <trkpt lat="44.282435" lon="5.264760"><ele>501.7</ele></trkpt>
    <trkpt lat="44.282478" lon="5.264497"><ele>504.2</ele></trkpt>
    <trkpt lat="44.282543" lon="5.264101"><ele>508.1</ele></trkpt>
    <trkpt lat="44.282581" lon="5.263731"><ele>509.9</ele></trkpt>
    <trkpt lat="44.282583" lon="5.263454"><ele>511.4</ele></trkpt>
    <trkpt lat="44.282606" lon="5.263262"><ele>512.4</ele></trkpt>
    <trkpt lat="44.282626" lon="5.263145"><ele>512.5</ele></trkpt>
    <trkpt lat="44.282669" lon="5.263047"><ele>513.2</ele></trkpt>
    <trkpt lat="44.282742" lon="5.262939"><ele>514.7</ele></trkpt>
    <trkpt lat="44.282824" lon="5.262779"><ele>515.8</ele></trkpt>
    <trkpt lat="44.282876" lon="5.262642"><ele>516.8</ele></trkpt>
    <trkpt lat="44.282907" lon="5.262469"><ele>517.4</ele></trkpt>
    <trkpt lat="44.282922" lon="5.262216"><ele>518.1</ele></trkpt>
    <trkpt lat="44.282921" lon="5.262036"><ele>518.7</ele></trkpt>
    <trkpt lat="44.282939" lon="5.261847"><ele>519.7</ele></trkpt>
    <trkpt lat="44.282971" lon="5.261695"><ele>520.7</ele></trkpt>
    <trkpt lat="44.283003" lon="5.261610"><ele>521.3</ele></trkpt>
    <trkpt lat="44.282947" lon="5.261495"><ele>520.7</ele></trkpt>
    <trkpt lat="44.282891" lon="5.261398"><ele>520.2</ele></trkpt>
    <trkpt lat="44.282850" lon="5.261360"><ele>520.0</ele></trkpt>
    <trkpt lat="44.282814" lon="5.261341"><ele>519.8</ele></trkpt>
    <trkpt lat="44.282731" lon="5.261321"><ele>519.4</ele></trkpt>
    <trkpt lat="44.282392" lon="5.261245"><ele>518.3</ele></trkpt>
    <trkpt lat="44.282320" lon="5.261235"><ele>518.1</ele></trkpt>
    <trkpt lat="44.282251" lon="5.261237"><ele>517.6</ele></trkpt>
    <trkpt lat="44.282160" lon="5.261259"><ele>517.2</ele></trkpt>
    <trkpt lat="44.282026" lon="5.261326"><ele>516.2</ele></trkpt>
    <trkpt lat="44.281889" lon="5.261438"><ele>513.6</ele></trkpt>
    <trkpt lat="44.281798" lon="5.261501"><ele>511.8</ele></trkpt>
    <trkpt lat="44.281515" lon="5.261611"><ele>507.9</ele></trkpt>
    <trkpt lat="44.281378" lon="5.261632"><ele>506.8</ele></trkpt>
    <trkpt lat="44.281241" lon="5.261634"><ele>505.6</ele></trkpt>
    <trkpt lat="44.281058" lon="5.261599"><ele>504.6</ele></trkpt>
    <trkpt lat="44.280955" lon="5.261596"><ele>503.9</ele></trkpt>
    <trkpt lat="44.280901" lon="5.261609"><ele>503.3</ele></trkpt>
    <trkpt lat="44.280869" lon="5.261625"><ele>502.9</ele></trkpt>
    <trkpt lat="44.280843" lon="5.261655"><ele>502.2</ele></trkpt>
    <trkpt lat="44.280816" lon="5.261686"><ele>501.6</ele></trkpt>
    <trkpt lat="44.280550" lon="5.262084"><ele>496.4</ele></trkpt>
    <trkpt lat="44.280470" lon="5.262210"><ele>494.2</ele></trkpt>
    <trkpt lat="44.280412" lon="5.262244"><ele>493.1</ele></trkpt>
    <trkpt lat="44.280363" lon="5.262233"><ele>492.8</ele></trkpt>
    <trkpt lat="44.280253" lon="5.262160"><ele>491.5</ele></trkpt>
    <trkpt lat="44.280383" lon="5.261863"><ele>494.4</ele></trkpt>
    <trkpt lat="44.280510" lon="5.261599"><ele>498.1</ele></trkpt>
    <trkpt lat="44.280544" lon="5.261510"><ele>499.2</ele></trkpt>
    <trkpt lat="44.280561" lon="5.261421"><ele>500.0</ele></trkpt>
    <trkpt lat="44.280564" lon="5.261336"><ele>500.9</ele></trkpt>
    <trkpt lat="44.280563" lon="5.261270"><ele>501.9</ele></trkpt>
    <trkpt lat="44.280558" lon="5.261227"><ele>502.4</ele></trkpt>
    <trkpt lat="44.280545" lon="5.261165"><ele>502.9</ele></trkpt>
    <trkpt lat="44.280413" lon="5.260760"><ele>506.3</ele></trkpt>
    <trkpt lat="44.280360" lon="5.260616"><ele>507.8</ele></trkpt>
    <trkpt lat="44.280337" lon="5.260568"><ele>508.2</ele></trkpt>
    <trkpt lat="44.280317" lon="5.260540"><ele>508.4</ele></trkpt>
    <trkpt lat="44.280290" lon="5.260526"><ele>508.1</ele></trkpt>
    <trkpt lat="44.280254" lon="5.260523"><ele>507.8</ele></trkpt>
    <trkpt lat="44.280189" lon="5.260527"><ele>507.4</ele></trkpt>
    <trkpt lat="44.280126" lon="5.260532"><ele>507.0</ele></trkpt>
    <trkpt lat="44.280069" lon="5.260518"><ele>507.1</ele></trkpt>
    <trkpt lat="44.279767" lon="5.260336"><ele>507.6</ele></trkpt>
    <trkpt lat="44.279698" lon="5.260244"><ele>508.3</ele></trkpt>
    <trkpt lat="44.279657" lon="5.260109"><ele>510.0</ele></trkpt>
    <trkpt lat="44.279628" lon="5.259973"><ele>512.0</ele></trkpt>
    <trkpt lat="44.279507" lon="5.259730"><ele>514.6</ele></trkpt>
    <trkpt lat="44.279430" lon="5.259630"><ele>515.1</ele></trkpt>
    <trkpt lat="44.279357" lon="5.259550"><ele>515.9</ele></trkpt>
    <trkpt lat="44.279288" lon="5.259460"><ele>516.8</ele></trkpt>
    <trkpt lat="44.279246" lon="5.259372"><ele>515.8</ele></trkpt>
    <trkpt lat="44.279246" lon="5.259293"><ele>515.2</ele></trkpt>
    <trkpt lat="44.279276" lon="5.259233"><ele>515.1</ele></trkpt>
    <trkpt lat="44.279313" lon="5.259213"><ele>515.5</ele></trkpt>
    <trkpt lat="44.279364" lon="5.259205"><ele>516.2</ele></trkpt>
    <trkpt lat="44.279760" lon="5.259195"><ele>520.1</ele></trkpt>
    <trkpt lat="44.279880" lon="5.259196"><ele>521.5</ele></trkpt>
    <trkpt lat="44.279998" lon="5.259200"><ele>522.9</ele></trkpt>
    <trkpt lat="44.280059" lon="5.259195"><ele>523.7</ele></trkpt>
    <trkpt lat="44.280132" lon="5.259184"><ele>524.5</ele></trkpt>
    <trkpt lat="44.280288" lon="5.259134"><ele>525.0</ele></trkpt>
    <trkpt lat="44.280407" lon="5.259076"><ele>526.3</ele></trkpt>
    <trkpt lat="44.280480" lon="5.259025"><ele>527.0</ele></trkpt>
    <trkpt lat="44.280530" lon="5.258961"><ele>526.9</ele></trkpt>
    <trkpt lat="44.280600" lon="5.258862"><ele>526.7</ele></trkpt>
    <trkpt lat="44.280720" lon="5.258690"><ele>526.0</ele></trkpt>
    <trkpt lat="44.280886" lon="5.258471"><ele>526.5</ele></trkpt>
    <trkpt lat="44.280982" lon="5.258347"><ele>526.1</ele></trkpt>
    <trkpt lat="44.281096" lon="5.258249"><ele>526.5</ele></trkpt>
    <trkpt lat="44.281171" lon="5.258204"><ele>526.7</ele></trkpt>
    <trkpt lat="44.281269" lon="5.258185"><ele>527.8</ele></trkpt>
    <trkpt lat="44.281419" lon="5.258164"><ele>529.2</ele></trkpt>
    <trkpt lat="44.281635" lon="5.258164"><ele>529.7</ele></trkpt>
    <trkpt lat="44.281759" lon="5.258142"><ele>530.1</ele></trkpt>
    <trkpt lat="44.282118" lon="5.258065"><ele>532.1</ele></trkpt>
    <trkpt lat="44.282449" lon="5.257967"><ele>534.1</ele></trkpt>
    <trkpt lat="44.282762" lon="5.257868"><ele>536.0</ele></trkpt>
    <trkpt lat="44.282926" lon="5.257858"><ele>538.2</ele></trkpt>
    <trkpt lat="44.283021" lon="5.257834"><ele>538.9</ele></trkpt>
    <trkpt lat="44.283089" lon="5.257788"><ele>538.6</ele></trkpt>
    <trkpt lat="44.283192" lon="5.257712"><ele>538.3</ele></trkpt>
    <trkpt lat="44.283303" lon="5.257638"><ele>538.5</ele></trkpt>
    <trkpt lat="44.283391" lon="5.257602"><ele>538.9</ele></trkpt>
    <trkpt lat="44.283553" lon="5.257564"><ele>539.5</ele></trkpt>
    <trkpt lat="44.283669" lon="5.257549"><ele>540.3</ele></trkpt>
    <trkpt lat="44.283737" lon="5.257550"><ele>541.0</ele></trkpt>
    <trkpt lat="44.283793" lon="5.257558"><ele>541.7</ele></trkpt>
    <trkpt lat="44.283867" lon="5.257567"><ele>542.5</ele></trkpt>
    <trkpt lat="44.283943" lon="5.257566"><ele>543.3</ele></trkpt>
    <trkpt lat="44.284024" lon="5.257542"><ele>543.9</ele></trkpt>
    <trkpt lat="44.284110" lon="5.257486"><ele>544.3</ele></trkpt>
    <trkpt lat="44.284319" lon="5.257361"><ele>547.0</ele></trkpt>
    <trkpt lat="44.284308" lon="5.257816"><ele>550.4</ele></trkpt>
    <trkpt lat="44.284305" lon="5.257856"><ele>550.7</ele></trkpt>
    <trkpt lat="44.284291" lon="5.257927"><ele>551.2</ele></trkpt>
    <trkpt lat="44.284271" lon="5.257984"><ele>551.5</ele></trkpt>
    <trkpt lat="44.284220" lon="5.258035"><ele>551.4</ele></trkpt>
    <trkpt lat="44.284155" lon="5.258081"><ele>551.6</ele></trkpt>
    <trkpt lat="44.284080" lon="5.258104"><ele>551.7</ele></trkpt>
    <trkpt lat="44.284037" lon="5.258128"><ele>552.0</ele></trkpt>
    <trkpt lat="44.284014" lon="5.258148"><ele>552.4</ele></trkpt>
    <trkpt lat="44.284001" lon="5.258189"><ele>553.5</ele></trkpt>
    <trkpt lat="44.284006" lon="5.258222"><ele>554.4</ele></trkpt>
    <trkpt lat="44.284022" lon="5.258259"><ele>555.5</ele></trkpt>
    <trkpt lat="44.284070" lon="5.258306"><ele>556.9</ele></trkpt>
    <trkpt lat="44.284130" lon="5.258327"><ele>557.7</ele></trkpt>
    <trkpt lat="44.284201" lon="5.258334"><ele>558.1</ele></trkpt>
    <trkpt lat="44.284319" lon="5.258319"><ele>558.2</ele></trkpt>
    <trkpt lat="44.284677" lon="5.258254"><ele>560.6</ele></trkpt>
    <trkpt lat="44.284788" lon="5.258200"><ele>561.9</ele></trkpt>
    <trkpt lat="44.284846" lon="5.258161"><ele>562.5</ele></trkpt>
    <trkpt lat="44.284883" lon="5.258154"><ele>563.2</ele></trkpt>
    <trkpt lat="44.284913" lon="5.258161"><ele>563.8</ele></trkpt>
    <trkpt lat="44.284931" lon="5.258192"><ele>564.6</ele></trkpt>
    <trkpt lat="44.284932" lon="5.258229"><ele>565.1</ele></trkpt>
    <trkpt lat="44.284903" lon="5.258278"><ele>565.2</ele></trkpt>
    <trkpt lat="44.284522" lon="5.258645"><ele>568.4</ele></trkpt>
    <trkpt lat="44.284456" lon="5.258686"><ele>569.0</ele></trkpt>
    <trkpt lat="44.284365" lon="5.258724"><ele>569.3</ele></trkpt>
    <trkpt lat="44.284296" lon="5.258732"><ele>569.0</ele></trkpt>
    <trkpt lat="44.284239" lon="5.258749"><ele>569.0</ele></trkpt>
    <trkpt lat="44.284205" lon="5.258769"><ele>569.3</ele></trkpt>
    <trkpt lat="44.284196" lon="5.258810"><ele>570.2</ele></trkpt>
    <trkpt lat="44.284219" lon="5.258871"><ele>571.9</ele></trkpt>
    <trkpt lat="44.284255" lon="5.258875"><ele>572.3</ele></trkpt>
    <trkpt lat="44.284348" lon="5.258873"><ele>572.9</ele></trkpt>
    <trkpt lat="44.284551" lon="5.258867"><ele>574.2</ele></trkpt>
    <trkpt lat="44.284637" lon="5.258856"><ele>574.6</ele></trkpt>
    <trkpt lat="44.284919" lon="5.258829"><ele>577.5</ele></trkpt>
    <trkpt lat="44.285189" lon="5.258814"><ele>581.3</ele></trkpt>
    <trkpt lat="44.285277" lon="5.258905"><ele>584.2</ele></trkpt>
    <trkpt lat="44.285199" lon="5.259004"><ele>584.2</ele></trkpt>
    <trkpt lat="44.285155" lon="5.259091"><ele>584.7</ele></trkpt>
    <trkpt lat="44.285133" lon="5.259170"><ele>585.4</ele></trkpt>
    <trkpt lat="44.285127" lon="5.259272"><ele>585.3</ele></trkpt>
    <trkpt lat="44.285131" lon="5.259307"><ele>585.4</ele></trkpt>
    <trkpt lat="44.285136" lon="5.259340"><ele>585.5</ele></trkpt>
    <trkpt lat="44.285168" lon="5.259425"><ele>586.0</ele></trkpt>
    <trkpt lat="44.285184" lon="5.259453"><ele>586.2</ele></trkpt>
    <trkpt lat="44.285227" lon="5.259526"><ele>586.4</ele></trkpt>
    <trkpt lat="44.285338" lon="5.259664"><ele>587.9</ele></trkpt>
    <trkpt lat="44.285535" lon="5.259867"><ele>590.4</ele></trkpt>
    <trkpt lat="44.285714" lon="5.260076"><ele>591.2</ele></trkpt>
    <trkpt lat="44.285831" lon="5.260220"><ele>591.8</ele></trkpt>
    <trkpt lat="44.285907" lon="5.260331"><ele>592.1</ele></trkpt>
    <trkpt lat="44.285974" lon="5.260509"><ele>592.0</ele></trkpt>
    <trkpt lat="44.286019" lon="5.260612"><ele>592.0</ele></trkpt>
    <trkpt lat="44.286058" lon="5.260675"><ele>592.3</ele></trkpt>
    <trkpt lat="44.286107" lon="5.260726"><ele>593.0</ele></trkpt>
    <trkpt lat="44.286196" lon="5.260780"><ele>593.7</ele></trkpt>
    <trkpt lat="44.286306" lon="5.260828"><ele>594.9</ele></trkpt>
    <trkpt lat="44.286384" lon="5.260881"><ele>595.6</ele></trkpt>
    <trkpt lat="44.286442" lon="5.260961"><ele>596.1</ele></trkpt>
    <trkpt lat="44.286491" lon="5.261074"><ele>596.4</ele></trkpt>
    <trkpt lat="44.286520" lon="5.261181"><ele>596.7</ele></trkpt>
    <trkpt lat="44.286546" lon="5.261290"><ele>597.0</ele></trkpt>
    <trkpt lat="44.286607" lon="5.261413"><ele>597.9</ele></trkpt>
    <trkpt lat="44.286739" lon="5.261562"><ele>599.9</ele></trkpt>
    <trkpt lat="44.286829" lon="5.261711"><ele>600.8</ele></trkpt>
    <trkpt lat="44.286898" lon="5.261852"><ele>601.5</ele></trkpt>
    <trkpt lat="44.286937" lon="5.261945"><ele>601.9</ele></trkpt>
    <trkpt lat="44.287034" lon="5.261988"><ele>603.9</ele></trkpt>
    <trkpt lat="44.287180" lon="5.261979"><ele>607.1</ele></trkpt>
    <trkpt lat="44.287369" lon="5.261977"><ele>611.2</ele></trkpt>
    <trkpt lat="44.287464" lon="5.262000"><ele>613.2</ele></trkpt>
    <trkpt lat="44.287487" lon="5.261947"><ele>613.7</ele></trkpt>
    <trkpt lat="44.287498" lon="5.261922"><ele>614.3</ele></trkpt>
    <trkpt lat="44.287518" lon="5.261872"><ele>615.5</ele></trkpt>
    <trkpt lat="44.287515" lon="5.261811"><ele>616.3</ele></trkpt>
    <trkpt lat="44.287501" lon="5.261731"><ele>617.1</ele></trkpt>
    <trkpt lat="44.287448" lon="5.261568"><ele>618.3</ele></trkpt>
    <trkpt lat="44.287360" lon="5.261370"><ele>618.8</ele></trkpt>
    <trkpt lat="44.287285" lon="5.261183"><ele>619.3</ele></trkpt>
    <trkpt lat="44.287265" lon="5.261126"><ele>619.5</ele></trkpt>
    <trkpt lat="44.287256" lon="5.261079"><ele>619.6</ele></trkpt>
    <trkpt lat="44.287260" lon="5.260961"><ele>620.7</ele></trkpt>
    <trkpt lat="44.287274" lon="5.260864"><ele>622.0</ele></trkpt>
    <trkpt lat="44.287300" lon="5.260825"><ele>623.4</ele></trkpt>
    <trkpt lat="44.287317" lon="5.260754"><ele>624.3</ele></trkpt>
    <trkpt lat="44.287346" lon="5.260615"><ele>625.8</ele></trkpt>
    <trkpt lat="44.287351" lon="5.260536"><ele>626.4</ele></trkpt>
    <trkpt lat="44.287347" lon="5.260472"><ele>627.2</ele></trkpt>
    <trkpt lat="44.287313" lon="5.260339"><ele>628.0</ele></trkpt>
    <trkpt lat="44.287278" lon="5.260248"><ele>628.5</ele></trkpt>
    <trkpt lat="44.287215" lon="5.260137"><ele>629.3</ele></trkpt>
    <trkpt lat="44.287182" lon="5.260062"><ele>630.3</ele></trkpt>
    <trkpt lat="44.287155" lon="5.259992"><ele>631.2</ele></trkpt>
    <trkpt lat="44.287131" lon="5.259874"><ele>632.8</ele></trkpt>
    <trkpt lat="44.287094" lon="5.259690"><ele>635.4</ele></trkpt>
    <trkpt lat="44.287064" lon="5.259524"><ele>638.0</ele></trkpt>
    <trkpt lat="44.287056" lon="5.259382"><ele>639.4</ele></trkpt>
    <trkpt lat="44.287057" lon="5.259312"><ele>639.3</ele></trkpt>
    <trkpt lat="44.287058" lon="5.259268"><ele>639.3</ele></trkpt>
    <trkpt lat="44.287075" lon="5.259225"><ele>639.8</ele></trkpt>
    <trkpt lat="44.287104" lon="5.259166"><ele>640.6</ele></trkpt>
    <trkpt lat="44.287164" lon="5.259082"><ele>640.7</ele></trkpt>
    <trkpt lat="44.287274" lon="5.258968"><ele>641.5</ele></trkpt>
    <trkpt lat="44.287388" lon="5.258832"><ele>641.6</ele></trkpt>
    <trkpt lat="44.287424" lon="5.258749"><ele>641.1</ele></trkpt>
    <trkpt lat="44.287465" lon="5.258620"><ele>640.1</ele></trkpt>
    <trkpt lat="44.287491" lon="5.258511"><ele>639.6</ele></trkpt>
    <trkpt lat="44.287584" lon="5.258320"><ele>640.5</ele></trkpt>
    <trkpt lat="44.287635" lon="5.258243"><ele>641.1</ele></trkpt>
    <trkpt lat="44.287689" lon="5.258189"><ele>642.0</ele></trkpt>
    <trkpt lat="44.287768" lon="5.258142"><ele>643.9</ele></trkpt>
    <trkpt lat="44.287848" lon="5.258104"><ele>645.1</ele></trkpt>
    <trkpt lat="44.287966" lon="5.258026"><ele>646.5</ele></trkpt>
    <trkpt lat="44.288054" lon="5.257922"><ele>646.6</ele></trkpt>
    <trkpt lat="44.288253" lon="5.257678"><ele>647.2</ele></trkpt>
    <trkpt lat="44.288599" lon="5.257249"><ele>648.2</ele></trkpt>
    <trkpt lat="44.288778" lon="5.257007"><ele>649.1</ele></trkpt>
    <trkpt lat="44.288820" lon="5.256965"><ele>649.6</ele></trkpt>
    <trkpt lat="44.289151" lon="5.256781"><ele>654.3</ele></trkpt>
    <trkpt lat="44.289199" lon="5.256759"><ele>655.1</ele></trkpt>
    <trkpt lat="44.289221" lon="5.256757"><ele>655.5</ele></trkpt>
    <trkpt lat="44.289254" lon="5.256761"><ele>656.4</ele></trkpt>
    <trkpt lat="44.289456" lon="5.256733"><ele>660.5</ele></trkpt>
    <trkpt lat="44.289622" lon="5.256603"><ele>662.0</ele></trkpt>
    <trkpt lat="44.289842" lon="5.256450"><ele>663.1</ele></trkpt>
    <trkpt lat="44.289997" lon="5.256439"><ele>666.2</ele></trkpt>
    <trkpt lat="44.290025" lon="5.256438"><ele>666.8</ele></trkpt>
    <trkpt lat="44.290035" lon="5.256437"><ele>667.0</ele></trkpt>
    <trkpt lat="44.290098" lon="5.256445"><ele>668.5</ele></trkpt>
    <trkpt lat="44.290314" lon="5.256426"><ele>672.8</ele></trkpt>
    <trkpt lat="44.290429" lon="5.256366"><ele>673.9</ele></trkpt>
    <trkpt lat="44.290472" lon="5.256357"><ele>674.6</ele></trkpt>
    <trkpt lat="44.290515" lon="5.256357"><ele>675.6</ele></trkpt>
    <trkpt lat="44.290552" lon="5.256366"><ele>676.8</ele></trkpt>
    <trkpt lat="44.290607" lon="5.256391"><ele>678.8</ele></trkpt>
    <trkpt lat="44.290736" lon="5.256463"><ele>682.3</ele></trkpt>
    <trkpt lat="44.290930" lon="5.256557"><ele>687.2</ele></trkpt>
    <trkpt lat="44.291016" lon="5.256594"><ele>689.1</ele></trkpt>
    <trkpt lat="44.291040" lon="5.256591"><ele>689.4</ele></trkpt>
    <trkpt lat="44.291055" lon="5.256582"><ele>689.5</ele></trkpt>
    <trkpt lat="44.291084" lon="5.256537"><ele>689.6</ele></trkpt>
    <trkpt lat="44.291153" lon="5.256454"><ele>690.6</ele></trkpt>
    <trkpt lat="44.291202" lon="5.256412"><ele>691.7</ele></trkpt>
    <trkpt lat="44.291247" lon="5.256389"><ele>692.9</ele></trkpt>
    <trkpt lat="44.291285" lon="5.256392"><ele>694.0</ele></trkpt>
    <trkpt lat="44.291320" lon="5.256412"><ele>695.0</ele></trkpt>
    <trkpt lat="44.291433" lon="5.256488"><ele>698.5</ele></trkpt>
    <trkpt lat="44.291545" lon="5.256571"><ele>702.2</ele></trkpt>
    <trkpt lat="44.291642" lon="5.256690"><ele>704.1</ele></trkpt>
    <trkpt lat="44.291664" lon="5.256714"><ele>704.7</ele></trkpt>
    <trkpt lat="44.291697" lon="5.256714"><ele>706.0</ele></trkpt>
    <trkpt lat="44.291716" lon="5.256708"><ele>706.8</ele></trkpt>
    <trkpt lat="44.291724" lon="5.256697"><ele>707.1</ele></trkpt>
    <trkpt lat="44.291729" lon="5.256678"><ele>707.4</ele></trkpt>
    <trkpt lat="44.291727" lon="5.256645"><ele>707.8</ele></trkpt>
    <trkpt lat="44.291719" lon="5.256608"><ele>708.2</ele></trkpt>
    <trkpt lat="44.291706" lon="5.256556"><ele>708.6</ele></trkpt>
    <trkpt lat="44.291694" lon="5.256491"><ele>709.3</ele></trkpt>
    <trkpt lat="44.291692" lon="5.256314"><ele>711.7</ele></trkpt>
    <trkpt lat="44.291698" lon="5.256135"><ele>713.3</ele></trkpt>
    <trkpt lat="44.291712" lon="5.255985"><ele>714.5</ele></trkpt>
    <trkpt lat="44.291770" lon="5.255476"><ele>718.4</ele></trkpt>
    <trkpt lat="44.291781" lon="5.255383"><ele>718.4</ele></trkpt>
    <trkpt lat="44.291805" lon="5.255349"><ele>719.2</ele></trkpt>
    <trkpt lat="44.291832" lon="5.255344"><ele>720.3</ele></trkpt>
    <trkpt lat="44.291863" lon="5.255467"><ele>721.9</ele></trkpt>
    <trkpt lat="44.292023" lon="5.255884"><ele>728.3</ele></trkpt>
    <trkpt lat="44.292059" lon="5.255967"><ele>729.6</ele></trkpt>
    <trkpt lat="44.292088" lon="5.256020"><ele>730.5</ele></trkpt>
    <trkpt lat="44.292150" lon="5.256096"><ele>732.5</ele></trkpt>
    <trkpt lat="44.292633" lon="5.256513"><ele>744.6</ele></trkpt>
    <trkpt lat="44.292706" lon="5.256576"><ele>747.0</ele></trkpt>
    <trkpt lat="44.292754" lon="5.256589"><ele>748.8</ele></trkpt>
    <trkpt lat="44.292793" lon="5.256585"><ele>750.2</ele></trkpt>
    <trkpt lat="44.292864" lon="5.256550"><ele>752.1</ele></trkpt>
    <trkpt lat="44.292977" lon="5.256454"><ele>754.6</ele></trkpt>
    <trkpt lat="44.293195" lon="5.256217"><ele>758.0</ele></trkpt>
    <trkpt lat="44.293358" lon="5.255984"><ele>759.4</ele></trkpt>
    <trkpt lat="44.293524" lon="5.255790"><ele>761.9</ele></trkpt>
    <trkpt lat="44.293619" lon="5.255690"><ele>763.2</ele></trkpt>
    <trkpt lat="44.293746" lon="5.255597"><ele>766.1</ele></trkpt>
    <trkpt lat="44.293988" lon="5.255426"><ele>771.4</ele></trkpt>
    <trkpt lat="44.294174" lon="5.255258"><ele>775.0</ele></trkpt>
    <trkpt lat="44.294330" lon="5.255095"><ele>778.4</ele></trkpt>
    <trkpt lat="44.294474" lon="5.254979"><ele>781.9</ele></trkpt>
    <trkpt lat="44.294691" lon="5.254838"><ele>787.9</ele></trkpt>
    <trkpt lat="44.294916" lon="5.254698"><ele>794.9</ele></trkpt>
    <trkpt lat="44.295074" lon="5.254584"><ele>801.3</ele></trkpt>
    <trkpt lat="44.295159" lon="5.254438"><ele>804.2</ele></trkpt>
    <trkpt lat="44.295179" lon="5.254407"><ele>804.9</ele></trkpt>
    <trkpt lat="44.295240" lon="5.254312"><ele>807.2</ele></trkpt>
    <trkpt lat="44.295307" lon="5.254212"><ele>809.4</ele></trkpt>
    <trkpt lat="44.295401" lon="5.254121"><ele>812.8</ele></trkpt>
    <trkpt lat="44.295661" lon="5.253905"><ele>821.3</ele></trkpt>
    <trkpt lat="44.295899" lon="5.253700"><ele>827.3</ele></trkpt>
    <trkpt lat="44.295987" lon="5.253580"><ele>828.4</ele></trkpt>
    <trkpt lat="44.296065" lon="5.253506"><ele>830.2</ele></trkpt>
    <trkpt lat="44.296165" lon="5.253429"><ele>832.8</ele></trkpt>
    <trkpt lat="44.296224" lon="5.253401"><ele>834.8</ele></trkpt>
    <trkpt lat="44.296495" lon="5.253280"><ele>843.8</ele></trkpt>
    <trkpt lat="44.296662" lon="5.253318"><ele>849.8</ele></trkpt>
    <trkpt lat="44.296864" lon="5.253258"><ele>852.5</ele></trkpt>
    <trkpt lat="44.297198" lon="5.253124"><ele>855.4</ele></trkpt>
    <trkpt lat="44.297413" lon="5.253051"><ele>854.0</ele></trkpt>
    <trkpt lat="44.297518" lon="5.252819"><ele>853.7</ele></trkpt>
    <trkpt lat="44.297518" lon="5.252730"><ele>854.9</ele></trkpt>
    <trkpt lat="44.297524" lon="5.252669"><ele>855.2</ele></trkpt>
    <trkpt lat="44.297538" lon="5.252607"><ele>855.0</ele></trkpt>
    <trkpt lat="44.297568" lon="5.252495"><ele>854.7</ele></trkpt>
    <trkpt lat="44.297600" lon="5.252377"><ele>855.8</ele></trkpt>
    <trkpt lat="44.297623" lon="5.252331"><ele>856.0</ele></trkpt>
    <trkpt lat="44.297674" lon="5.252256"><ele>856.0</ele></trkpt>
    <trkpt lat="44.297755" lon="5.252174"><ele>855.5</ele></trkpt>
    <trkpt lat="44.297809" lon="5.252106"><ele>854.3</ele></trkpt>
    <trkpt lat="44.297825" lon="5.252053"><ele>854.6</ele></trkpt>
    <trkpt lat="44.297843" lon="5.251971"><ele>855.4</ele></trkpt>
    <trkpt lat="44.297866" lon="5.251840"><ele>856.0</ele></trkpt>
    <trkpt lat="44.297880" lon="5.251775"><ele>856.1</ele></trkpt>
    <trkpt lat="44.297978" lon="5.251664"><ele>850.9</ele></trkpt>
    <trkpt lat="44.297995" lon="5.251655"><ele>849.9</ele></trkpt>
    <trkpt lat="44.298005" lon="5.251664"><ele>848.9</ele></trkpt>
    <trkpt lat="44.298000" lon="5.251689"><ele>848.6</ele></trkpt>
    <trkpt lat="44.298095" lon="5.251711"><ele>841.2</ele></trkpt>
    <trkpt lat="44.298151" lon="5.251544"><ele>842.5</ele></trkpt>
    <trkpt lat="44.298330" lon="5.251196"><ele>841.7</ele></trkpt>
    <trkpt lat="44.298513" lon="5.250859"><ele>841.6</ele></trkpt>
    <trkpt lat="44.298568" lon="5.250775"><ele>841.1</ele></trkpt>
    <trkpt lat="44.298596" lon="5.250719"><ele>841.1</ele></trkpt>
    <trkpt lat="44.298609" lon="5.250648"><ele>842.1</ele></trkpt>
    <trkpt lat="44.298629" lon="5.250539"><ele>843.4</ele></trkpt>
    <trkpt lat="44.298632" lon="5.250381"><ele>844.8</ele></trkpt>
    <trkpt lat="44.298609" lon="5.249906"><ele>847.8</ele></trkpt>
    <trkpt lat="44.298589" lon="5.249274"><ele>846.3</ele></trkpt>
    <trkpt lat="44.298615" lon="5.248982"><ele>844.8</ele></trkpt>
    <trkpt lat="44.298664" lon="5.248288"><ele>841.8</ele></trkpt>
    <trkpt lat="44.298655" lon="5.248102"><ele>842.4</ele></trkpt>
    <trkpt lat="44.298631" lon="5.247913"><ele>844.5</ele></trkpt>
    <trkpt lat="44.298606" lon="5.247803"><ele>846.2</ele></trkpt>
    <trkpt lat="44.298587" lon="5.247721"><ele>847.8</ele></trkpt>
    <trkpt lat="44.298578" lon="5.247640"><ele>848.9</ele></trkpt>
    <trkpt lat="44.298576" lon="5.247527"><ele>849.8</ele></trkpt>
    <trkpt lat="44.298591" lon="5.247297"><ele>852.0</ele></trkpt>
    <trkpt lat="44.298618" lon="5.247016"><ele>856.3</ele></trkpt>
    <trkpt lat="44.298652" lon="5.246870"><ele>859.0</ele></trkpt>
    <trkpt lat="44.298739" lon="5.246619"><ele>863.6</ele></trkpt>
    <trkpt lat="44.298770" lon="5.246593"><ele>863.9</ele></trkpt>
    <trkpt lat="44.298822" lon="5.246568"><ele>863.9</ele></trkpt>
    <trkpt lat="44.298895" lon="5.246548"><ele>863.6</ele></trkpt>
    <trkpt lat="44.298968" lon="5.246539"><ele>863.6</ele></trkpt>
    <trkpt lat="44.299034" lon="5.246504"><ele>864.2</ele></trkpt>
    <trkpt lat="44.299098" lon="5.246453"><ele>865.0</ele></trkpt>
    <trkpt lat="44.299146" lon="5.246396"><ele>865.9</ele></trkpt>
    <trkpt lat="44.299189" lon="5.246315"><ele>866.0</ele></trkpt>
    <trkpt lat="44.299248" lon="5.246196"><ele>865.3</ele></trkpt>
    <trkpt lat="44.299296" lon="5.246048"><ele>864.7</ele></trkpt>
    <trkpt lat="44.299411" lon="5.245750"><ele>861.9</ele></trkpt>
    <trkpt lat="44.299479" lon="5.245581"><ele>860.0</ele></trkpt>
    <trkpt lat="44.299519" lon="5.245462"><ele>859.2</ele></trkpt>
    <trkpt lat="44.299599" lon="5.245089"><ele>857.5</ele></trkpt>
    <trkpt lat="44.299649" lon="5.244870"><ele>856.1</ele></trkpt>
    <trkpt lat="44.299767" lon="5.244376"><ele>852.5</ele></trkpt>
    <trkpt lat="44.299802" lon="5.244199"><ele>851.4</ele></trkpt>
    <trkpt lat="44.299811" lon="5.244048"><ele>851.6</ele></trkpt>
    <trkpt lat="44.299829" lon="5.243991"><ele>851.2</ele></trkpt>
    <trkpt lat="44.299857" lon="5.243932"><ele>850.5</ele></trkpt>
    <trkpt lat="44.299913" lon="5.243850"><ele>849.2</ele></trkpt>
    <trkpt lat="44.299973" lon="5.243786"><ele>847.9</ele></trkpt>
    <trkpt lat="44.300031" lon="5.243663"><ele>847.5</ele></trkpt>
    <trkpt lat="44.300195" lon="5.243287"><ele>843.2</ele></trkpt>
    <trkpt lat="44.300234" lon="5.243167"><ele>841.7</ele></trkpt>
    <trkpt lat="44.300271" lon="5.243044"><ele>840.2</ele></trkpt>
    <trkpt lat="44.300321" lon="5.242711"><ele>839.3</ele></trkpt>
    <trkpt lat="44.300346" lon="5.242517"><ele>839.2</ele></trkpt>
    <trkpt lat="44.300370" lon="5.242271"><ele>839.5</ele></trkpt>
    <trkpt lat="44.300442" lon="5.241801"><ele>839.4</ele></trkpt>
    <trkpt lat="44.300591" lon="5.240929"><ele>838.7</ele></trkpt>
    <trkpt lat="44.300703" lon="5.240311"><ele>839.0</ele></trkpt>
    <trkpt lat="44.300739" lon="5.240233"><ele>839.0</ele></trkpt>
    <trkpt lat="44.300839" lon="5.240044"><ele>839.3</ele></trkpt>
    <trkpt lat="44.300912" lon="5.239918"><ele>839.8</ele></trkpt>
    <trkpt lat="44.301017" lon="5.239775"><ele>839.9</ele></trkpt>
    <trkpt lat="44.301135" lon="5.239608"><ele>840.6</ele></trkpt>
    <trkpt lat="44.301242" lon="5.239436"><ele>840.9</ele></trkpt>
    <trkpt lat="44.301459" lon="5.239054"><ele>842.0</ele></trkpt>
    <trkpt lat="44.301901" lon="5.238315"><ele>843.8</ele></trkpt>
    <trkpt lat="44.302055" lon="5.238070"><ele>845.1</ele></trkpt>
    <trkpt lat="44.302163" lon="5.237921"><ele>846.1</ele></trkpt>
    <trkpt lat="44.302310" lon="5.237788"><ele>846.5</ele></trkpt>
    <trkpt lat="44.302469" lon="5.237625"><ele>847.2</ele></trkpt>
    <trkpt lat="44.302662" lon="5.237396"><ele>848.1</ele></trkpt>
    <trkpt lat="44.302786" lon="5.237240"><ele>848.3</ele></trkpt>
    <trkpt lat="44.302984" lon="5.236952"><ele>849.6</ele></trkpt>
    <trkpt lat="44.303207" lon="5.236620"><ele>849.9</ele></trkpt>
    <trkpt lat="44.303437" lon="5.236284"><ele>850.0</ele></trkpt>
    <trkpt lat="44.303522" lon="5.236142"><ele>850.2</ele></trkpt>
    <trkpt lat="44.303595" lon="5.235989"><ele>850.0</ele></trkpt>
    <trkpt lat="44.303681" lon="5.235838"><ele>850.5</ele></trkpt>
    <trkpt lat="44.303773" lon="5.235697"><ele>849.9</ele></trkpt>
    <trkpt lat="44.303835" lon="5.235661"><ele>850.4</ele></trkpt>
    <trkpt lat="44.303888" lon="5.235631"><ele>851.2</ele></trkpt>
    <trkpt lat="44.304049" lon="5.235496"><ele>852.1</ele></trkpt>
    <trkpt lat="44.304266" lon="5.235312"><ele>854.2</ele></trkpt>
    <trkpt lat="44.304505" lon="5.235106"><ele>856.4</ele></trkpt>
    <trkpt lat="44.304794" lon="5.234841"><ele>858.9</ele></trkpt>
    <trkpt lat="44.304912" lon="5.234698"><ele>860.0</ele></trkpt>
    <trkpt lat="44.305082" lon="5.234522"><ele>860.9</ele></trkpt>
    <trkpt lat="44.305204" lon="5.234429"><ele>860.0</ele></trkpt>
    <trkpt lat="44.305350" lon="5.234303"><ele>860.3</ele></trkpt>
    <trkpt lat="44.305512" lon="5.234120"><ele>861.2</ele></trkpt>
    <trkpt lat="44.305887" lon="5.233693"><ele>863.4</ele></trkpt>
    <trkpt lat="44.306032" lon="5.233503"><ele>864.5</ele></trkpt>
    <trkpt lat="44.306388" lon="5.232898"><ele>868.0</ele></trkpt>
    <trkpt lat="44.306578" lon="5.232540"><ele>869.1</ele></trkpt>
    <trkpt lat="44.306721" lon="5.232231"><ele>871.2</ele></trkpt>
    <trkpt lat="44.306805" lon="5.232074"><ele>871.0</ele></trkpt>
    <trkpt lat="44.306917" lon="5.231907"><ele>869.8</ele></trkpt>
    <trkpt lat="44.307014" lon="5.231755"><ele>869.1</ele></trkpt>
    <trkpt lat="44.307079" lon="5.231601"><ele>869.8</ele></trkpt>
    <trkpt lat="44.307168" lon="5.231412"><ele>870.3</ele></trkpt>
    <trkpt lat="44.307234" lon="5.231286"><ele>870.9</ele></trkpt>
    <trkpt lat="44.307431" lon="5.230978"><ele>872.3</ele></trkpt>
    <trkpt lat="44.307742" lon="5.230444"><ele>877.2</ele></trkpt>
    <trkpt lat="44.307852" lon="5.230259"><ele>879.0</ele></trkpt>
    <trkpt lat="44.307976" lon="5.230047"><ele>880.6</ele></trkpt>
    <trkpt lat="44.308067" lon="5.229872"><ele>881.3</ele></trkpt>
    <trkpt lat="44.308145" lon="5.229669"><ele>882.5</ele></trkpt>
    <trkpt lat="44.308218" lon="5.229464"><ele>883.5</ele></trkpt>
    <trkpt lat="44.308287" lon="5.229243"><ele>884.2</ele></trkpt>
    <trkpt lat="44.308354" lon="5.229007"><ele>885.7</ele></trkpt>
    <trkpt lat="44.308406" lon="5.228816"><ele>887.5</ele></trkpt>
    <trkpt lat="44.308432" lon="5.228653"><ele>888.9</ele></trkpt>
    <trkpt lat="44.308449" lon="5.228462"><ele>890.2</ele></trkpt>
    <trkpt lat="44.308550" lon="5.227915"><ele>892.9</ele></trkpt>
    <trkpt lat="44.308591" lon="5.227789"><ele>893.2</ele></trkpt>
    <trkpt lat="44.308630" lon="5.227705"><ele>893.2</ele></trkpt>
    <trkpt lat="44.308794" lon="5.227312"><ele>892.2</ele></trkpt>
    <trkpt lat="44.308820" lon="5.227176"><ele>891.5</ele></trkpt>
    <trkpt lat="44.308885" lon="5.226993"><ele>889.4</ele></trkpt>
    <trkpt lat="44.308928" lon="5.226882"><ele>888.1</ele></trkpt>
    <trkpt lat="44.308978" lon="5.226822"><ele>887.1</ele></trkpt>
    <trkpt lat="44.309036" lon="5.226786"><ele>886.4</ele></trkpt>
    <trkpt lat="44.309092" lon="5.226752"><ele>885.7</ele></trkpt>
    <trkpt lat="44.309196" lon="5.226707"><ele>885.2</ele></trkpt>
    <trkpt lat="44.309288" lon="5.226656"><ele>885.9</ele></trkpt>
    <trkpt lat="44.309358" lon="5.226611"><ele>886.2</ele></trkpt>
    <trkpt lat="44.309388" lon="5.226591"><ele>886.3</ele></trkpt>
    <trkpt lat="44.309407" lon="5.226565"><ele>886.1</ele></trkpt>
    <trkpt lat="44.309487" lon="5.226332"><ele>883.0</ele></trkpt>
    <trkpt lat="44.309557" lon="5.226055"><ele>879.2</ele></trkpt>
    <trkpt lat="44.309609" lon="5.225907"><ele>877.7</ele></trkpt>
    <trkpt lat="44.309665" lon="5.225801"><ele>876.9</ele></trkpt>
    <trkpt lat="44.309817" lon="5.225523"><ele>872.7</ele></trkpt>
    <trkpt lat="44.309961" lon="5.225213"><ele>867.0</ele></trkpt>
    <trkpt lat="44.310082" lon="5.224952"><ele>862.9</ele></trkpt>
    <trkpt lat="44.310147" lon="5.224879"><ele>862.7</ele></trkpt>
    <trkpt lat="44.310280" lon="5.224757"><ele>862.9</ele></trkpt>
    <trkpt lat="44.310693" lon="5.224429"><ele>861.6</ele></trkpt>
    <trkpt lat="44.310991" lon="5.224195"><ele>857.9</ele></trkpt>
    <trkpt lat="44.311192" lon="5.224030"><ele>854.6</ele></trkpt>
    <trkpt lat="44.311492" lon="5.223840"><ele>851.3</ele></trkpt>
    <trkpt lat="44.311764" lon="5.223705"><ele>849.8</ele></trkpt>
    <trkpt lat="44.311837" lon="5.223668"><ele>849.5</ele></trkpt>
    <trkpt lat="44.311883" lon="5.223624"><ele>848.7</ele></trkpt>
    <trkpt lat="44.312165" lon="5.223322"><ele>844.7</ele></trkpt>
    <trkpt lat="44.312308" lon="5.223130"><ele>842.3</ele></trkpt>
    <trkpt lat="44.312373" lon="5.222964"><ele>839.4</ele></trkpt>
    <trkpt lat="44.312394" lon="5.222923"><ele>838.8</ele></trkpt>
    <trkpt lat="44.312441" lon="5.222867"><ele>838.2</ele></trkpt>
    <trkpt lat="44.312518" lon="5.222844"><ele>838.9</ele></trkpt>
    <trkpt lat="44.312602" lon="5.222801"><ele>839.0</ele></trkpt>
    <trkpt lat="44.312691" lon="5.222752"><ele>839.0</ele></trkpt>
    <trkpt lat="44.312783" lon="5.222694"><ele>838.6</ele></trkpt>
    <trkpt lat="44.312856" lon="5.222628"><ele>837.1</ele></trkpt>
    <trkpt lat="44.312932" lon="5.222565"><ele>835.9</ele></trkpt>
    <trkpt lat="44.313023" lon="5.222528"><ele>835.5</ele></trkpt>
    <trkpt lat="44.313119" lon="5.222496"><ele>834.9</ele></trkpt>
    <trkpt lat="44.313232" lon="5.222461"><ele>834.0</ele></trkpt>
    <trkpt lat="44.313337" lon="5.222440"><ele>833.5</ele></trkpt>
    <trkpt lat="44.313414" lon="5.222444"><ele>833.4</ele></trkpt>
    <trkpt lat="44.313531" lon="5.222456"><ele>833.3</ele></trkpt>
    <trkpt lat="44.313627" lon="5.222475"><ele>833.3</ele></trkpt>
    <trkpt lat="44.313779" lon="5.222513"><ele>833.1</ele></trkpt>
    <trkpt lat="44.313985" lon="5.222564"><ele>832.9</ele></trkpt>
    <trkpt lat="44.314333" lon="5.222627"><ele>831.7</ele></trkpt>
    <trkpt lat="44.314481" lon="5.222648"><ele>831.1</ele></trkpt>
    <trkpt lat="44.314566" lon="5.222646"><ele>830.5</ele></trkpt>
    <trkpt lat="44.314676" lon="5.222638"><ele>829.7</ele></trkpt>
    <trkpt lat="44.314747" lon="5.222612"><ele>828.7</ele></trkpt>
    <trkpt lat="44.314828" lon="5.222552"><ele>826.8</ele></trkpt>
    <trkpt lat="44.314897" lon="5.222486"><ele>825.0</ele></trkpt>
    <trkpt lat="44.314977" lon="5.222394"><ele>822.8</ele></trkpt>
    <trkpt lat="44.315082" lon="5.222300"><ele>819.3</ele></trkpt>
    <trkpt lat="44.315137" lon="5.222259"><ele>817.7</ele></trkpt>
    <trkpt lat="44.315204" lon="5.222247"><ele>816.5</ele></trkpt>
    <trkpt lat="44.315259" lon="5.222282"><ele>816.2</ele></trkpt>
    <trkpt lat="44.315303" lon="5.222321"><ele>815.8</ele></trkpt>
    <trkpt lat="44.315334" lon="5.222376"><ele>815.8</ele></trkpt>
    <trkpt lat="44.315373" lon="5.222458"><ele>816.0</ele></trkpt>
    <trkpt lat="44.315420" lon="5.222548"><ele>815.8</ele></trkpt>
    <trkpt lat="44.315473" lon="5.222629"><ele>815.1</ele></trkpt>
    <trkpt lat="44.315516" lon="5.222687"><ele>814.4</ele></trkpt>
    <trkpt lat="44.315531" lon="5.222701"><ele>814.1</ele></trkpt>
    <trkpt lat="44.315547" lon="5.222716"><ele>813.8</ele></trkpt>
    <trkpt lat="44.315593" lon="5.222705"><ele>812.3</ele></trkpt>
    <trkpt lat="44.315621" lon="5.222672"><ele>811.1</ele></trkpt>
    <trkpt lat="44.315652" lon="5.222618"><ele>809.7</ele></trkpt>
    <trkpt lat="44.315627" lon="5.222551"><ele>810.1</ele></trkpt>
    <trkpt lat="44.315573" lon="5.222446"><ele>810.7</ele></trkpt>
    <trkpt lat="44.315538" lon="5.222354"><ele>810.3</ele></trkpt>
    <trkpt lat="44.315499" lon="5.222137"><ele>808.4</ele></trkpt>
    <trkpt lat="44.315475" lon="5.221975"><ele>807.1</ele></trkpt>
    <trkpt lat="44.315471" lon="5.221862"><ele>806.0</ele></trkpt>
    <trkpt lat="44.315482" lon="5.221425"><ele>801.8</ele></trkpt>
    <trkpt lat="44.315523" lon="5.221255"><ele>800.2</ele></trkpt>
    <trkpt lat="44.315645" lon="5.221070"><ele>797.1</ele></trkpt>
    <trkpt lat="44.315794" lon="5.221007"><ele>794.0</ele></trkpt>
    <trkpt lat="44.315645" lon="5.221070"><ele>797.1</ele></trkpt>
    <trkpt lat="44.315523" lon="5.221255"><ele>800.2</ele></trkpt>
    <trkpt lat="44.315482" lon="5.221425"><ele>801.8</ele></trkpt>
    <trkpt lat="44.315471" lon="5.221862"><ele>806.0</ele></trkpt>
    <trkpt lat="44.315475" lon="5.221975"><ele>807.1</ele></trkpt>
    <trkpt lat="44.315499" lon="5.222137"><ele>808.4</ele></trkpt>
    <trkpt lat="44.315538" lon="5.222354"><ele>810.3</ele></trkpt>
    <trkpt lat="44.315573" lon="5.222446"><ele>810.7</ele></trkpt>
    <trkpt lat="44.315627" lon="5.222551"><ele>810.1</ele></trkpt>
    <trkpt lat="44.315652" lon="5.222618"><ele>809.7</ele></trkpt>
    <trkpt lat="44.315621" lon="5.222672"><ele>811.1</ele></trkpt>
    <trkpt lat="44.315593" lon="5.222705"><ele>812.3</ele></trkpt>
    <trkpt lat="44.315547" lon="5.222716"><ele>813.8</ele></trkpt>
    <trkpt lat="44.315531" lon="5.222701"><ele>814.1</ele></trkpt>
    <trkpt lat="44.315516" lon="5.222687"><ele>814.4</ele></trkpt>
    <trkpt lat="44.315473" lon="5.222629"><ele>815.1</ele></trkpt>
    <trkpt lat="44.315420" lon="5.222548"><ele>815.8</ele></trkpt>
    <trkpt lat="44.315373" lon="5.222458"><ele>816.0</ele></trkpt>
    <trkpt lat="44.315334" lon="5.222376"><ele>815.8</ele></trkpt>
    <trkpt lat="44.315303" lon="5.222321"><ele>815.8</ele></trkpt>
    <trkpt lat="44.315259" lon="5.222282"><ele>816.2</ele></trkpt>
    <trkpt lat="44.315204" lon="5.222247"><ele>816.5</ele></trkpt>
    <trkpt lat="44.315137" lon="5.222259"><ele>817.7</ele></trkpt>
    <trkpt lat="44.315082" lon="5.222300"><ele>819.3</ele></trkpt>
    <trkpt lat="44.314977" lon="5.222394"><ele>822.8</ele></trkpt>
    <trkpt lat="44.314897" lon="5.222486"><ele>825.0</ele></trkpt>
    <trkpt lat="44.314828" lon="5.222552"><ele>826.8</ele></trkpt>
    <trkpt lat="44.314747" lon="5.222612"><ele>828.7</ele></trkpt>
    <trkpt lat="44.314676" lon="5.222638"><ele>829.7</ele></trkpt>
    <trkpt lat="44.314566" lon="5.222646"><ele>830.5</ele></trkpt>
    <trkpt lat="44.314481" lon="5.222648"><ele>831.1</ele></trkpt>
    <trkpt lat="44.314333" lon="5.222627"><ele>831.7</ele></trkpt>
    <trkpt lat="44.313985" lon="5.222564"><ele>832.9</ele></trkpt>
    <trkpt lat="44.313779" lon="5.222513"><ele>833.1</ele></trkpt>
    <trkpt lat="44.313627" lon="5.222475"><ele>833.3</ele></trkpt>
    <trkpt lat="44.313531" lon="5.222456"><ele>833.3</ele></trkpt>
    <trkpt lat="44.313414" lon="5.222444"><ele>833.4</ele></trkpt>
    <trkpt lat="44.313337" lon="5.222440"><ele>833.5</ele></trkpt>
    <trkpt lat="44.313232" lon="5.222461"><ele>834.0</ele></trkpt>
    <trkpt lat="44.313119" lon="5.222496"><ele>834.9</ele></trkpt>
    <trkpt lat="44.313023" lon="5.222528"><ele>835.5</ele></trkpt>
    <trkpt lat="44.312932" lon="5.222565"><ele>835.9</ele></trkpt>
    <trkpt lat="44.312856" lon="5.222628"><ele>837.1</ele></trkpt>
    <trkpt lat="44.312783" lon="5.222694"><ele>838.6</ele></trkpt>
    <trkpt lat="44.312691" lon="5.222752"><ele>839.0</ele></trkpt>
    <trkpt lat="44.312602" lon="5.222801"><ele>839.0</ele></trkpt>
    <trkpt lat="44.312518" lon="5.222844"><ele>838.9</ele></trkpt>
    <trkpt lat="44.312441" lon="5.222867"><ele>838.2</ele></trkpt>
    <trkpt lat="44.312394" lon="5.222923"><ele>838.8</ele></trkpt>
    <trkpt lat="44.312373" lon="5.222964"><ele>839.4</ele></trkpt>
    <trkpt lat="44.312308" lon="5.223130"><ele>842.3</ele></trkpt>
    <trkpt lat="44.312165" lon="5.223322"><ele>844.7</ele></trkpt>
    <trkpt lat="44.311883" lon="5.223624"><ele>848.7</ele></trkpt>
    <trkpt lat="44.311837" lon="5.223668"><ele>849.5</ele></trkpt>
    <trkpt lat="44.311764" lon="5.223705"><ele>849.8</ele></trkpt>
    <trkpt lat="44.311492" lon="5.223840"><ele>851.3</ele></trkpt>
    <trkpt lat="44.311192" lon="5.224030"><ele>854.6</ele></trkpt>
    <trkpt lat="44.310991" lon="5.224195"><ele>857.9</ele></trkpt>
    <trkpt lat="44.310693" lon="5.224429"><ele>861.6</ele></trkpt>
    <trkpt lat="44.310280" lon="5.224757"><ele>862.9</ele></trkpt>
    <trkpt lat="44.310147" lon="5.224879"><ele>862.7</ele></trkpt>
    <trkpt lat="44.310082" lon="5.224952"><ele>862.9</ele></trkpt>
    <trkpt lat="44.309961" lon="5.225213"><ele>867.0</ele></trkpt>
    <trkpt lat="44.309817" lon="5.225523"><ele>872.7</ele></trkpt>
    <trkpt lat="44.309665" lon="5.225801"><ele>876.9</ele></trkpt>
    <trkpt lat="44.309609" lon="5.225907"><ele>877.7</ele></trkpt>
    <trkpt lat="44.309557" lon="5.226055"><ele>879.2</ele></trkpt>
    <trkpt lat="44.309487" lon="5.226332"><ele>883.0</ele></trkpt>
    <trkpt lat="44.309407" lon="5.226565"><ele>886.1</ele></trkpt>
    <trkpt lat="44.309388" lon="5.226591"><ele>886.3</ele></trkpt>
    <trkpt lat="44.309358" lon="5.226611"><ele>886.2</ele></trkpt>
    <trkpt lat="44.309288" lon="5.226656"><ele>885.9</ele></trkpt>
    <trkpt lat="44.309196" lon="5.226707"><ele>885.2</ele></trkpt>
    <trkpt lat="44.309092" lon="5.226752"><ele>885.7</ele></trkpt>
    <trkpt lat="44.309036" lon="5.226786"><ele>886.4</ele></trkpt>
    <trkpt lat="44.308978" lon="5.226822"><ele>887.1</ele></trkpt>
    <trkpt lat="44.308928" lon="5.226882"><ele>888.1</ele></trkpt>
    <trkpt lat="44.308885" lon="5.226993"><ele>889.4</ele></trkpt>
    <trkpt lat="44.308820" lon="5.227176"><ele>891.5</ele></trkpt>
    <trkpt lat="44.308794" lon="5.227312"><ele>892.2</ele></trkpt>
    <trkpt lat="44.308630" lon="5.227705"><ele>893.2</ele></trkpt>
    <trkpt lat="44.308591" lon="5.227789"><ele>893.2</ele></trkpt>
    <trkpt lat="44.308550" lon="5.227915"><ele>892.9</ele></trkpt>
    <trkpt lat="44.308449" lon="5.228462"><ele>890.2</ele></trkpt>
    <trkpt lat="44.308432" lon="5.228653"><ele>888.9</ele></trkpt>
    <trkpt lat="44.308406" lon="5.228816"><ele>887.5</ele></trkpt>
    <trkpt lat="44.308354" lon="5.229007"><ele>885.7</ele></trkpt>
    <trkpt lat="44.308287" lon="5.229243"><ele>884.2</ele></trkpt>
    <trkpt lat="44.308218" lon="5.229464"><ele>883.5</ele></trkpt>
    <trkpt lat="44.308145" lon="5.229669"><ele>882.5</ele></trkpt>
    <trkpt lat="44.308067" lon="5.229872"><ele>881.3</ele></trkpt>
    <trkpt lat="44.307976" lon="5.230047"><ele>880.6</ele></trkpt>
    <trkpt lat="44.307852" lon="5.230259"><ele>879.0</ele></trkpt>
    <trkpt lat="44.307742" lon="5.230444"><ele>877.2</ele></trkpt>
    <trkpt lat="44.307431" lon="5.230978"><ele>872.3</ele></trkpt>
    <trkpt lat="44.307234" lon="5.231286"><ele>870.9</ele></trkpt>
    <trkpt lat="44.307168" lon="5.231412"><ele>870.3</ele></trkpt>
    <trkpt lat="44.307079" lon="5.231601"><ele>869.8</ele></trkpt>
    <trkpt lat="44.307014" lon="5.231755"><ele>869.1</ele></trkpt>
    <trkpt lat="44.306917" lon="5.231907"><ele>869.8</ele></trkpt>
    <trkpt lat="44.306805" lon="5.232074"><ele>871.0</ele></trkpt>
    <trkpt lat="44.306721" lon="5.232231"><ele>871.2</ele></trkpt>
    <trkpt lat="44.306578" lon="5.232540"><ele>869.1</ele></trkpt>
    <trkpt lat="44.306388" lon="5.232898"><ele>868.0</ele></trkpt>
    <trkpt lat="44.306032" lon="5.233503"><ele>864.5</ele></trkpt>
    <trkpt lat="44.305887" lon="5.233693"><ele>863.4</ele></trkpt>
    <trkpt lat="44.305512" lon="5.234120"><ele>861.2</ele></trkpt>
    <trkpt lat="44.305350" lon="5.234303"><ele>860.3</ele></trkpt>
    <trkpt lat="44.305204" lon="5.234429"><ele>860.0</ele></trkpt>
    <trkpt lat="44.305082" lon="5.234522"><ele>860.9</ele></trkpt>
    <trkpt lat="44.304912" lon="5.234698"><ele>860.0</ele></trkpt>
    <trkpt lat="44.304794" lon="5.234841"><ele>858.9</ele></trkpt>
    <trkpt lat="44.304505" lon="5.235106"><ele>856.4</ele></trkpt>
    <trkpt lat="44.304266" lon="5.235312"><ele>854.2</ele></trkpt>
    <trkpt lat="44.304049" lon="5.235496"><ele>852.1</ele></trkpt>
    <trkpt lat="44.303888" lon="5.235631"><ele>851.2</ele></trkpt>
    <trkpt lat="44.303835" lon="5.235661"><ele>850.4</ele></trkpt>
    <trkpt lat="44.303773" lon="5.235697"><ele>849.9</ele></trkpt>
    <trkpt lat="44.303681" lon="5.235838"><ele>850.5</ele></trkpt>
    <trkpt lat="44.303595" lon="5.235989"><ele>850.0</ele></trkpt>
    <trkpt lat="44.303522" lon="5.236142"><ele>850.2</ele></trkpt>
    <trkpt lat="44.303437" lon="5.236284"><ele>850.0</ele></trkpt>
    <trkpt lat="44.303207" lon="5.236620"><ele>849.9</ele></trkpt>
    <trkpt lat="44.302984" lon="5.236952"><ele>849.6</ele></trkpt>
    <trkpt lat="44.302786" lon="5.237240"><ele>848.3</ele></trkpt>
    <trkpt lat="44.302662" lon="5.237396"><ele>848.1</ele></trkpt>
    <trkpt lat="44.302469" lon="5.237625"><ele>847.2</ele></trkpt>
    <trkpt lat="44.302310" lon="5.237788"><ele>846.5</ele></trkpt>
    <trkpt lat="44.302163" lon="5.237921"><ele>846.1</ele></trkpt>
    <trkpt lat="44.302055" lon="5.238070"><ele>845.1</ele></trkpt>
    <trkpt lat="44.301901" lon="5.238315"><ele>843.8</ele></trkpt>
    <trkpt lat="44.301459" lon="5.239054"><ele>842.0</ele></trkpt>
    <trkpt lat="44.301242" lon="5.239436"><ele>840.9</ele></trkpt>
    <trkpt lat="44.301135" lon="5.239608"><ele>840.6</ele></trkpt>
    <trkpt lat="44.301017" lon="5.239775"><ele>839.9</ele></trkpt>
    <trkpt lat="44.300912" lon="5.239918"><ele>839.8</ele></trkpt>
    <trkpt lat="44.300839" lon="5.240044"><ele>839.3</ele></trkpt>
    <trkpt lat="44.300739" lon="5.240233"><ele>839.0</ele></trkpt>
    <trkpt lat="44.300703" lon="5.240311"><ele>839.0</ele></trkpt>
    <trkpt lat="44.300591" lon="5.240929"><ele>838.7</ele></trkpt>
    <trkpt lat="44.300442" lon="5.241801"><ele>839.4</ele></trkpt>
    <trkpt lat="44.300370" lon="5.242271"><ele>839.5</ele></trkpt>
    <trkpt lat="44.300346" lon="5.242517"><ele>839.2</ele></trkpt>
    <trkpt lat="44.300321" lon="5.242711"><ele>839.3</ele></trkpt>
    <trkpt lat="44.300271" lon="5.243044"><ele>840.2</ele></trkpt>
    <trkpt lat="44.300234" lon="5.243167"><ele>841.7</ele></trkpt>
    <trkpt lat="44.300195" lon="5.243287"><ele>843.2</ele></trkpt>
    <trkpt lat="44.300031" lon="5.243663"><ele>847.5</ele></trkpt>
    <trkpt lat="44.299973" lon="5.243786"><ele>847.9</ele></trkpt>
    <trkpt lat="44.299913" lon="5.243850"><ele>849.2</ele></trkpt>
    <trkpt lat="44.299857" lon="5.243932"><ele>850.5</ele></trkpt>
    <trkpt lat="44.299829" lon="5.243991"><ele>851.2</ele></trkpt>
    <trkpt lat="44.299811" lon="5.244048"><ele>851.6</ele></trkpt>
    <trkpt lat="44.299802" lon="5.244199"><ele>851.4</ele></trkpt>
    <trkpt lat="44.299767" lon="5.244376"><ele>852.5</ele></trkpt>
    <trkpt lat="44.299649" lon="5.244870"><ele>856.1</ele></trkpt>
    <trkpt lat="44.299599" lon="5.245089"><ele>857.5</ele></trkpt>
    <trkpt lat="44.299519" lon="5.245462"><ele>859.2</ele></trkpt>
    <trkpt lat="44.299479" lon="5.245581"><ele>860.0</ele></trkpt>
    <trkpt lat="44.299411" lon="5.245750"><ele>861.9</ele></trkpt>
    <trkpt lat="44.299296" lon="5.246048"><ele>864.7</ele></trkpt>
    <trkpt lat="44.299248" lon="5.246196"><ele>865.3</ele></trkpt>
    <trkpt lat="44.299189" lon="5.246315"><ele>866.0</ele></trkpt>
    <trkpt lat="44.299146" lon="5.246396"><ele>865.9</ele></trkpt>
    <trkpt lat="44.299098" lon="5.246453"><ele>865.0</ele></trkpt>
    <trkpt lat="44.299034" lon="5.246504"><ele>864.2</ele></trkpt>
    <trkpt lat="44.298968" lon="5.246539"><ele>863.6</ele></trkpt>
    <trkpt lat="44.298895" lon="5.246548"><ele>863.6</ele></trkpt>
    <trkpt lat="44.298822" lon="5.246568"><ele>863.9</ele></trkpt>
    <trkpt lat="44.298770" lon="5.246593"><ele>863.9</ele></trkpt>
    <trkpt lat="44.298739" lon="5.246619"><ele>863.6</ele></trkpt>
    <trkpt lat="44.298652" lon="5.246870"><ele>859.0</ele></trkpt>
    <trkpt lat="44.298618" lon="5.247016"><ele>856.3</ele></trkpt>
    <trkpt lat="44.298591" lon="5.247297"><ele>852.0</ele></trkpt>
    <trkpt lat="44.298576" lon="5.247527"><ele>849.8</ele></trkpt>
    <trkpt lat="44.298578" lon="5.247640"><ele>848.9</ele></trkpt>
    <trkpt lat="44.298587" lon="5.247721"><ele>847.8</ele></trkpt>
    <trkpt lat="44.298606" lon="5.247803"><ele>846.2</ele></trkpt>
    <trkpt lat="44.298631" lon="5.247913"><ele>844.5</ele></trkpt>
    <trkpt lat="44.298655" lon="5.248102"><ele>842.4</ele></trkpt>
    <trkpt lat="44.298664" lon="5.248288"><ele>841.8</ele></trkpt>
    <trkpt lat="44.298615" lon="5.248982"><ele>844.8</ele></trkpt>
    <trkpt lat="44.298589" lon="5.249274"><ele>846.3</ele></trkpt>
    <trkpt lat="44.298609" lon="5.249906"><ele>847.8</ele></trkpt>
    <trkpt lat="44.298632" lon="5.250381"><ele>844.8</ele></trkpt>
    <trkpt lat="44.298629" lon="5.250539"><ele>843.4</ele></trkpt>
    <trkpt lat="44.298609" lon="5.250648"><ele>842.1</ele></trkpt>
    <trkpt lat="44.298596" lon="5.250719"><ele>841.1</ele></trkpt>
    <trkpt lat="44.298568" lon="5.250775"><ele>841.1</ele></trkpt>
    <trkpt lat="44.298513" lon="5.250859"><ele>841.6</ele></trkpt>
    <trkpt lat="44.298330" lon="5.251196"><ele>841.7</ele></trkpt>
    <trkpt lat="44.298151" lon="5.251544"><ele>842.5</ele></trkpt>
    <trkpt lat="44.298095" lon="5.251711"><ele>841.2</ele></trkpt>
    <trkpt lat="44.298000" lon="5.251689"><ele>848.6</ele></trkpt>
    <trkpt lat="44.298005" lon="5.251664"><ele>848.9</ele></trkpt>
    <trkpt lat="44.297995" lon="5.251655"><ele>849.9</ele></trkpt>
    <trkpt lat="44.297978" lon="5.251664"><ele>850.9</ele></trkpt>
    <trkpt lat="44.297880" lon="5.251775"><ele>856.1</ele></trkpt>
    <trkpt lat="44.297866" lon="5.251840"><ele>856.0</ele></trkpt>
    <trkpt lat="44.297843" lon="5.251971"><ele>855.4</ele></trkpt>
    <trkpt lat="44.297825" lon="5.252053"><ele>854.6</ele></trkpt>
    <trkpt lat="44.297809" lon="5.252106"><ele>854.3</ele></trkpt>
    <trkpt lat="44.297755" lon="5.252174"><ele>855.5</ele></trkpt>
    <trkpt lat="44.297674" lon="5.252256"><ele>856.0</ele></trkpt>
    <trkpt lat="44.297623" lon="5.252331"><ele>856.0</ele></trkpt>
    <trkpt lat="44.297600" lon="5.252377"><ele>855.8</ele></trkpt>
    <trkpt lat="44.297568" lon="5.252495"><ele>854.7</ele></trkpt>
    <trkpt lat="44.297538" lon="5.252607"><ele>855.0</ele></trkpt>
    <trkpt lat="44.297524" lon="5.252669"><ele>855.2</ele></trkpt>
    <trkpt lat="44.297518" lon="5.252730"><ele>854.9</ele></trkpt>
    <trkpt lat="44.297518" lon="5.252819"><ele>853.7</ele></trkpt>
    <trkpt lat="44.297413" lon="5.253051"><ele>854.0</ele></trkpt>
    <trkpt lat="44.297198" lon="5.253124"><ele>855.4</ele></trkpt>
    <trkpt lat="44.296864" lon="5.253258"><ele>852.5</ele></trkpt>
    <trkpt lat="44.296662" lon="5.253318"><ele>849.8</ele></trkpt>
    <trkpt lat="44.296495" lon="5.253280"><ele>843.8</ele></trkpt>
    <trkpt lat="44.296224" lon="5.253401"><ele>834.8</ele></trkpt>
    <trkpt lat="44.296165" lon="5.253429"><ele>832.8</ele></trkpt>
    <trkpt lat="44.296065" lon="5.253506"><ele>830.2</ele></trkpt>
    <trkpt lat="44.295987" lon="5.253580"><ele>828.4</ele></trkpt>
    <trkpt lat="44.295899" lon="5.253700"><ele>827.3</ele></trkpt>
    <trkpt lat="44.295661" lon="5.253905"><ele>821.3</ele></trkpt>
    <trkpt lat="44.295401" lon="5.254121"><ele>812.8</ele></trkpt>
    <trkpt lat="44.295307" lon="5.254212"><ele>809.4</ele></trkpt>
    <trkpt lat="44.295240" lon="5.254312"><ele>807.2</ele></trkpt>
    <trkpt lat="44.295179" lon="5.254407"><ele>804.9</ele></trkpt>
    <trkpt lat="44.295159" lon="5.254438"><ele>804.2</ele></trkpt>
    <trkpt lat="44.295074" lon="5.254584"><ele>801.3</ele></trkpt>
    <trkpt lat="44.294916" lon="5.254698"><ele>794.9</ele></trkpt>
    <trkpt lat="44.294691" lon="5.254838"><ele>787.9</ele></trkpt>
    <trkpt lat="44.294474" lon="5.254979"><ele>781.9</ele></trkpt>
    <trkpt lat="44.294330" lon="5.255095"><ele>778.4</ele></trkpt>
    <trkpt lat="44.294174" lon="5.255258"><ele>775.0</ele></trkpt>
    <trkpt lat="44.293988" lon="5.255426"><ele>771.4</ele></trkpt>
    <trkpt lat="44.293746" lon="5.255597"><ele>766.1</ele></trkpt>
    <trkpt lat="44.293619" lon="5.255690"><ele>763.2</ele></trkpt>
    <trkpt lat="44.293524" lon="5.255790"><ele>761.9</ele></trkpt>
    <trkpt lat="44.293358" lon="5.255984"><ele>759.4</ele></trkpt>
    <trkpt lat="44.293195" lon="5.256217"><ele>758.0</ele></trkpt>
    <trkpt lat="44.292977" lon="5.256454"><ele>754.6</ele></trkpt>
    <trkpt lat="44.292864" lon="5.256550"><ele>752.1</ele></trkpt>
    <trkpt lat="44.292793" lon="5.256585"><ele>750.2</ele></trkpt>
    <trkpt lat="44.292754" lon="5.256589"><ele>748.8</ele></trkpt>
    <trkpt lat="44.292706" lon="5.256576"><ele>747.0</ele></trkpt>
    <trkpt lat="44.292633" lon="5.256513"><ele>744.6</ele></trkpt>
    <trkpt lat="44.292150" lon="5.256096"><ele>732.5</ele></trkpt>
    <trkpt lat="44.292088" lon="5.256020"><ele>730.5</ele></trkpt>
    <trkpt lat="44.292059" lon="5.255967"><ele>729.6</ele></trkpt>
    <trkpt lat="44.292023" lon="5.255884"><ele>728.3</ele></trkpt>
    <trkpt lat="44.291863" lon="5.255467"><ele>721.9</ele></trkpt>
    <trkpt lat="44.291832" lon="5.255344"><ele>720.3</ele></trkpt>
    <trkpt lat="44.291805" lon="5.255349"><ele>719.2</ele></trkpt>
    <trkpt lat="44.291781" lon="5.255383"><ele>718.4</ele></trkpt>
    <trkpt lat="44.291770" lon="5.255476"><ele>718.4</ele></trkpt>
    <trkpt lat="44.291712" lon="5.255985"><ele>714.5</ele></trkpt>
    <trkpt lat="44.291698" lon="5.256135"><ele>713.3</ele></trkpt>
    <trkpt lat="44.291692" lon="5.256314"><ele>711.7</ele></trkpt>
    <trkpt lat="44.291694" lon="5.256491"><ele>709.3</ele></trkpt>
    <trkpt lat="44.291706" lon="5.256556"><ele>708.6</ele></trkpt>
    <trkpt lat="44.291719" lon="5.256608"><ele>708.2</ele></trkpt>
    <trkpt lat="44.291727" lon="5.256645"><ele>707.8</ele></trkpt>
    <trkpt lat="44.291729" lon="5.256678"><ele>707.4</ele></trkpt>
    <trkpt lat="44.291724" lon="5.256697"><ele>707.1</ele></trkpt>
    <trkpt lat="44.291716" lon="5.256708"><ele>706.8</ele></trkpt>
    <trkpt lat="44.291697" lon="5.256714"><ele>706.0</ele></trkpt>
    <trkpt lat="44.291664" lon="5.256714"><ele>704.7</ele></trkpt>
    <trkpt lat="44.291642" lon="5.256690"><ele>704.1</ele></trkpt>
    <trkpt lat="44.291545" lon="5.256571"><ele>702.2</ele></trkpt>
    <trkpt lat="44.291433" lon="5.256488"><ele>698.5</ele></trkpt>
    <trkpt lat="44.291320" lon="5.256412"><ele>695.0</ele></trkpt>
    <trkpt lat="44.291285" lon="5.256392"><ele>694.0</ele></trkpt>
    <trkpt lat="44.291247" lon="5.256389"><ele>692.9</ele></trkpt>
    <trkpt lat="44.291202" lon="5.256412"><ele>691.7</ele></trkpt>
    <trkpt lat="44.291153" lon="5.256454"><ele>690.6</ele></trkpt>
    <trkpt lat="44.291084" lon="5.256537"><ele>689.6</ele></trkpt>
    <trkpt lat="44.291055" lon="5.256582"><ele>689.5</ele></trkpt>
    <trkpt lat="44.291040" lon="5.256591"><ele>689.4</ele></trkpt>
    <trkpt lat="44.291016" lon="5.256594"><ele>689.1</ele></trkpt>
    <trkpt lat="44.290930" lon="5.256557"><ele>687.2</ele></trkpt>
    <trkpt lat="44.290736" lon="5.256463"><ele>682.3</ele></trkpt>
    <trkpt lat="44.290607" lon="5.256391"><ele>678.8</ele></trkpt>
    <trkpt lat="44.290552" lon="5.256366"><ele>676.8</ele></trkpt>
    <trkpt lat="44.290515" lon="5.256357"><ele>675.6</ele></trkpt>
    <trkpt lat="44.290472" lon="5.256357"><ele>674.6</ele></trkpt>
    <trkpt lat="44.290429" lon="5.256366"><ele>673.9</ele></trkpt>
    <trkpt lat="44.290314" lon="5.256426"><ele>672.8</ele></trkpt>
    <trkpt lat="44.290098" lon="5.256445"><ele>668.5</ele></trkpt>
    <trkpt lat="44.290035" lon="5.256437"><ele>667.0</ele></trkpt>
    <trkpt lat="44.290025" lon="5.256438"><ele>666.8</ele></trkpt>
    <trkpt lat="44.289997" lon="5.256439"><ele>666.2</ele></trkpt>
    <trkpt lat="44.289842" lon="5.256450"><ele>663.1</ele></trkpt>
    <trkpt lat="44.289622" lon="5.256603"><ele>662.0</ele></trkpt>
    <trkpt lat="44.289456" lon="5.256733"><ele>660.5</ele></trkpt>
    <trkpt lat="44.289254" lon="5.256761"><ele>656.4</ele></trkpt>
    <trkpt lat="44.289221" lon="5.256757"><ele>655.5</ele></trkpt>
    <trkpt lat="44.289199" lon="5.256759"><ele>655.1</ele></trkpt>
    <trkpt lat="44.289151" lon="5.256781"><ele>654.3</ele></trkpt>
    <trkpt lat="44.288820" lon="5.256965"><ele>649.6</ele></trkpt>
    <trkpt lat="44.288778" lon="5.257007"><ele>649.1</ele></trkpt>
    <trkpt lat="44.288599" lon="5.257249"><ele>648.2</ele></trkpt>
    <trkpt lat="44.288253" lon="5.257678"><ele>647.2</ele></trkpt>
    <trkpt lat="44.288054" lon="5.257922"><ele>646.6</ele></trkpt>
    <trkpt lat="44.287966" lon="5.258026"><ele>646.5</ele></trkpt>
    <trkpt lat="44.287848" lon="5.258104"><ele>645.1</ele></trkpt>
    <trkpt lat="44.287768" lon="5.258142"><ele>643.9</ele></trkpt>
    <trkpt lat="44.287689" lon="5.258189"><ele>642.0</ele></trkpt>
    <trkpt lat="44.287635" lon="5.258243"><ele>641.1</ele></trkpt>
    <trkpt lat="44.287584" lon="5.258320"><ele>640.5</ele></trkpt>
    <trkpt lat="44.287491" lon="5.258511"><ele>639.6</ele></trkpt>
    <trkpt lat="44.287465" lon="5.258620"><ele>640.1</ele></trkpt>
    <trkpt lat="44.287424" lon="5.258749"><ele>641.1</ele></trkpt>
    <trkpt lat="44.287388" lon="5.258832"><ele>641.6</ele></trkpt>
    <trkpt lat="44.287274" lon="5.258968"><ele>641.5</ele></trkpt>
    <trkpt lat="44.287164" lon="5.259082"><ele>640.7</ele></trkpt>
    <trkpt lat="44.287104" lon="5.259166"><ele>640.6</ele></trkpt>
    <trkpt lat="44.287075" lon="5.259225"><ele>639.8</ele></trkpt>
    <trkpt lat="44.287058" lon="5.259268"><ele>639.3</ele></trkpt>
    <trkpt lat="44.287057" lon="5.259312"><ele>639.3</ele></trkpt>
    <trkpt lat="44.287056" lon="5.259382"><ele>639.4</ele></trkpt>
    <trkpt lat="44.287064" lon="5.259524"><ele>638.0</ele></trkpt>
    <trkpt lat="44.287094" lon="5.259690"><ele>635.4</ele></trkpt>
    <trkpt lat="44.287131" lon="5.259874"><ele>632.8</ele></trkpt>
    <trkpt lat="44.287155" lon="5.259992"><ele>631.2</ele></trkpt>
    <trkpt lat="44.287182" lon="5.260062"><ele>630.3</ele></trkpt>
    <trkpt lat="44.287215" lon="5.260137"><ele>629.3</ele></trkpt>
    <trkpt lat="44.287278" lon="5.260248"><ele>628.5</ele></trkpt>
    <trkpt lat="44.287313" lon="5.260339"><ele>628.0</ele></trkpt>
    <trkpt lat="44.287347" lon="5.260472"><ele>627.2</ele></trkpt>
    <trkpt lat="44.287351" lon="5.260536"><ele>626.4</ele></trkpt>
    <trkpt lat="44.287346" lon="5.260615"><ele>625.8</ele></trkpt>
    <trkpt lat="44.287317" lon="5.260754"><ele>624.3</ele></trkpt>
    <trkpt lat="44.287300" lon="5.260825"><ele>623.4</ele></trkpt>
    <trkpt lat="44.287274" lon="5.260864"><ele>622.0</ele></trkpt>
    <trkpt lat="44.287260" lon="5.260961"><ele>620.7</ele></trkpt>
    <trkpt lat="44.287256" lon="5.261079"><ele>619.6</ele></trkpt>
    <trkpt lat="44.287265" lon="5.261126"><ele>619.5</ele></trkpt>
    <trkpt lat="44.287285" lon="5.261183"><ele>619.3</ele></trkpt>
    <trkpt lat="44.287360" lon="5.261370"><ele>618.8</ele></trkpt>
    <trkpt lat="44.287448" lon="5.261568"><ele>618.3</ele></trkpt>
    <trkpt lat="44.287501" lon="5.261731"><ele>617.1</ele></trkpt>
    <trkpt lat="44.287515" lon="5.261811"><ele>616.3</ele></trkpt>
    <trkpt lat="44.287518" lon="5.261872"><ele>615.5</ele></trkpt>
    <trkpt lat="44.287498" lon="5.261922"><ele>614.3</ele></trkpt>
    <trkpt lat="44.287487" lon="5.261947"><ele>613.7</ele></trkpt>
    <trkpt lat="44.287464" lon="5.262000"><ele>613.2</ele></trkpt>
    <trkpt lat="44.287369" lon="5.261977"><ele>611.2</ele></trkpt>
    <trkpt lat="44.287180" lon="5.261979"><ele>607.1</ele></trkpt>
    <trkpt lat="44.287034" lon="5.261988"><ele>603.9</ele></trkpt>
    <trkpt lat="44.286937" lon="5.261945"><ele>601.9</ele></trkpt>
    <trkpt lat="44.286898" lon="5.261852"><ele>601.5</ele></trkpt>
    <trkpt lat="44.286829" lon="5.261711"><ele>600.8</ele></trkpt>
    <trkpt lat="44.286739" lon="5.261562"><ele>599.9</ele></trkpt>
    <trkpt lat="44.286607" lon="5.261413"><ele>597.9</ele></trkpt>
    <trkpt lat="44.286546" lon="5.261290"><ele>597.0</ele></trkpt>
    <trkpt lat="44.286520" lon="5.261181"><ele>596.7</ele></trkpt>
    <trkpt lat="44.286491" lon="5.261074"><ele>596.4</ele></trkpt>
    <trkpt lat="44.286442" lon="5.260961"><ele>596.1</ele></trkpt>
    <trkpt lat="44.286384" lon="5.260881"><ele>595.6</ele></trkpt>
    <trkpt lat="44.286306" lon="5.260828"><ele>594.9</ele></trkpt>
    <trkpt lat="44.286196" lon="5.260780"><ele>593.7</ele></trkpt>
    <trkpt lat="44.286107" lon="5.260726"><ele>593.0</ele></trkpt>
    <trkpt lat="44.286058" lon="5.260675"><ele>592.3</ele></trkpt>
    <trkpt lat="44.286019" lon="5.260612"><ele>592.0</ele></trkpt>
    <trkpt lat="44.285974" lon="5.260509"><ele>592.0</ele></trkpt>
    <trkpt lat="44.285907" lon="5.260331"><ele>592.1</ele></trkpt>
    <trkpt lat="44.285831" lon="5.260220"><ele>591.8</ele></trkpt>
    <trkpt lat="44.285714" lon="5.260076"><ele>591.2</ele></trkpt>
    <trkpt lat="44.285535" lon="5.259867"><ele>590.4</ele></trkpt>
    <trkpt lat="44.285338" lon="5.259664"><ele>587.9</ele></trkpt>
    <trkpt lat="44.285227" lon="5.259526"><ele>586.4</ele></trkpt>
    <trkpt lat="44.285184" lon="5.259453"><ele>586.2</ele></trkpt>
    <trkpt lat="44.285168" lon="5.259425"><ele>586.0</ele></trkpt>
    <trkpt lat="44.285136" lon="5.259340"><ele>585.5</ele></trkpt>
    <trkpt lat="44.285131" lon="5.259307"><ele>585.4</ele></trkpt>
    <trkpt lat="44.285127" lon="5.259272"><ele>585.3</ele></trkpt>
    <trkpt lat="44.285133" lon="5.259170"><ele>585.4</ele></trkpt>
    <trkpt lat="44.285155" lon="5.259091"><ele>584.7</ele></trkpt>
    <trkpt lat="44.285199" lon="5.259004"><ele>584.2</ele></trkpt>
    <trkpt lat="44.285277" lon="5.258905"><ele>584.2</ele></trkpt>
    <trkpt lat="44.285189" lon="5.258814"><ele>581.3</ele></trkpt>
    <trkpt lat="44.284919" lon="5.258829"><ele>577.5</ele></trkpt>
    <trkpt lat="44.284637" lon="5.258856"><ele>574.6</ele></trkpt>
    <trkpt lat="44.284551" lon="5.258867"><ele>574.2</ele></trkpt>
    <trkpt lat="44.284348" lon="5.258873"><ele>572.9</ele></trkpt>
    <trkpt lat="44.284255" lon="5.258875"><ele>572.3</ele></trkpt>
    <trkpt lat="44.284219" lon="5.258871"><ele>571.9</ele></trkpt>
    <trkpt lat="44.284196" lon="5.258810"><ele>570.2</ele></trkpt>
    <trkpt lat="44.284205" lon="5.258769"><ele>569.3</ele></trkpt>
    <trkpt lat="44.284239" lon="5.258749"><ele>569.0</ele></trkpt>
    <trkpt lat="44.284296" lon="5.258732"><ele>569.0</ele></trkpt>
    <trkpt lat="44.284365" lon="5.258724"><ele>569.3</ele></trkpt>
    <trkpt lat="44.284456" lon="5.258686"><ele>569.0</ele></trkpt>
    <trkpt lat="44.284522" lon="5.258645"><ele>568.4</ele></trkpt>
    <trkpt lat="44.284903" lon="5.258278"><ele>565.2</ele></trkpt>
    <trkpt lat="44.284932" lon="5.258229"><ele>565.1</ele></trkpt>
    <trkpt lat="44.284931" lon="5.258192"><ele>564.6</ele></trkpt>
    <trkpt lat="44.284913" lon="5.258161"><ele>563.8</ele></trkpt>
    <trkpt lat="44.284883" lon="5.258154"><ele>563.2</ele></trkpt>
    <trkpt lat="44.284846" lon="5.258161"><ele>562.5</ele></trkpt>
    <trkpt lat="44.284788" lon="5.258200"><ele>561.9</ele></trkpt>
    <trkpt lat="44.284677" lon="5.258254"><ele>560.6</ele></trkpt>
    <trkpt lat="44.284319" lon="5.258319"><ele>558.2</ele></trkpt>
    <trkpt lat="44.284201" lon="5.258334"><ele>558.1</ele></trkpt>
    <trkpt lat="44.284130" lon="5.258327"><ele>557.7</ele></trkpt>
    <trkpt lat="44.284070" lon="5.258306"><ele>556.9</ele></trkpt>
    <trkpt lat="44.284022" lon="5.258259"><ele>555.5</ele></trkpt>
    <trkpt lat="44.284006" lon="5.258222"><ele>554.4</ele></trkpt>
    <trkpt lat="44.284001" lon="5.258189"><ele>553.5</ele></trkpt>
    <trkpt lat="44.284014" lon="5.258148"><ele>552.4</ele></trkpt>
    <trkpt lat="44.284037" lon="5.258128"><ele>552.0</ele></trkpt>
    <trkpt lat="44.284080" lon="5.258104"><ele>551.7</ele></trkpt>
    <trkpt lat="44.284155" lon="5.258081"><ele>551.6</ele></trkpt>
    <trkpt lat="44.284220" lon="5.258035"><ele>551.4</ele></trkpt>
    <trkpt lat="44.284271" lon="5.257984"><ele>551.5</ele></trkpt>
    <trkpt lat="44.284291" lon="5.257927"><ele>551.2</ele></trkpt>
    <trkpt lat="44.284305" lon="5.257856"><ele>550.7</ele></trkpt>
    <trkpt lat="44.284308" lon="5.257816"><ele>550.4</ele></trkpt>
    <trkpt lat="44.284319" lon="5.257361"><ele>547.0</ele></trkpt>
    <trkpt lat="44.284110" lon="5.257486"><ele>544.3</ele></trkpt>
    <trkpt lat="44.284024" lon="5.257542"><ele>543.9</ele></trkpt>
    <trkpt lat="44.283943" lon="5.257566"><ele>543.3</ele></trkpt>
    <trkpt lat="44.283867" lon="5.257567"><ele>542.5</ele></trkpt>
    <trkpt lat="44.283793" lon="5.257558"><ele>541.7</ele></trkpt>
    <trkpt lat="44.283737" lon="5.257550"><ele>541.0</ele></trkpt>
    <trkpt lat="44.283669" lon="5.257549"><ele>540.3</ele></trkpt>
    <trkpt lat="44.283553" lon="5.257564"><ele>539.5</ele></trkpt>
    <trkpt lat="44.283391" lon="5.257602"><ele>538.9</ele></trkpt>
    <trkpt lat="44.283303" lon="5.257638"><ele>538.5</ele></trkpt>
    <trkpt lat="44.283192" lon="5.257712"><ele>538.3</ele></trkpt>
    <trkpt lat="44.283089" lon="5.257788"><ele>538.6</ele></trkpt>
    <trkpt lat="44.283021" lon="5.257834"><ele>538.9</ele></trkpt>
    <trkpt lat="44.282926" lon="5.257858"><ele>538.2</ele></trkpt>
    <trkpt lat="44.282762" lon="5.257868"><ele>536.0</ele></trkpt>
    <trkpt lat="44.282449" lon="5.257967"><ele>534.1</ele></trkpt>
    <trkpt lat="44.282118" lon="5.258065"><ele>532.1</ele></trkpt>
    <trkpt lat="44.281759" lon="5.258142"><ele>530.1</ele></trkpt>
    <trkpt lat="44.281635" lon="5.258164"><ele>529.7</ele></trkpt>
    <trkpt lat="44.281419" lon="5.258164"><ele>529.2</ele></trkpt>
    <trkpt lat="44.281269" lon="5.258185"><ele>527.8</ele></trkpt>
    <trkpt lat="44.281171" lon="5.258204"><ele>526.7</ele></trkpt>
    <trkpt lat="44.281096" lon="5.258249"><ele>526.5</ele></trkpt>
    <trkpt lat="44.280982" lon="5.258347"><ele>526.1</ele></trkpt>
    <trkpt lat="44.280886" lon="5.258471"><ele>526.5</ele></trkpt>
    <trkpt lat="44.280720" lon="5.258690"><ele>526.0</ele></trkpt>
    <trkpt lat="44.280600" lon="5.258862"><ele>526.7</ele></trkpt>
    <trkpt lat="44.280530" lon="5.258961"><ele>526.9</ele></trkpt>
    <trkpt lat="44.280480" lon="5.259025"><ele>527.0</ele></trkpt>
    <trkpt lat="44.280407" lon="5.259076"><ele>526.3</ele></trkpt>
    <trkpt lat="44.280288" lon="5.259134"><ele>525.0</ele></trkpt>
    <trkpt lat="44.280132" lon="5.259184"><ele>524.5</ele></trkpt>
    <trkpt lat="44.280059" lon="5.259195"><ele>523.7</ele></trkpt>
    <trkpt lat="44.279998" lon="5.259200"><ele>522.9</ele></trkpt>
    <trkpt lat="44.279880" lon="5.259196"><ele>521.5</ele></trkpt>
    <trkpt lat="44.279760" lon="5.259195"><ele>520.1</ele></trkpt>
    <trkpt lat="44.279364" lon="5.259205"><ele>516.2</ele></trkpt>
    <trkpt lat="44.279313" lon="5.259213"><ele>515.5</ele></trkpt>
    <trkpt lat="44.279276" lon="5.259233"><ele>515.1</ele></trkpt>
    <trkpt lat="44.279246" lon="5.259293"><ele>515.2</ele></trkpt>
    <trkpt lat="44.279246" lon="5.259372"><ele>515.8</ele></trkpt>
    <trkpt lat="44.279288" lon="5.259460"><ele>516.8</ele></trkpt>
    <trkpt lat="44.279357" lon="5.259550"><ele>515.9</ele></trkpt>
    <trkpt lat="44.279430" lon="5.259630"><ele>515.1</ele></trkpt>
    <trkpt lat="44.279507" lon="5.259730"><ele>514.6</ele></trkpt>
    <trkpt lat="44.279628" lon="5.259973"><ele>512.0</ele></trkpt>
    <trkpt lat="44.279657" lon="5.260109"><ele>510.0</ele></trkpt>
    <trkpt lat="44.279698" lon="5.260244"><ele>508.3</ele></trkpt>
    <trkpt lat="44.279767" lon="5.260336"><ele>507.6</ele></trkpt>
    <trkpt lat="44.280069" lon="5.260518"><ele>507.1</ele></trkpt>
    <trkpt lat="44.280126" lon="5.260532"><ele>507.0</ele></trkpt>
    <trkpt lat="44.280189" lon="5.260527"><ele>507.4</ele></trkpt>
    <trkpt lat="44.280254" lon="5.260523"><ele>507.8</ele></trkpt>
    <trkpt lat="44.280290" lon="5.260526"><ele>508.1</ele></trkpt>
    <trkpt lat="44.280317" lon="5.260540"><ele>508.4</ele></trkpt>
    <trkpt lat="44.280337" lon="5.260568"><ele>508.2</ele></trkpt>
    <trkpt lat="44.280360" lon="5.260616"><ele>507.8</ele></trkpt>
    <trkpt lat="44.280413" lon="5.260760"><ele>506.3</ele></trkpt>
    <trkpt lat="44.280545" lon="5.261165"><ele>502.9</ele></trkpt>
    <trkpt lat="44.280558" lon="5.261227"><ele>502.4</ele></trkpt>
    <trkpt lat="44.280563" lon="5.261270"><ele>501.9</ele></trkpt>
    <trkpt lat="44.280564" lon="5.261336"><ele>500.9</ele></trkpt>
    <trkpt lat="44.280561" lon="5.261421"><ele>500.0</ele></trkpt>
    <trkpt lat="44.280544" lon="5.261510"><ele>499.2</ele></trkpt>
    <trkpt lat="44.280510" lon="5.261599"><ele>498.1</ele></trkpt>
    <trkpt lat="44.280383" lon="5.261863"><ele>494.4</ele></trkpt>
    <trkpt lat="44.280253" lon="5.262160"><ele>491.5</ele></trkpt>
    <trkpt lat="44.280363" lon="5.262233"><ele>492.8</ele></trkpt>
    <trkpt lat="44.280412" lon="5.262244"><ele>493.1</ele></trkpt>
    <trkpt lat="44.280470" lon="5.262210"><ele>494.2</ele></trkpt>
    <trkpt lat="44.280550" lon="5.262084"><ele>496.4</ele></trkpt>
    <trkpt lat="44.280816" lon="5.261686"><ele>501.6</ele></trkpt>
    <trkpt lat="44.280843" lon="5.261655"><ele>502.2</ele></trkpt>
    <trkpt lat="44.280869" lon="5.261625"><ele>502.9</ele></trkpt>
    <trkpt lat="44.280901" lon="5.261609"><ele>503.3</ele></trkpt>
    <trkpt lat="44.280955" lon="5.261596"><ele>503.9</ele></trkpt>
    <trkpt lat="44.281058" lon="5.261599"><ele>504.6</ele></trkpt>
    <trkpt lat="44.281241" lon="5.261634"><ele>505.6</ele></trkpt>
    <trkpt lat="44.281378" lon="5.261632"><ele>506.8</ele></trkpt>
    <trkpt lat="44.281515" lon="5.261611"><ele>507.9</ele></trkpt>
    <trkpt lat="44.281798" lon="5.261501"><ele>511.8</ele></trkpt>
    <trkpt lat="44.281889" lon="5.261438"><ele>513.6</ele></trkpt>
    <trkpt lat="44.282026" lon="5.261326"><ele>516.2</ele></trkpt>
    <trkpt lat="44.282160" lon="5.261259"><ele>517.2</ele></trkpt>
    <trkpt lat="44.282251" lon="5.261237"><ele>517.6</ele></trkpt>
    <trkpt lat="44.282320" lon="5.261235"><ele>518.1</ele></trkpt>
    <trkpt lat="44.282392" lon="5.261245"><ele>518.3</ele></trkpt>
    <trkpt lat="44.282731" lon="5.261321"><ele>519.4</ele></trkpt>
    <trkpt lat="44.282814" lon="5.261341"><ele>519.8</ele></trkpt>
    <trkpt lat="44.282850" lon="5.261360"><ele>520.0</ele></trkpt>
    <trkpt lat="44.282891" lon="5.261398"><ele>520.2</ele></trkpt>
    <trkpt lat="44.282947" lon="5.261495"><ele>520.7</ele></trkpt>
    <trkpt lat="44.283003" lon="5.261610"><ele>521.3</ele></trkpt>
    <trkpt lat="44.282971" lon="5.261695"><ele>520.7</ele></trkpt>
    <trkpt lat="44.282939" lon="5.261847"><ele>519.7</ele></trkpt>
    <trkpt lat="44.282921" lon="5.262036"><ele>518.7</ele></trkpt>
    <trkpt lat="44.282922" lon="5.262216"><ele>518.1</ele></trkpt>
    <trkpt lat="44.282907" lon="5.262469"><ele>517.4</ele></trkpt>
    <trkpt lat="44.282876" lon="5.262642"><ele>516.8</ele></trkpt>
    <trkpt lat="44.282824" lon="5.262779"><ele>515.8</ele></trkpt>
    <trkpt lat="44.282742" lon="5.262939"><ele>514.7</ele></trkpt>
    <trkpt lat="44.282669" lon="5.263047"><ele>513.2</ele></trkpt>
    <trkpt lat="44.282626" lon="5.263145"><ele>512.5</ele></trkpt>
    <trkpt lat="44.282606" lon="5.263262"><ele>512.4</ele></trkpt>
    <trkpt lat="44.282583" lon="5.263454"><ele>511.4</ele></trkpt>
    <trkpt lat="44.282581" lon="5.263731"><ele>509.9</ele></trkpt>
    <trkpt lat="44.282543" lon="5.264101"><ele>508.1</ele></trkpt>
    <trkpt lat="44.282478" lon="5.264497"><ele>504.2</ele></trkpt>
    <trkpt lat="44.282435" lon="5.264760"><ele>501.7</ele></trkpt>
    <trkpt lat="44.282443" lon="5.264881"><ele>501.4</ele></trkpt>
    <trkpt lat="44.282462" lon="5.264991"><ele>501.3</ele></trkpt>
    <trkpt lat="44.282457" lon="5.265059"><ele>501.4</ele></trkpt>
    <trkpt lat="44.282417" lon="5.265136"><ele>500.8</ele></trkpt>
    <trkpt lat="44.282337" lon="5.265221"><ele>499.4</ele></trkpt>
    <trkpt lat="44.282258" lon="5.265331"><ele>497.6</ele></trkpt>
    <trkpt lat="44.282235" lon="5.265393"><ele>496.9</ele></trkpt>
    <trkpt lat="44.282216" lon="5.265477"><ele>496.1</ele></trkpt>
    <trkpt lat="44.282206" lon="5.265613"><ele>495.4</ele></trkpt>
    <trkpt lat="44.282188" lon="5.266020"><ele>492.8</ele></trkpt>
    <trkpt lat="44.282200" lon="5.266123"><ele>492.3</ele></trkpt>
    <trkpt lat="44.282249" lon="5.266238"><ele>492.2</ele></trkpt>
    <trkpt lat="44.282270" lon="5.266293"><ele>492.1</ele></trkpt>
    <trkpt lat="44.282288" lon="5.266340"><ele>491.9</ele></trkpt>
    <trkpt lat="44.282323" lon="5.266479"><ele>491.4</ele></trkpt>
    <trkpt lat="44.282385" lon="5.267036"><ele>488.3</ele></trkpt>
    <trkpt lat="44.282388" lon="5.267107"><ele>487.8</ele></trkpt>
    <trkpt lat="44.282385" lon="5.267177"><ele>487.3</ele></trkpt>
    <trkpt lat="44.282268" lon="5.267333"><ele>484.4</ele></trkpt>
    <trkpt lat="44.282067" lon="5.267537"><ele>480.9</ele></trkpt>
    <trkpt lat="44.281987" lon="5.267603"><ele>479.3</ele></trkpt>
    <trkpt lat="44.281868" lon="5.267649"><ele>477.0</ele></trkpt>
    <trkpt lat="44.281741" lon="5.267674"><ele>474.5</ele></trkpt>
    <trkpt lat="44.281572" lon="5.267700"><ele>471.4</ele></trkpt>
    <trkpt lat="44.281424" lon="5.267702"><ele>469.1</ele></trkpt>
    <trkpt lat="44.281339" lon="5.267676"><ele>468.0</ele></trkpt>
    <trkpt lat="44.281257" lon="5.267612"><ele>467.3</ele></trkpt>
    <trkpt lat="44.281064" lon="5.267412"><ele>466.0</ele></trkpt>
    <trkpt lat="44.280867" lon="5.267205"><ele>464.5</ele></trkpt>
    <trkpt lat="44.280742" lon="5.267093"><ele>462.4</ele></trkpt>
    <trkpt lat="44.280649" lon="5.267029"><ele>460.7</ele></trkpt>
    <trkpt lat="44.280603" lon="5.266958"><ele>459.9</ele></trkpt>
    <trkpt lat="44.280554" lon="5.266821"><ele>458.5</ele></trkpt>
    <trkpt lat="44.280534" lon="5.266760"><ele>457.8</ele></trkpt>
    <trkpt lat="44.280516" lon="5.266739"><ele>457.3</ele></trkpt>
    <trkpt lat="44.280492" lon="5.266733"><ele>456.7</ele></trkpt>
    <trkpt lat="44.280466" lon="5.266735"><ele>456.1</ele></trkpt>
    <trkpt lat="44.280446" lon="5.266743"><ele>455.6</ele></trkpt>
    <trkpt lat="44.280431" lon="5.266765"><ele>455.4</ele></trkpt>
    <trkpt lat="44.280406" lon="5.266859"><ele>455.3</ele></trkpt>
    <trkpt lat="44.280333" lon="5.267146"><ele>454.8</ele></trkpt>
    <trkpt lat="44.280284" lon="5.267313"><ele>454.1</ele></trkpt>
    <trkpt lat="44.280234" lon="5.267439"><ele>453.3</ele></trkpt>
    <trkpt lat="44.280185" lon="5.267492"><ele>452.7</ele></trkpt>
    <trkpt lat="44.280123" lon="5.267541"><ele>451.7</ele></trkpt>
    <trkpt lat="44.280001" lon="5.267589"><ele>450.0</ele></trkpt>
    <trkpt lat="44.279920" lon="5.267612"><ele>449.0</ele></trkpt>
    <trkpt lat="44.279777" lon="5.267690"><ele>447.3</ele></trkpt>
    <trkpt lat="44.279752" lon="5.267748"><ele>447.2</ele></trkpt>
    <trkpt lat="44.279750" lon="5.267753"><ele>447.2</ele></trkpt>
    <trkpt lat="44.279753" lon="5.267803"><ele>447.3</ele></trkpt>
    <trkpt lat="44.279769" lon="5.267884"><ele>447.4</ele></trkpt>
    <trkpt lat="44.279843" lon="5.268236"><ele>445.9</ele></trkpt>
    <trkpt lat="44.279866" lon="5.268405"><ele>444.0</ele></trkpt>
    <trkpt lat="44.279884" lon="5.268557"><ele>441.9</ele></trkpt>
    <trkpt lat="44.279886" lon="5.268661"><ele>440.3</ele></trkpt>
    <trkpt lat="44.279874" lon="5.268713"><ele>439.3</ele></trkpt>
    <trkpt lat="44.279857" lon="5.268742"><ele>438.6</ele></trkpt>
    <trkpt lat="44.279786" lon="5.268763"><ele>437.7</ele></trkpt>
    <trkpt lat="44.279672" lon="5.268782"><ele>436.6</ele></trkpt>
    <trkpt lat="44.279628" lon="5.268786"><ele>436.2</ele></trkpt>
    <trkpt lat="44.279550" lon="5.268791"><ele>435.5</ele></trkpt>
    <trkpt lat="44.279432" lon="5.268782"><ele>434.7</ele></trkpt>
    <trkpt lat="44.279323" lon="5.268753"><ele>433.5</ele></trkpt>
    <trkpt lat="44.279177" lon="5.268692"><ele>432.0</ele></trkpt>
    <trkpt lat="44.278773" lon="5.268497"><ele>427.8</ele></trkpt>
    <trkpt lat="44.278727" lon="5.268468"><ele>427.0</ele></trkpt>
    <trkpt lat="44.278677" lon="5.268436"><ele>426.1</ele></trkpt>
    <trkpt lat="44.278599" lon="5.268358"><ele>424.6</ele></trkpt>
    <trkpt lat="44.278544" lon="5.268250"><ele>423.8</ele></trkpt>
    <trkpt lat="44.278503" lon="5.268150"><ele>423.1</ele></trkpt>
    <trkpt lat="44.278439" lon="5.267907"><ele>421.3</ele></trkpt>
    <trkpt lat="44.278389" lon="5.267591"><ele>418.3</ele></trkpt>
    <trkpt lat="44.278402" lon="5.267467"><ele>417.6</ele></trkpt>
    <trkpt lat="44.278433" lon="5.267352"><ele>417.1</ele></trkpt>
    <trkpt lat="44.278449" lon="5.267239"><ele>416.4</ele></trkpt>
    <trkpt lat="44.278434" lon="5.267174"><ele>414.5</ele></trkpt>
    <trkpt lat="44.278409" lon="5.267138"><ele>412.7</ele></trkpt>
    <trkpt lat="44.278372" lon="5.267127"><ele>411.0</ele></trkpt>
    <trkpt lat="44.278341" lon="5.267150"><ele>410.5</ele></trkpt>
    <trkpt lat="44.278324" lon="5.267184"><ele>410.7</ele></trkpt>
    <trkpt lat="44.278199" lon="5.267554"><ele>410.7</ele></trkpt>
    <trkpt lat="44.278148" lon="5.267679"><ele>409.7</ele></trkpt>
    <trkpt lat="44.278086" lon="5.267778"><ele>408.2</ele></trkpt>
    <trkpt lat="44.278048" lon="5.267854"><ele>407.3</ele></trkpt>
    <trkpt lat="44.277914" lon="5.268241"><ele>404.9</ele></trkpt>
    <trkpt lat="44.277864" lon="5.268412"><ele>403.8</ele></trkpt>
    <trkpt lat="44.277809" lon="5.268554"><ele>402.6</ele></trkpt>
    <trkpt lat="44.277765" lon="5.268664"><ele>401.8</ele></trkpt>
    <trkpt lat="44.277752" lon="5.268693"><ele>401.5</ele></trkpt>
    <trkpt lat="44.277679" lon="5.268822"><ele>399.6</ele></trkpt>
    <trkpt lat="44.277606" lon="5.268971"><ele>397.4</ele></trkpt>
    <trkpt lat="44.277569" lon="5.269069"><ele>396.2</ele></trkpt>
    <trkpt lat="44.277459" lon="5.269417"><ele>393.0</ele></trkpt>
    <trkpt lat="44.277389" lon="5.269738"><ele>389.5</ele></trkpt>
    <trkpt lat="44.277367" lon="5.269878"><ele>388.6</ele></trkpt>
    <trkpt lat="44.277369" lon="5.269993"><ele>388.2</ele></trkpt>
    <trkpt lat="44.277401" lon="5.270191"><ele>387.7</ele></trkpt>
    <trkpt lat="44.277410" lon="5.270249"><ele>387.6</ele></trkpt>
    <trkpt lat="44.277408" lon="5.270292"><ele>387.2</ele></trkpt>
    <trkpt lat="44.277403" lon="5.270405"><ele>386.2</ele></trkpt>
    <trkpt lat="44.277373" lon="5.270484"><ele>385.2</ele></trkpt>
    <trkpt lat="44.277232" lon="5.270664"><ele>382.3</ele></trkpt>
    <trkpt lat="44.277130" lon="5.270763"><ele>380.7</ele></trkpt>
    <trkpt lat="44.276991" lon="5.270875"><ele>379.2</ele></trkpt>
    <trkpt lat="44.276951" lon="5.270891"><ele>378.8</ele></trkpt>
    <trkpt lat="44.276805" lon="5.270951"><ele>377.5</ele></trkpt>
    <trkpt lat="44.276738" lon="5.271011"><ele>377.1</ele></trkpt>
    <trkpt lat="44.276668" lon="5.271106"><ele>377.0</ele></trkpt>
    <trkpt lat="44.276598" lon="5.271234"><ele>376.5</ele></trkpt>
    <trkpt lat="44.276593" lon="5.271244"><ele>376.5</ele></trkpt>
    <trkpt lat="44.276372" lon="5.271612"><ele>374.9</ele></trkpt>
    <trkpt lat="44.276094" lon="5.271935"><ele>373.9</ele></trkpt>
    <trkpt lat="44.275890" lon="5.272087"><ele>373.1</ele></trkpt>
    <trkpt lat="44.275820" lon="5.272118"><ele>373.0</ele></trkpt>
    <trkpt lat="44.275399" lon="5.272205"><ele>371.4</ele></trkpt>
    <trkpt lat="44.275057" lon="5.272279"><ele>370.0</ele></trkpt>
    <trkpt lat="44.275062" lon="5.272594"><ele>369.2</ele></trkpt>
    <trkpt lat="44.275115" lon="5.273130"><ele>368.3</ele></trkpt>
    <trkpt lat="44.275154" lon="5.273434"><ele>367.8</ele></trkpt>
    <trkpt lat="44.275196" lon="5.273745"><ele>367.2</ele></trkpt>
    <trkpt lat="44.275208" lon="5.273838"><ele>366.9</ele></trkpt>
    <trkpt lat="44.275238" lon="5.274063"><ele>366.3</ele></trkpt>
  </trkseg></trk></gpx>