<?xml version="1.0" encoding="UTF-8"?>
<gpx version="1.1" creator="Chemins Noirs + BRouter hiking-mountain"
  xmlns="http://www.topografix.com/GPX/1/1" xmlns:xsi="http://www.w3.org/2001/XMLSchema-instance"
  xsi:schemaLocation="http://www.topografix.com/GPX/1/1 http://www.topografix.com/GPX/1/1/gpx.xsd">
<metadata><name>J2 — Gorges du Toulourenc (aquatique)</name>
<desc>⭐4.6 Marche DANS le lit de la rivière entre falaises. Chaussures aquatiques obligatoires. Inoubliable. — 10.9km +249m. Tracé BRouter sentiers OSM.</desc></metadata>
<wpt lat="44.175000" lon="5.380000"><name>🅿️ Parking Veaux (Montbrun-les-Bains)</name><sym>Parking Area</sym></wpt>
<trk><name>J2 — Gorges du Toulourenc (aquatique)</name><desc>⭐4.6 Marche DANS le lit de la rivière entre falaises. Chaussures aquatiques obligatoires. Inoubliable.</desc><trkseg>
    <trkpt lat="44.175338" lon="5.379017"><ele>550.5</ele></trkpt>
    <trkpt lat="44.175419" lon="5.379071"><ele>549.0</ele></trkpt>
    <trkpt lat="44.175492" lon="5.379100"><ele>547.8</ele></trkpt>
    <trkpt lat="44.175563" lon="5.379060"><ele>547.0</ele></trkpt>
    <trkpt lat="44.175599" lon="5.379015"><ele>546.8</ele></trkpt>
    <trkpt lat="44.175702" lon="5.378918"><ele>545.8</ele></trkpt>
    <trkpt lat="44.175909" lon="5.378651"><ele>544.0</ele></trkpt>
    <trkpt lat="44.176101" lon="5.378494"><ele>542.2</ele></trkpt>
    <trkpt lat="44.176320" lon="5.378400"><ele>540.0</ele></trkpt>
    <trkpt lat="44.176460" lon="5.378438"><ele>538.2</ele></trkpt>
    <trkpt lat="44.176770" lon="5.378560"><ele>535.0</ele></trkpt>
    <trkpt lat="44.176881" lon="5.378646"><ele>534.0</ele></trkpt>
    <trkpt lat="44.177004" lon="5.378703"><ele>533.0</ele></trkpt>
    <trkpt lat="44.177111" lon="5.378675"><ele>532.2</ele></trkpt>
    <trkpt lat="44.177237" lon="5.378611"><ele>531.0</ele></trkpt>
    <trkpt lat="44.177455" lon="5.378359"><ele>529.2</ele></trkpt>
    <trkpt lat="44.177543" lon="5.378311"><ele>528.8</ele></trkpt>
    <trkpt lat="44.177630" lon="5.378304"><ele>528.0</ele></trkpt>
    <trkpt lat="44.177751" lon="5.378376"><ele>527.0</ele></trkpt>
    <trkpt lat="44.177833" lon="5.378448"><ele>526.8</ele></trkpt>
    <trkpt lat="44.177914" lon="5.378477"><ele>526.2</ele></trkpt>
    <trkpt lat="44.177995" lon="5.378482"><ele>525.8</ele></trkpt>
    <trkpt lat="44.178468" lon="5.378352"><ele>522.2</ele></trkpt>
    <trkpt lat="44.178753" lon="5.378240"><ele>520.5</ele></trkpt>
    <trkpt lat="44.178874" lon="5.378163"><ele>520.0</ele></trkpt>
    <trkpt lat="44.179072" lon="5.377948"><ele>519.0</ele></trkpt>
    <trkpt lat="44.179120" lon="5.377883"><ele>518.8</ele></trkpt>
    <trkpt lat="44.179151" lon="5.377219"><ele>521.0</ele></trkpt>
    <trkpt lat="44.179187" lon="5.377102"><ele>521.5</ele></trkpt>
    <trkpt lat="44.179456" lon="5.376705"><ele>519.8</ele></trkpt>
    <trkpt lat="44.179556" lon="5.376442"><ele>517.0</ele></trkpt>
    <trkpt lat="44.179760" lon="5.375806"><ele>512.0</ele></trkpt>
    <trkpt lat="44.179786" lon="5.375716"><ele>511.8</ele></trkpt>
    <trkpt lat="44.179800" lon="5.375628"><ele>511.8</ele></trkpt>
    <trkpt lat="44.179791" lon="5.375499"><ele>512.0</ele></trkpt>
    <trkpt lat="44.179678" lon="5.375182"><ele>513.0</ele></trkpt>
    <trkpt lat="44.179588" lon="5.374918"><ele>514.5</ele></trkpt>
    <trkpt lat="44.179569" lon="5.374863"><ele>515.2</ele></trkpt>
    <trkpt lat="44.179570" lon="5.374797"><ele>515.8</ele></trkpt>
    <trkpt lat="44.179514" lon="5.374709"><ele>517.2</ele></trkpt>
    <trkpt lat="44.179484" lon="5.374565"><ele>518.8</ele></trkpt>
    <trkpt lat="44.179515" lon="5.374552"><ele>518.5</ele></trkpt>
    <trkpt lat="44.179624" lon="5.374370"><ele>519.0</ele></trkpt>
    <trkpt lat="44.179661" lon="5.374312"><ele>519.2</ele></trkpt>
    <trkpt lat="44.179668" lon="5.374298"><ele>519.2</ele></trkpt>
    <trkpt lat="44.179718" lon="5.374196"><ele>519.2</ele></trkpt>
    <trkpt lat="44.179798" lon="5.374070"><ele>519.0</ele></trkpt>
    <trkpt lat="44.179888" lon="5.373954"><ele>518.2</ele></trkpt>
    <trkpt lat="44.179909" lon="5.373878"><ele>518.2</ele></trkpt>
    <trkpt lat="44.180029" lon="5.373492"><ele>517.0</ele></trkpt>
    <trkpt lat="44.180060" lon="5.373319"><ele>516.8</ele></trkpt>
    <trkpt lat="44.180051" lon="5.373154"><ele>516.5</ele></trkpt>
    <trkpt lat="44.180021" lon="5.372931"><ele>516.0</ele></trkpt>
    <trkpt lat="44.180035" lon="5.372825"><ele>515.5</ele></trkpt>
    <trkpt lat="44.180004" lon="5.372650"><ele>515.2</ele></trkpt>
    <trkpt lat="44.179963" lon="5.372162"><ele>514.8</ele></trkpt>
    <trkpt lat="44.179967" lon="5.371958"><ele>514.2</ele></trkpt>
    <trkpt lat="44.180017" lon="5.371704"><ele>512.8</ele></trkpt>
    <trkpt lat="44.179970" lon="5.371669"><ele>513.2</ele></trkpt>
    <trkpt lat="44.179891" lon="5.371593"><ele>514.0</ele></trkpt>
    <trkpt lat="44.179770" lon="5.371424"><ele>515.0</ele></trkpt>
    <trkpt lat="44.178243" lon="5.369604"><ele>525.8</ele></trkpt>
    <trkpt lat="44.179770" lon="5.371424"><ele>515.0</ele></trkpt>
    <trkpt lat="44.179891" lon="5.371593"><ele>514.0</ele></trkpt>
    <trkpt lat="44.179970" lon="5.371669"><ele>513.2</ele></trkpt>
    <trkpt lat="44.180017" lon="5.371704"><ele>512.8</ele></trkpt>
    <trkpt lat="44.179967" lon="5.371958"><ele>514.2</ele></trkpt>
    <trkpt lat="44.179963" lon="5.372162"><ele>514.8</ele></trkpt>
    <trkpt lat="44.180004" lon="5.372650"><ele>515.2</ele></trkpt>
    <trkpt lat="44.180035" lon="5.372825"><ele>515.5</ele></trkpt>
    <trkpt lat="44.180021" lon="5.372931"><ele>516.0</ele></trkpt>
    <trkpt lat="44.180051" lon="5.373154"><ele>516.5</ele></trkpt>
    <trkpt lat="44.180060" lon="5.373319"><ele>516.8</ele></trkpt>
    <trkpt lat="44.180029" lon="5.373492"><ele>517.0</ele></trkpt>
    <trkpt lat="44.179909" lon="5.373878"><ele>518.2</ele></trkpt>
    <trkpt lat="44.179888" lon="5.373954"><ele>518.2</ele></trkpt>
    <trkpt lat="44.179912" lon="5.373984"><ele>517.8</ele></trkpt>
    <trkpt lat="44.179927" lon="5.374084"><ele>517.2</ele></trkpt>
    <trkpt lat="44.179931" lon="5.374200"><ele>516.5</ele></trkpt>
    <trkpt lat="44.179955" lon="5.374329"><ele>515.5</ele></trkpt>
    <trkpt lat="44.179964" lon="5.374370"><ele>515.0</ele></trkpt>
    <trkpt lat="44.180043" lon="5.374370"><ele>514.0</ele></trkpt>
    <trkpt lat="44.180101" lon="5.374423"><ele>513.0</ele></trkpt>
    <trkpt lat="44.180141" lon="5.374479"><ele>512.2</ele></trkpt>
    <trkpt lat="44.180226" lon="5.374664"><ele>510.5</ele></trkpt>
    <trkpt lat="44.180279" lon="5.374749"><ele>509.8</ele></trkpt>
    <trkpt lat="44.180329" lon="5.374802"><ele>509.0</ele></trkpt>
    <trkpt lat="44.180402" lon="5.374847"><ele>508.2</ele></trkpt>
    <trkpt lat="44.180833" lon="5.374974"><ele>504.8</ele></trkpt>
    <trkpt lat="44.180982" lon="5.375023"><ele>505.5</ele></trkpt>
    <trkpt lat="44.181111" lon="5.375072"><ele>506.0</ele></trkpt>
    <trkpt lat="44.181172" lon="5.375096"><ele>506.2</ele></trkpt>
    <trkpt lat="44.181205" lon="5.375110"><ele>506.2</ele></trkpt>
    <trkpt lat="44.181330" lon="5.374573"><ele>505.0</ele></trkpt>
    <trkpt lat="44.181586" lon="5.373581"><ele>503.8</ele></trkpt>
    <trkpt lat="44.181558" lon="5.373522"><ele>503.8</ele></trkpt>
    <trkpt lat="44.181548" lon="5.373472"><ele>503.8</ele></trkpt>
    <trkpt lat="44.181551" lon="5.373394"><ele>503.8</ele></trkpt>
    <trkpt lat="44.181568" lon="5.373285"><ele>503.8</ele></trkpt>
    <trkpt lat="44.181592" lon="5.373230"><ele>503.8</ele></trkpt>
    <trkpt lat="44.181611" lon="5.373208"><ele>503.8</ele></trkpt>
    <trkpt lat="44.181619" lon="5.373095"><ele>503.5</ele></trkpt>
    <trkpt lat="44.181652" lon="5.373008"><ele>503.5</ele></trkpt>
    <trkpt lat="44.181780" lon="5.372777"><ele>505.0</ele></trkpt>
    <trkpt lat="44.181905" lon="5.372591"><ele>506.5</ele></trkpt>
    <trkpt lat="44.182007" lon="5.372502"><ele>507.8</ele></trkpt>
    <trkpt lat="44.182117" lon="5.372460"><ele>509.2</ele></trkpt>
    <trkpt lat="44.182432" lon="5.372065"><ele>511.0</ele></trkpt>
    <trkpt lat="44.182549" lon="5.371901"><ele>512.8</ele></trkpt>
    <trkpt lat="44.182700" lon="5.371623"><ele>517.5</ele></trkpt>
    <trkpt lat="44.182831" lon="5.371297"><ele>520.0</ele></trkpt>
    <trkpt lat="44.182980" lon="5.370873"><ele>520.8</ele></trkpt>
    <trkpt lat="44.183048" lon="5.370649"><ele>520.8</ele></trkpt>
    <trkpt lat="44.183147" lon="5.370177"><ele>519.0</ele></trkpt>
    <trkpt lat="44.183268" lon="5.369512"><ele>517.5</ele></trkpt>
    <trkpt lat="44.183345" lon="5.369041"><ele>516.5</ele></trkpt>
    <trkpt lat="44.183384" lon="5.368756"><ele>516.5</ele></trkpt>
    <trkpt lat="44.183396" lon="5.368502"><ele>515.2</ele></trkpt>
    <trkpt lat="44.183354" lon="5.367581"><ele>512.0</ele></trkpt>
    <trkpt lat="44.183359" lon="5.367374"><ele>511.8</ele></trkpt>
    <trkpt lat="44.183381" lon="5.367160"><ele>512.0</ele></trkpt>
    <trkpt lat="44.183510" lon="5.366288"><ele>513.8</ele></trkpt>
    <trkpt lat="44.183725" lon="5.364287"><ele>511.8</ele></trkpt>
    <trkpt lat="44.183752" lon="5.363763"><ele>509.8</ele></trkpt>
    <trkpt lat="44.183755" lon="5.363486"><ele>508.2</ele></trkpt>
    <trkpt lat="44.183771" lon="5.362975"><ele>504.8</ele></trkpt>
    <trkpt lat="44.183855" lon="5.361808"><ele>505.0</ele></trkpt>
    <trkpt lat="44.183856" lon="5.361799"><ele>505.0</ele></trkpt>
    <trkpt lat="44.183859" lon="5.361750"><ele>505.2</ele></trkpt>
    <trkpt lat="44.183861" lon="5.361672"><ele>505.5</ele></trkpt>
    <trkpt lat="44.183853" lon="5.361059"><ele>508.2</ele></trkpt>
    <trkpt lat="44.183867" lon="5.360835"><ele>509.5</ele></trkpt>
    <trkpt lat="44.183888" lon="5.360641"><ele>509.5</ele></trkpt>
    <trkpt lat="44.183944" lon="5.360330"><ele>505.0</ele></trkpt>
    <trkpt lat="44.184151" lon="5.359193"><ele>505.0</ele></trkpt>
    <trkpt lat="44.184248" lon="5.358602"><ele>507.0</ele></trkpt>
    <trkpt lat="44.184299" lon="5.358015"><ele>506.2</ele></trkpt>
    <trkpt lat="44.184338" lon="5.357799"><ele>507.2</ele></trkpt>
    <trkpt lat="44.184429" lon="5.357379"><ele>509.5</ele></trkpt>
    <trkpt lat="44.184467" lon="5.357160"><ele>510.5</ele></trkpt>
    <trkpt lat="44.184494" lon="5.356931"><ele>510.5</ele></trkpt>
    <trkpt lat="44.184502" lon="5.356691"><ele>509.8</ele></trkpt>
    <trkpt lat="44.184501" lon="5.356485"><ele>508.2</ele></trkpt>
    <trkpt lat="44.184599" lon="5.355870"><ele>508.2</ele></trkpt>
    <trkpt lat="44.184606" lon="5.355585"><ele>508.5</ele></trkpt>
    <trkpt lat="44.184555" lon="5.355300"><ele>506.5</ele></trkpt>
    <trkpt lat="44.184442" lon="5.355014"><ele>501.8</ele></trkpt>
    <trkpt lat="44.184447" lon="5.354814"><ele>501.5</ele></trkpt>
    <trkpt lat="44.184565" lon="5.354091"><ele>504.0</ele></trkpt>
    <trkpt lat="44.184680" lon="5.353230"><ele>501.0</ele></trkpt>
    <trkpt lat="44.184818" lon="5.352534"><ele>498.8</ele></trkpt>
    <trkpt lat="44.184920" lon="5.351930"><ele>494.0</ele></trkpt>
    <trkpt lat="44.184959" lon="5.351597"><ele>491.0</ele></trkpt>
    <trkpt lat="44.185040" lon="5.351259"><ele>492.8</ele></trkpt>
    <trkpt lat="44.185068" lon="5.351069"><ele>493.5</ele></trkpt>
    <trkpt lat="44.185084" lon="5.350857"><ele>493.5</ele></trkpt>
    <trkpt lat="44.185074" lon="5.350680"><ele>492.5</ele></trkpt>
    <trkpt lat="44.185040" lon="5.350423"><ele>490.0</ele></trkpt>
    <trkpt lat="44.185040" lon="5.350196"><ele>489.0</ele></trkpt>
    <trkpt lat="44.185055" lon="5.349968"><ele>488.5</ele></trkpt>
    <trkpt lat="44.185099" lon="5.349710"><ele>488.5</ele></trkpt>
    <trkpt lat="44.185165" lon="5.349515"><ele>489.2</ele></trkpt>
    <trkpt lat="44.185246" lon="5.349305"><ele>489.8</ele></trkpt>
    <trkpt lat="44.185528" lon="5.348705"><ele>489.5</ele></trkpt>
    <trkpt lat="44.185835" lon="5.348107"><ele>487.0</ele></trkpt>
    <trkpt lat="44.185906" lon="5.347908"><ele>487.2</ele></trkpt>
    <trkpt lat="44.185998" lon="5.347596"><ele>487.8</ele></trkpt>
    <trkpt lat="44.186050" lon="5.347373"><ele>489.0</ele></trkpt>
    <trkpt lat="44.186095" lon="5.347424"><ele>490.5</ele></trkpt>
    <trkpt lat="44.186124" lon="5.347442"><ele>491.5</ele></trkpt>
    <trkpt lat="44.186154" lon="5.347506"><ele>492.2</ele></trkpt>
    <trkpt lat="44.186175" lon="5.347595"><ele>493.2</ele></trkpt>
    <trkpt lat="44.186145" lon="5.347707"><ele>492.8</ele></trkpt>
    <trkpt lat="44.186093" lon="5.347763"><ele>491.5</ele></trkpt>
    <trkpt lat="44.186032" lon="5.347858"><ele>490.2</ele></trkpt>
    <trkpt lat="44.186027" lon="5.347906"><ele>490.5</ele></trkpt>
    <trkpt lat="44.186032" lon="5.348046"><ele>491.2</ele></trkpt>
    <trkpt lat="44.186061" lon="5.348161"><ele>492.8</ele></trkpt>
    <trkpt lat="44.186092" lon="5.348783"><ele>501.8</ele></trkpt>
    <trkpt lat="44.186078" lon="5.348998"><ele>505.2</ele></trkpt>
    <trkpt lat="44.186103" lon="5.349053"><ele>506.8</ele></trkpt>
    <trkpt lat="44.186154" lon="5.349039"><ele>507.8</ele></trkpt>
    <trkpt lat="44.186248" lon="5.348823"><ele>506.2</ele></trkpt>
    <trkpt lat="44.186310" lon="5.348742"><ele>506.0</ele></trkpt>
    <trkpt lat="44.186377" lon="5.348686"><ele>506.5</ele></trkpt>
    <trkpt lat="44.186448" lon="5.348688"><ele>508.2</ele></trkpt>
    <trkpt lat="44.186529" lon="5.348736"><ele>511.0</ele></trkpt>
    <trkpt lat="44.186742" lon="5.348885"><ele>518.0</ele></trkpt>
    <trkpt lat="44.186988" lon="5.349004"><ele>522.8</ele></trkpt>
    <trkpt lat="44.187381" lon="5.349252"><ele>530.5</ele></trkpt>
    <trkpt lat="44.187663" lon="5.349359"><ele>536.5</ele></trkpt>
    <trkpt lat="44.187979" lon="5.349438"><ele>540.5</ele></trkpt>
    <trkpt lat="44.188242" lon="5.349545"><ele>543.8</ele></trkpt>
    <trkpt lat="44.188517" lon="5.349754"><ele>548.8</ele></trkpt>
    <trkpt lat="44.188683" lon="5.349917"><ele>550.8</ele></trkpt>
    <trkpt lat="44.188780" lon="5.350047"><ele>552.2</ele></trkpt>
    <trkpt lat="44.188962" lon="5.350182"><ele>555.0</ele></trkpt>
    <trkpt lat="44.189135" lon="5.350369"><ele>557.2</ele></trkpt>
    <trkpt lat="44.189245" lon="5.350577"><ele>561.8</ele></trkpt>
    <trkpt lat="44.189305" lon="5.350713"><ele>564.2</ele></trkpt>
    <trkpt lat="44.189398" lon="5.350863"><ele>566.8</ele></trkpt>
    <trkpt lat="44.189570" lon="5.350984"><ele>569.2</ele></trkpt>
    <trkpt lat="44.189615" lon="5.351131"><ele>572.0</ele></trkpt>
    <trkpt lat="44.189660" lon="5.351334"><ele>575.2</ele></trkpt>
    <trkpt lat="44.189612" lon="5.351535"><ele>580.2</ele></trkpt>
    <trkpt lat="44.189512" lon="5.351629"><ele>585.2</ele></trkpt>
    <trkpt lat="44.189392" lon="5.351633"><ele>589.2</ele></trkpt>
    <trkpt lat="44.189436" lon="5.351766"><ele>590.8</ele></trkpt>
    <trkpt lat="44.189507" lon="5.352171"><ele>596.2</ele></trkpt>
    <trkpt lat="44.189515" lon="5.352694"><ele>602.8</ele></trkpt>
    <trkpt lat="44.189476" lon="5.353349"><ele>606.0</ele></trkpt>
    <trkpt lat="44.189417" lon="5.353893"><ele>608.5</ele></trkpt>
    <trkpt lat="44.189319" lon="5.354564"><ele>613.0</ele></trkpt>
    <trkpt lat="44.189263" lon="5.355304"><ele>616.5</ele></trkpt>
    <trkpt lat="44.189240" lon="5.355519"><ele>617.2</ele></trkpt>
    <trkpt lat="44.189240" lon="5.355647"><ele>617.8</ele></trkpt>
    <trkpt lat="44.189286" lon="5.355725"><ele>617.5</ele></trkpt>
    <trkpt lat="44.189376" lon="5.355797"><ele>617.0</ele></trkpt>
    <trkpt lat="44.189486" lon="5.355781"><ele>616.0</ele></trkpt>
    <trkpt lat="44.189636" lon="5.355704"><ele>614.2</ele></trkpt>
    <trkpt lat="44.189668" lon="5.355707"><ele>614.0</ele></trkpt>
    <trkpt lat="44.189701" lon="5.355757"><ele>614.0</ele></trkpt>
    <trkpt lat="44.189716" lon="5.355869"><ele>614.5</ele></trkpt>
    <trkpt lat="44.189721" lon="5.356003"><ele>614.8</ele></trkpt>
    <trkpt lat="44.189743" lon="5.356194"><ele>615.2</ele></trkpt>
    <trkpt lat="44.189794" lon="5.356341"><ele>615.2</ele></trkpt>
    <trkpt lat="44.189833" lon="5.356526"><ele>615.2</ele></trkpt>
    <trkpt lat="44.189821" lon="5.356720"><ele>615.5</ele></trkpt>
    <trkpt lat="44.189821" lon="5.356861"><ele>614.2</ele></trkpt>
    <trkpt lat="44.189838" lon="5.356950"><ele>613.5</ele></trkpt>
    <trkpt lat="44.189804" lon="5.356947"><ele>613.8</ele></trkpt>
    <trkpt lat="44.189749" lon="5.356958"><ele>614.2</ele></trkpt>
    <trkpt lat="44.189528" lon="5.357112"><ele>615.2</ele></trkpt>
    <trkpt lat="44.189353" lon="5.357250"><ele>615.5</ele></trkpt>
    <trkpt lat="44.189286" lon="5.357273"><ele>616.0</ele></trkpt>
    <trkpt lat="44.189232" lon="5.357271"><ele>616.5</ele></trkpt>
    <trkpt lat="44.189167" lon="5.357223"><ele>617.5</ele></trkpt>
    <trkpt lat="44.189129" lon="5.357134"><ele>619.5</ele></trkpt>
    <trkpt lat="44.189061" lon="5.357009"><ele>622.8</ele></trkpt>
    <trkpt lat="44.188945" lon="5.356928"><ele>627.0</ele></trkpt>
    <trkpt lat="44.188865" lon="5.356936"><ele>629.2</ele></trkpt>
    <trkpt lat="44.188778" lon="5.356916"><ele>632.0</ele></trkpt>
    <trkpt lat="44.188707" lon="5.356860"><ele>635.0</ele></trkpt>
    <trkpt lat="44.188642" lon="5.356696"><ele>639.5</ele></trkpt>
    <trkpt lat="44.188347" lon="5.355696"><ele>653.8</ele></trkpt>
    <trkpt lat="44.188192" lon="5.355087"><ele>657.8</ele></trkpt>
    <trkpt lat="44.188145" lon="5.354936"><ele>658.5</ele></trkpt>
    <trkpt lat="44.188113" lon="5.354920"><ele>658.8</ele></trkpt>
    <trkpt lat="44.188080" lon="5.354934"><ele>659.0</ele></trkpt>
    <trkpt lat="44.188035" lon="5.355031"><ele>659.0</ele></trkpt>
    <trkpt lat="44.188080" lon="5.354934"><ele>659.0</ele></trkpt>
    <trkpt lat="44.188113" lon="5.354920"><ele>658.8</ele></trkpt>
    <trkpt lat="44.188145" lon="5.354936"><ele>658.5</ele></trkpt>
    <trkpt lat="44.188192" lon="5.355087"><ele>657.8</ele></trkpt>
    <trkpt lat="44.188347" lon="5.355696"><ele>653.8</ele></trkpt>
    <trkpt lat="44.188642" lon="5.356696"><ele>639.5</ele></trkpt>
    <trkpt lat="44.188707" lon="5.356860"><ele>635.0</ele></trkpt>
    <trkpt lat="44.188778" lon="5.356916"><ele>632.0</ele></trkpt>
    <trkpt lat="44.188865" lon="5.356936"><ele>629.2</ele></trkpt>
    <trkpt lat="44.188945" lon="5.356928"><ele>627.0</ele></trkpt>
    <trkpt lat="44.189061" lon="5.357009"><ele>622.8</ele></trkpt>
    <trkpt lat="44.189129" lon="5.357134"><ele>619.5</ele></trkpt>
    <trkpt lat="44.189167" lon="5.357223"><ele>617.5</ele></trkpt>
    <trkpt lat="44.189232" lon="5.357271"><ele>616.5</ele></trkpt>
    <trkpt lat="44.189286" lon="5.357273"><ele>616.0</ele></trkpt>
    <trkpt lat="44.189353" lon="5.357250"><ele>615.5</ele></trkpt>
    <trkpt lat="44.189528" lon="5.357112"><ele>615.2</ele></trkpt>
    <trkpt lat="44.189749" lon="5.356958"><ele>614.2</ele></trkpt>
    <trkpt lat="44.189804" lon="5.356947"><ele>613.8</ele></trkpt>
    <trkpt lat="44.189838" lon="5.356950"><ele>613.5</ele></trkpt>
    <trkpt lat="44.189821" lon="5.356861"><ele>614.2</ele></trkpt>
    <trkpt lat="44.189821" lon="5.356720"><ele>615.5</ele></trkpt>
    <trkpt lat="44.189833" lon="5.356526"><ele>615.2</ele></trkpt>
    <trkpt lat="44.189794" lon="5.356341"><ele>615.2</ele></trkpt>
    <trkpt lat="44.189743" lon="5.356194"><ele>615.2</ele></trkpt>
    <trkpt lat="44.189721" lon="5.356003"><ele>614.8</ele></trkpt>
    <trkpt lat="44.189716" lon="5.355869"><ele>614.5</ele></trkpt>
    <trkpt lat="44.189701" lon="5.355757"><ele>614.0</ele></trkpt>
    <trkpt lat="44.189668" lon="5.355707"><ele>614.0</ele></trkpt>
    <trkpt lat="44.189636" lon="5.355704"><ele>614.2</ele></trkpt>
    <trkpt lat="44.189486" lon="5.355781"><ele>616.0</ele></trkpt>
    <trkpt lat="44.189376" lon="5.355797"><ele>617.0</ele></trkpt>
    <trkpt lat="44.189286" lon="5.355725"><ele>617.5</ele></trkpt>
    <trkpt lat="44.189240" lon="5.355647"><ele>617.8</ele></trkpt>
    <trkpt lat="44.189240" lon="5.355519"><ele>617.2</ele></trkpt>
    <trkpt lat="44.189263" lon="5.355304"><ele>616.5</ele></trkpt>
    <trkpt lat="44.189319" lon="5.354564"><ele>613.0</ele></trkpt>
    <trkpt lat="44.189417" lon="5.353893"><ele>608.5</ele></trkpt>
    <trkpt lat="44.189476" lon="5.353349"><ele>606.0</ele></trkpt>
    <trkpt lat="44.189515" lon="5.352694"><ele>602.8</ele></trkpt>
    <trkpt lat="44.189507" lon="5.352171"><ele>596.2</ele></trkpt>
    <trkpt lat="44.189436" lon="5.351766"><ele>590.8</ele></trkpt>
    <trkpt lat="44.189392" lon="5.351633"><ele>589.2</ele></trkpt>
    <trkpt lat="44.189512" lon="5.351629"><ele>585.2</ele></trkpt>
    <trkpt lat="44.189612" lon="5.351535"><ele>580.2</ele></trkpt>
    <trkpt lat="44.189660" lon="5.351334"><ele>575.2</ele></trkpt>
    <trkpt lat="44.189615" lon="5.351131"><ele>572.0</ele></trkpt>
    <trkpt lat="44.189570" lon="5.350984"><ele>569.2</ele></trkpt>
    <trkpt lat="44.189398" lon="5.350863"><ele>566.8</ele></trkpt>
    <trkpt lat="44.189305" lon="5.350713"><ele>564.2</ele></trkpt>
    <trkpt lat="44.189245" lon="5.350577"><ele>561.8</ele></trkpt>
    <trkpt lat="44.189135" lon="5.350369"><ele>557.2</ele></trkpt>
    <trkpt lat="44.188962" lon="5.350182"><ele>555.0</ele></trkpt>
    <trkpt lat="44.188780" lon="5.350047"><ele>552.2</ele></trkpt>
    <trkpt lat="44.188683" lon="5.349917"><ele>550.8</ele></trkpt>
    <trkpt lat="44.188517" lon="5.349754"><ele>548.8</ele></trkpt>
    <trkpt lat="44.188242" lon="5.349545"><ele>543.8</ele></trkpt>
    <trkpt lat="44.187979" lon="5.349438"><ele>540.5</ele></trkpt>
    <trkpt lat="44.187663" lon="5.349359"><ele>536.5</ele></trkpt>
    <trkpt lat="44.187381" lon="5.349252"><ele>530.5</ele></trkpt>
    <trkpt lat="44.186988" lon="5.349004"><ele>522.8</ele></trkpt>
    <trkpt lat="44.186742" lon="5.348885"><ele>518.0</ele></trkpt>
    <trkpt lat="44.186529" lon="5.348736"><ele>511.0</ele></trkpt>
    <trkpt lat="44.186448" lon="5.348688"><ele>508.2</ele></trkpt>
    <trkpt lat="44.186377" lon="5.348686"><ele>506.5</ele></trkpt>
    <trkpt lat="44.186310" lon="5.348742"><ele>506.0</ele></trkpt>
    <trkpt lat="44.186248" lon="5.348823"><ele>506.2</ele></trkpt>
    <trkpt lat="44.186154" lon="5.349039"><ele>507.8</ele></trkpt>
    <trkpt lat="44.186103" lon="5.349053"><ele>506.8</ele></trkpt>
    <trkpt lat="44.186078" lon="5.348998"><ele>505.2</ele></trkpt>
    <trkpt lat="44.186092" lon="5.348783"><ele>501.8</ele></trkpt>
    <trkpt lat="44.186061" lon="5.348161"><ele>492.8</ele></trkpt>
    <trkpt lat="44.186032" lon="5.348046"><ele>491.2</ele></trkpt>
    <trkpt lat="44.186027" lon="5.347906"><ele>490.5</ele></trkpt>
    <trkpt lat="44.186032" lon="5.347858"><ele>490.2</ele></trkpt>
    <trkpt lat="44.186093" lon="5.347763"><ele>491.5</ele></trkpt>
    <trkpt lat="44.186145" lon="5.347707"><ele>492.8</ele></trkpt>
    <trkpt lat="44.186175" lon="5.347595"><ele>493.2</ele></trkpt>
    <trkpt lat="44.186154" lon="5.347506"><ele>492.2</ele></trkpt>
    <trkpt lat="44.186124" lon="5.347442"><ele>491.5</ele></trkpt>
    <trkpt lat="44.186095" lon="5.347424"><ele>490.5</ele></trkpt>
    <trkpt lat="44.186050" lon="5.347373"><ele>489.0</ele></trkpt>
    <trkpt lat="44.185998" lon="5.347596"><ele>487.8</ele></trkpt>
    <trkpt lat="44.185906" lon="5.347908"><ele>487.2</ele></trkpt>
    <trkpt lat="44.185835" lon="5.348107"><ele>487.0</ele></trkpt>
    <trkpt lat="44.185528" lon="5.348705"><ele>489.5</ele></trkpt>
    <trkpt lat="44.185246" lon="5.349305"><ele>489.8</ele></trkpt>
    <trkpt lat="44.185165" lon="5.349515"><ele>489.2</ele></trkpt>
    <trkpt lat="44.185099" lon="5.349710"><ele>488.5</ele></trkpt>
    <trkpt lat="44.185055" lon="5.349968"><ele>488.5</ele></trkpt>
    <trkpt lat="44.185040" lon="5.350196"><ele>489.0</ele></trkpt>
    <trkpt lat="44.185040" lon="5.350423"><ele>490.0</ele></trkpt>
    <trkpt lat="44.185074" lon="5.350680"><ele>492.5</ele></trkpt>
    <trkpt lat="44.185084" lon="5.350857"><ele>493.5</ele></trkpt>
    <trkpt lat="44.185068" lon="5.351069"><ele>493.5</ele></trkpt>
    <trkpt lat="44.185040" lon="5.351259"><ele>492.8</ele></trkpt>
    <trkpt lat="44.184959" lon="5.351597"><ele>491.0</ele></trkpt>
    <trkpt lat="44.184920" lon="5.351930"><ele>494.0</ele></trkpt>
    <trkpt lat="44.184818" lon="5.352534"><ele>498.8</ele></trkpt>
    <trkpt lat="44.184680" lon="5.353230"><ele>501.0</ele></trkpt>
    <trkpt lat="44.184565" lon="5.354091"><ele>504.0</ele></trkpt>
    <trkpt lat="44.184447" lon="5.354814"><ele>501.5</ele></trkpt>
    <trkpt lat="44.184442" lon="5.355014"><ele>501.8</ele></trkpt>
    <trkpt lat="44.184555" lon="5.355300"><ele>506.5</ele></trkpt>
    <trkpt lat="44.184606" lon="5.355585"><ele>508.5</ele></trkpt>
    <trkpt lat="44.184599" lon="5.355870"><ele>508.2</ele></trkpt>
    <trkpt lat="44.184501" lon="5.356485"><ele>508.2</ele></trkpt>
    <trkpt lat="44.184502" lon="5.356691"><ele>509.8</ele></trkpt>
    <trkpt lat="44.184494" lon="5.356931"><ele>510.5</ele></trkpt>
    <trkpt lat="44.184467" lon="5.357160"><ele>510.5</ele></trkpt>
    <trkpt lat="44.184429" lon="5.357379"><ele>509.5</ele></trkpt>
    <trkpt lat="44.184338" lon="5.357799"><ele>507.2</ele></trkpt>
    <trkpt lat="44.184299" lon="5.358015"><ele>506.2</ele></trkpt>
    <trkpt lat="44.184248" lon="5.358602"><ele>507.0</ele></trkpt>
    <trkpt lat="44.184151" lon="5.359193"><ele>505.0</ele></trkpt>
    <trkpt lat="44.183888" lon="5.360641"><ele>509.5</ele></trkpt>
    <trkpt lat="44.183867" lon="5.360835"><ele>509.5</ele></trkpt>
    <trkpt lat="44.183853" lon="5.361059"><ele>508.2</ele></trkpt>
    <trkpt lat="44.183861" lon="5.361672"><ele>505.5</ele></trkpt>
    <trkpt lat="44.183859" lon="5.361750"><ele>505.2</ele></trkpt>
    <trkpt lat="44.183856" lon="5.361799"><ele>505.0</ele></trkpt>
    <trkpt lat="44.183855" lon="5.361808"><ele>505.0</ele></trkpt>
    <trkpt lat="44.183771" lon="5.362975"><ele>504.8</ele></trkpt>
    <trkpt lat="44.183755" lon="5.363486"><ele>508.2</ele></trkpt>
    <trkpt lat="44.183752" lon="5.363763"><ele>509.8</ele></trkpt>
    <trkpt lat="44.183725" lon="5.364287"><ele>511.8</ele></trkpt>
    <trkpt lat="44.183634" lon="5.365131"><ele>513.8</ele></trkpt>
    <trkpt lat="44.183510" lon="5.366288"><ele>513.8</ele></trkpt>
    <trkpt lat="44.183381" lon="5.367160"><ele>512.0</ele></trkpt>
    <trkpt lat="44.183359" lon="5.367374"><ele>511.8</ele></trkpt>
    <trkpt lat="44.183354" lon="5.367581"><ele>512.0</ele></trkpt>
    <trkpt lat="44.183396" lon="5.368502"><ele>515.2</ele></trkpt>
    <trkpt lat="44.183384" lon="5.368756"><ele>516.5</ele></trkpt>
    <trkpt lat="44.183345" lon="5.369041"><ele>516.5</ele></trkpt>
    <trkpt lat="44.183268" lon="5.369512"><ele>517.5</ele></trkpt>
    <trkpt lat="44.183147" lon="5.370177"><ele>519.0</ele></trkpt>
    <trkpt lat="44.183048" lon="5.370649"><ele>520.8</ele></trkpt>
    <trkpt lat="44.182980" lon="5.370873"><ele>520.8</ele></trkpt>
    <trkpt lat="44.182831" lon="5.371297"><ele>520.0</ele></trkpt>
    <trkpt lat="44.182700" lon="5.371623"><ele>517.5</ele></trkpt>
    <trkpt lat="44.182549" lon="5.371901"><ele>512.8</ele></trkpt>
    <trkpt lat="44.182432" lon="5.372065"><ele>511.0</ele></trkpt>
    <trkpt lat="44.182117" lon="5.372460"><ele>509.2</ele></trkpt>
    <trkpt lat="44.182007" lon="5.372502"><ele>507.8</ele></trkpt>
    <trkpt lat="44.181905" lon="5.372591"><ele>506.5</ele></trkpt>
    <trkpt lat="44.181780" lon="5.372777"><ele>505.0</ele></trkpt>
    <trkpt lat="44.181652" lon="5.373008"><ele>503.5</ele></trkpt>
    <trkpt lat="44.181619" lon="5.373095"><ele>503.5</ele></trkpt>
    <trkpt lat="44.181611" lon="5.373208"><ele>503.8</ele></trkpt>
    <trkpt lat="44.181592" lon="5.373230"><ele>503.8</ele></trkpt>
    <trkpt lat="44.181568" lon="5.373285"><ele>503.8</ele></trkpt>
    <trkpt lat="44.181551" lon="5.373394"><ele>503.8</ele></trkpt>
    <trkpt lat="44.181548" lon="5.373472"><ele>503.8</ele></trkpt>
    <trkpt lat="44.181558" lon="5.373522"><ele>503.8</ele></trkpt>
    <trkpt lat="44.181586" lon="5.373581"><ele>503.8</ele></trkpt>
    <trkpt lat="44.181330" lon="5.374573"><ele>505.0</ele></trkpt>
    <trkpt lat="44.181205" lon="5.375110"><ele>506.2</ele></trkpt>
    <trkpt lat="44.181172" lon="5.375096"><ele>506.2</ele></trkpt>
    <trkpt lat="44.181111" lon="5.375072"><ele>506.0</ele></trkpt>
    <trkpt lat="44.180982" lon="5.375023"><ele>505.5</ele></trkpt>
    <trkpt lat="44.180833" lon="5.374974"><ele>504.8</ele></trkpt>
    <trkpt lat="44.180402" lon="5.374847"><ele>508.2</ele></trkpt>
    <trkpt lat="44.180329" lon="5.374802"><ele>509.0</ele></trkpt>
    <trkpt lat="44.180279" lon="5.374749"><ele>509.8</ele></trkpt>
    <trkpt lat="44.180226" lon="5.374664"><ele>510.5</ele></trkpt>
    <trkpt lat="44.180141" lon="5.374479"><ele>512.2</ele></trkpt>
    <trkpt lat="44.180101" lon="5.374423"><ele>513.0</ele></trkpt>
    <trkpt lat="44.180043" lon="5.374370"><ele>514.0</ele></trkpt>
    <trkpt lat="44.179964" lon="5.374370"><ele>515.0</ele></trkpt>
    <trkpt lat="44.179882" lon="5.374390"><ele>516.0</ele></trkpt>
    <trkpt lat="44.179798" lon="5.374419"><ele>516.8</ele></trkpt>
    <trkpt lat="44.179690" lon="5.374364"><ele>518.2</ele></trkpt>
    <trkpt lat="44.179661" lon="5.374312"><ele>519.2</ele></trkpt>
    <trkpt lat="44.179624" lon="5.374370"><ele>519.0</ele></trkpt>
    <trkpt lat="44.179515" lon="5.374552"><ele>518.5</ele></trkpt>
    <trkpt lat="44.179484" lon="5.374565"><ele>518.8</ele></trkpt>
    <trkpt lat="44.179480" lon="5.374545"><ele>519.0</ele></trkpt>
    <trkpt lat="44.179447" lon="5.374500"><ele>519.8</ele></trkpt>
    <trkpt lat="44.179413" lon="5.374493"><ele>520.2</ele></trkpt>
    <trkpt lat="44.179253" lon="5.374526"><ele>521.8</ele></trkpt>
    <trkpt lat="44.179219" lon="5.374519"><ele>522.0</ele></trkpt>
    <trkpt lat="44.179015" lon="5.374604"><ele>523.2</ele></trkpt>
    <trkpt lat="44.178878" lon="5.374659"><ele>524.2</ele></trkpt>
    <trkpt lat="44.178263" lon="5.374880"><ele>527.5</ele></trkpt>
    <trkpt lat="44.178126" lon="5.374909"><ele>528.2</ele></trkpt>
    <trkpt lat="44.178031" lon="5.374916"><ele>529.0</ele></trkpt>
    <trkpt lat="44.178126" lon="5.374909"><ele>528.2</ele></trkpt>
    <trkpt lat="44.178263" lon="5.374880"><ele>527.5</ele></trkpt>
    <trkpt lat="44.178878" lon="5.374659"><ele>524.2</ele></trkpt>
    <trkpt lat="44.179015" lon="5.374604"><ele>523.2</ele></trkpt>
    <trkpt lat="44.179219" lon="5.374519"><ele>522.0</ele></trkpt>
    <trkpt lat="44.179253" lon="5.374526"><ele>521.8</ele></trkpt>
    <trkpt lat="44.179413" lon="5.374493"><ele>520.2</ele></trkpt>
    <trkpt lat="44.179447" lon="5.374500"><ele>519.8</ele></trkpt>
    <trkpt lat="44.179480" lon="5.374545"><ele>519.0</ele></trkpt>
    <trkpt lat="44.179484" lon="5.374565"><ele>518.8</ele></trkpt>
    <trkpt lat="44.179514" lon="5.374709"><ele>517.2</ele></trkpt>
    <trkpt lat="44.179570" lon="5.374797"><ele>515.8</ele></trkpt>
    <trkpt lat="44.179569" lon="5.374863"><ele>515.2</ele></trkpt>
    <trkpt lat="44.179588" lon="5.374918"><ele>514.5</ele></trkpt>
    <trkpt lat="44.179678" lon="5.375182"><ele>513.0</ele></trkpt>
    <trkpt lat="44.179791" lon="5.375499"><ele>512.0</ele></trkpt>
    <trkpt lat="44.179800" lon="5.375628"><ele>511.8</ele></trkpt>
    <trkpt lat="44.179786" lon="5.375716"><ele>511.8</ele></trkpt>
    <trkpt lat="44.179760" lon="5.375806"><ele>512.0</ele></trkpt>
    <trkpt lat="44.179556" lon="5.376442"><ele>517.0</ele></trkpt>
    <trkpt lat="44.179456" lon="5.376705"><ele>519.8</ele></trkpt>
    <trkpt lat="44.179187" lon="5.377102"><ele>521.5</ele></trkpt>
    <trkpt lat="44.179151" lon="5.377219"><ele>521.0</ele></trkpt>
    <trkpt lat="44.179120" lon="5.377883"><ele>518.8</ele></trkpt>
    <trkpt lat="44.179072" lon="5.377948"><ele>519.0</ele></trkpt>
    <trkpt lat="44.178874" lon="5.378163"><ele>520.0</ele></trkpt>
    <trkpt lat="44.178753" lon="5.378240"><ele>520.5</ele></trkpt>
    <trkpt lat="44.178468" lon="5.378352"><ele>522.2</ele></trkpt>
    <trkpt lat="44.177995" lon="5.378482"><ele>525.8</ele></trkpt>
    <trkpt lat="44.177914" lon="5.378477"><ele>526.2</ele></trkpt>
    <trkpt lat="44.177833" lon="5.378448"><ele>526.8</ele></trkpt>
    <trkpt lat="44.177751" lon="5.378376"><ele>527.0</ele></trkpt>
    <trkpt lat="44.177630" lon="5.378304"><ele>528.0</ele></trkpt>
    <trkpt lat="44.177543" lon="5.378311"><ele>528.8</ele></trkpt>
    <trkpt lat="44.177455" lon="5.378359"><ele>529.2</ele></trkpt>
    <trkpt lat="44.177237" lon="5.378611"><ele>531.0</ele></trkpt>
    <trkpt lat="44.177111" lon="5.378675"><ele>532.2</ele></trkpt>
    <trkpt lat="44.177004" lon="5.378703"><ele>533.0</ele></trkpt>
    <trkpt lat="44.176881" lon="5.378646"><ele>534.0</ele></trkpt>
    <trkpt lat="44.176770" lon="5.378560"><ele>535.0</ele></trkpt>
    <trkpt lat="44.176460" lon="5.378438"><ele>538.2</ele></trkpt>
    <trkpt lat="44.176320" lon="5.378400"><ele>540.0</ele></trkpt>
    <trkpt lat="44.176101" lon="5.378494"><ele>542.2</ele></trkpt>
    <trkpt lat="44.175909" lon="5.378651"><ele>544.0</ele></trkpt>
    <trkpt lat="44.175702" lon="5.378918"><ele>545.8</ele></trkpt>
    <trkpt lat="44.175599" lon="5.379015"><ele>546.8</ele></trkpt>
    <trkpt lat="44.175563" lon="5.379060"><ele>547.0</ele></trkpt>
    <trkpt lat="44.175492" lon="5.379100"><ele>547.8</ele></trkpt>
    <trkpt lat="44.175419" lon="5.379071"><ele>549.0</ele></trkpt>
    <trkpt lat="44.175338" lon="5.379017"><ele>559.0</ele></trkpt>
  </trkseg></trk></gpx>