<?xml version="1.0" encoding="UTF-8"?>
<gpx version="1.1" creator="Chemins Noirs"
  xmlns="http://www.topografix.com/GPX/1/1"
  xmlns:xsi="http://www.w3.org/2001/XMLSchema-instance"
  xsi:schemaLocation="http://www.topografix.com/GPX/1/1 http://www.topografix.com/GPX/1/1/gpx.xsd">
<metadata><name>J2 — Sainte-Jalle — Crêtes du Linceuil</name>
<desc>Boucle depuis Sainte-Jalle. Vue 360° Ventoux + Baronnies, cols, bergerie. Balisage PR. — 18.2 km, +760m</desc></metadata>
<wpt lat="44.345051" lon="5.283401"><ele>403</ele>
  <name>🅿️ Parking mairie, Sainte-Jalle</name><sym>Parking Area</sym></wpt>
<trk><name>J2 — Sainte-Jalle — Crêtes du Linceuil</name>
  <desc>Boucle depuis Sainte-Jalle. Vue 360° Ventoux + Baronnies, cols, bergerie. Balisage PR.</desc><trkseg>
    <trkpt lat="44.345051" lon="5.283401"><ele>403.2</ele></trkpt>
    <trkpt lat="44.345212" lon="5.283461"><ele>405.6</ele></trkpt>
    <trkpt lat="44.345302" lon="5.283418"><ele>406.6</ele></trkpt>
    <trkpt lat="44.345317" lon="5.283395"><ele>406.7</ele></trkpt>
    <trkpt lat="44.345346" lon="5.283376"><ele>406.9</ele></trkpt>
    <trkpt lat="44.345403" lon="5.283372"><ele>407.6</ele></trkpt>
    <trkpt lat="44.345549" lon="5.283392"><ele>409.3</ele></trkpt>
    <trkpt lat="44.345794" lon="5.283480"><ele>410.9</ele></trkpt>
    <trkpt lat="44.345834" lon="5.283587"><ele>411.8</ele></trkpt>
    <trkpt lat="44.345916" lon="5.283777"><ele>412.3</ele></trkpt>
    <trkpt lat="44.346213" lon="5.283932"><ele>413.6</ele></trkpt>
    <trkpt lat="44.346380" lon="5.284002"><ele>414.5</ele></trkpt>
    <trkpt lat="44.346445" lon="5.284029"><ele>415.1</ele></trkpt>
    <trkpt lat="44.346611" lon="5.284115"><ele>417.1</ele></trkpt>
    <trkpt lat="44.346733" lon="5.284206"><ele>419.7</ele></trkpt>
    <trkpt lat="44.346823" lon="5.284301"><ele>421.9</ele></trkpt>
    <trkpt lat="44.346839" lon="5.284319"><ele>422.3</ele></trkpt>
    <trkpt lat="44.346944" lon="5.284482"><ele>424.7</ele></trkpt>
    <trkpt lat="44.347031" lon="5.284626"><ele>426.5</ele></trkpt>
    <trkpt lat="44.347095" lon="5.284739"><ele>427.7</ele></trkpt>
    <trkpt lat="44.347143" lon="5.284879"><ele>427.9</ele></trkpt>
    <trkpt lat="44.347166" lon="5.284955"><ele>427.8</ele></trkpt>
    <trkpt lat="44.347241" lon="5.285040"><ele>428.9</ele></trkpt>
    <trkpt lat="44.347359" lon="5.285112"><ele>431.0</ele></trkpt>
    <trkpt lat="44.347512" lon="5.285160"><ele>434.5</ele></trkpt>
    <trkpt lat="44.347689" lon="5.285216"><ele>437.7</ele></trkpt>
    <trkpt lat="44.347831" lon="5.285281"><ele>439.9</ele></trkpt>
    <trkpt lat="44.348043" lon="5.285396"><ele>442.5</ele></trkpt>
    <trkpt lat="44.348285" lon="5.285552"><ele>446.0</ele></trkpt>
    <trkpt lat="44.348331" lon="5.285582"><ele>446.7</ele></trkpt>
    <trkpt lat="44.348483" lon="5.285682"><ele>448.6</ele></trkpt>
    <trkpt lat="44.348512" lon="5.285700"><ele>449.0</ele></trkpt>
    <trkpt lat="44.348533" lon="5.285695"><ele>449.4</ele></trkpt>
    <trkpt lat="44.348553" lon="5.285639"><ele>450.3</ele></trkpt>
    <trkpt lat="44.348551" lon="5.285556"><ele>450.9</ele></trkpt>
    <trkpt lat="44.348552" lon="5.285398"><ele>452.1</ele></trkpt>
    <trkpt lat="44.348567" lon="5.285338"><ele>452.8</ele></trkpt>
    <trkpt lat="44.348593" lon="5.285290"><ele>453.6</ele></trkpt>
    <trkpt lat="44.348620" lon="5.285245"><ele>454.2</ele></trkpt>
    <trkpt lat="44.348759" lon="5.285018"><ele>456.2</ele></trkpt>
    <trkpt lat="44.348804" lon="5.284992"><ele>456.7</ele></trkpt>
    <trkpt lat="44.348837" lon="5.284986"><ele>457.0</ele></trkpt>
    <trkpt lat="44.348875" lon="5.284988"><ele>457.6</ele></trkpt>
    <trkpt lat="44.349011" lon="5.285021"><ele>459.4</ele></trkpt>
    <trkpt lat="44.349116" lon="5.285046"><ele>460.8</ele></trkpt>
    <trkpt lat="44.349290" lon="5.285095"><ele>462.7</ele></trkpt>
    <trkpt lat="44.349735" lon="5.285349"><ele>469.7</ele></trkpt>
    <trkpt lat="44.350064" lon="5.285541"><ele>476.8</ele></trkpt>
    <trkpt lat="44.350363" lon="5.285744"><ele>482.5</ele></trkpt>
    <trkpt lat="44.350780" lon="5.286011"><ele>489.5</ele></trkpt>
    <trkpt lat="44.350954" lon="5.286077"><ele>492.4</ele></trkpt>
    <trkpt lat="44.351114" lon="5.286131"><ele>495.0</ele></trkpt>
    <trkpt lat="44.351215" lon="5.286183"><ele>496.5</ele></trkpt>
    <trkpt lat="44.351420" lon="5.286360"><ele>499.5</ele></trkpt>
    <trkpt lat="44.351665" lon="5.286525"><ele>503.5</ele></trkpt>
    <trkpt lat="44.351774" lon="5.286584"><ele>505.1</ele></trkpt>
    <trkpt lat="44.351922" lon="5.286593"><ele>507.6</ele></trkpt>
    <trkpt lat="44.352044" lon="5.286633"><ele>509.8</ele></trkpt>
    <trkpt lat="44.352170" lon="5.286758"><ele>511.7</ele></trkpt>
    <trkpt lat="44.352509" lon="5.287086"><ele>517.2</ele></trkpt>
    <trkpt lat="44.352700" lon="5.287302"><ele>519.8</ele></trkpt>
    <trkpt lat="44.352877" lon="5.287545"><ele>521.5</ele></trkpt>
    <trkpt lat="44.353276" lon="5.288372"><ele>527.7</ele></trkpt>
    <trkpt lat="44.353428" lon="5.288713"><ele>529.3</ele></trkpt>
    <trkpt lat="44.353493" lon="5.288831"><ele>530.1</ele></trkpt>
    <trkpt lat="44.353575" lon="5.288939"><ele>531.0</ele></trkpt>
    <trkpt lat="44.353690" lon="5.289073"><ele>531.8</ele></trkpt>
    <trkpt lat="44.353867" lon="5.289227"><ele>533.2</ele></trkpt>
    <trkpt lat="44.354219" lon="5.289561"><ele>536.3</ele></trkpt>
    <trkpt lat="44.354612" lon="5.289909"><ele>540.3</ele></trkpt>
    <trkpt lat="44.354949" lon="5.290175"><ele>545.8</ele></trkpt>
    <trkpt lat="44.355226" lon="5.290384"><ele>550.1</ele></trkpt>
    <trkpt lat="44.355368" lon="5.290515"><ele>551.6</ele></trkpt>
    <trkpt lat="44.355412" lon="5.290568"><ele>551.9</ele></trkpt>
    <trkpt lat="44.355451" lon="5.290639"><ele>552.3</ele></trkpt>
    <trkpt lat="44.355491" lon="5.290755"><ele>552.7</ele></trkpt>
    <trkpt lat="44.355600" lon="5.291065"><ele>554.9</ele></trkpt>
    <trkpt lat="44.355801" lon="5.291572"><ele>558.6</ele></trkpt>
    <trkpt lat="44.355981" lon="5.292102"><ele>561.6</ele></trkpt>
    <trkpt lat="44.356199" lon="5.292661"><ele>565.3</ele></trkpt>
    <trkpt lat="44.356386" lon="5.293112"><ele>567.7</ele></trkpt>
    <trkpt lat="44.356532" lon="5.293438"><ele>570.2</ele></trkpt>
    <trkpt lat="44.356629" lon="5.293698"><ele>572.1</ele></trkpt>
    <trkpt lat="44.356728" lon="5.293994"><ele>574.5</ele></trkpt>
    <trkpt lat="44.356819" lon="5.294350"><ele>576.5</ele></trkpt>
    <trkpt lat="44.356880" lon="5.294623"><ele>577.1</ele></trkpt>
    <trkpt lat="44.357019" lon="5.294640"><ele>579.7</ele></trkpt>
    <trkpt lat="44.357037" lon="5.294480"><ele>580.8</ele></trkpt>
    <trkpt lat="44.357040" lon="5.294461"><ele>581.0</ele></trkpt>
    <trkpt lat="44.357062" lon="5.294326"><ele>582.0</ele></trkpt>
    <trkpt lat="44.357072" lon="5.294266"><ele>582.4</ele></trkpt>
    <trkpt lat="44.357151" lon="5.294089"><ele>584.5</ele></trkpt>
    <trkpt lat="44.357276" lon="5.293896"><ele>587.2</ele></trkpt>
    <trkpt lat="44.357343" lon="5.293725"><ele>589.2</ele></trkpt>
    <trkpt lat="44.357360" lon="5.293492"><ele>590.0</ele></trkpt>
    <trkpt lat="44.357406" lon="5.293201"><ele>591.4</ele></trkpt>
    <trkpt lat="44.357488" lon="5.292898"><ele>594.3</ele></trkpt>
    <trkpt lat="44.357660" lon="5.292453"><ele>599.1</ele></trkpt>
    <trkpt lat="44.357785" lon="5.292189"><ele>602.0</ele></trkpt>
    <trkpt lat="44.357889" lon="5.291983"><ele>603.5</ele></trkpt>
    <trkpt lat="44.358051" lon="5.291748"><ele>606.2</ele></trkpt>
    <trkpt lat="44.358293" lon="5.291512"><ele>608.7</ele></trkpt>
    <trkpt lat="44.358426" lon="5.291393"><ele>609.1</ele></trkpt>
    <trkpt lat="44.358496" lon="5.291369"><ele>609.6</ele></trkpt>
    <trkpt lat="44.358577" lon="5.291375"><ele>610.5</ele></trkpt>
    <trkpt lat="44.358645" lon="5.291418"><ele>611.7</ele></trkpt>
    <trkpt lat="44.358708" lon="5.291474"><ele>612.9</ele></trkpt>
    <trkpt lat="44.358720" lon="5.291485"><ele>613.2</ele></trkpt>
    <trkpt lat="44.358876" lon="5.291625"><ele>616.3</ele></trkpt>
    <trkpt lat="44.359072" lon="5.291791"><ele>618.1</ele></trkpt>
    <trkpt lat="44.359186" lon="5.291854"><ele>618.4</ele></trkpt>
    <trkpt lat="44.359280" lon="5.291910"><ele>616.5</ele></trkpt>
    <trkpt lat="44.359357" lon="5.292000"><ele>615.7</ele></trkpt>
    <trkpt lat="44.359498" lon="5.292230"><ele>614.5</ele></trkpt>
    <trkpt lat="44.359706" lon="5.292587"><ele>612.2</ele></trkpt>
    <trkpt lat="44.359888" lon="5.292918"><ele>609.3</ele></trkpt>
    <trkpt lat="44.360049" lon="5.293196"><ele>607.1</ele></trkpt>
    <trkpt lat="44.360216" lon="5.293465"><ele>605.1</ele></trkpt>
    <trkpt lat="44.360589" lon="5.293887"><ele>599.7</ele></trkpt>
    <trkpt lat="44.360702" lon="5.294008"><ele>599.6</ele></trkpt>
    <trkpt lat="44.360785" lon="5.294044"><ele>597.8</ele></trkpt>
    <trkpt lat="44.360928" lon="5.294083"><ele>594.3</ele></trkpt>
    <trkpt lat="44.361067" lon="5.294101"><ele>590.5</ele></trkpt>
    <trkpt lat="44.361270" lon="5.294193"><ele>587.3</ele></trkpt>
    <trkpt lat="44.361595" lon="5.294373"><ele>583.7</ele></trkpt>
    <trkpt lat="44.361709" lon="5.294452"><ele>583.2</ele></trkpt>
    <trkpt lat="44.361818" lon="5.294511"><ele>582.3</ele></trkpt>
    <trkpt lat="44.361904" lon="5.294549"><ele>581.4</ele></trkpt>
    <trkpt lat="44.362103" lon="5.294586"><ele>577.9</ele></trkpt>
    <trkpt lat="44.362481" lon="5.294671"><ele>573.3</ele></trkpt>
    <trkpt lat="44.362745" lon="5.294727"><ele>571.6</ele></trkpt>
    <trkpt lat="44.362874" lon="5.294714"><ele>569.6</ele></trkpt>
    <trkpt lat="44.363027" lon="5.294653"><ele>565.8</ele></trkpt>
    <trkpt lat="44.363170" lon="5.294614"><ele>563.5</ele></trkpt>
    <trkpt lat="44.363265" lon="5.294612"><ele>563.0</ele></trkpt>
    <trkpt lat="44.363307" lon="5.294646"><ele>564.1</ele></trkpt>
    <trkpt lat="44.363347" lon="5.294696"><ele>566.0</ele></trkpt>
    <trkpt lat="44.363390" lon="5.294743"><ele>567.7</ele></trkpt>
    <trkpt lat="44.363431" lon="5.294748"><ele>567.9</ele></trkpt>
    <trkpt lat="44.363494" lon="5.294744"><ele>567.7</ele></trkpt>
    <trkpt lat="44.363552" lon="5.294727"><ele>567.2</ele></trkpt>
    <trkpt lat="44.363682" lon="5.294687"><ele>566.7</ele></trkpt>
    <trkpt lat="44.363726" lon="5.294608"><ele>564.7</ele></trkpt>
    <trkpt lat="44.363768" lon="5.294524"><ele>562.7</ele></trkpt>
    <trkpt lat="44.363865" lon="5.294370"><ele>559.0</ele></trkpt>
    <trkpt lat="44.363949" lon="5.294294"><ele>556.9</ele></trkpt>
    <trkpt lat="44.364114" lon="5.294195"><ele>554.6</ele></trkpt>
    <trkpt lat="44.364221" lon="5.294147"><ele>552.9</ele></trkpt>
    <trkpt lat="44.364317" lon="5.294151"><ele>552.4</ele></trkpt>
    <trkpt lat="44.364388" lon="5.294176"><ele>552.7</ele></trkpt>
    <trkpt lat="44.364458" lon="5.294213"><ele>553.3</ele></trkpt>
    <trkpt lat="44.364547" lon="5.294230"><ele>552.2</ele></trkpt>
    <trkpt lat="44.364632" lon="5.294231"><ele>550.7</ele></trkpt>
    <trkpt lat="44.364685" lon="5.294220"><ele>549.4</ele></trkpt>
    <trkpt lat="44.364774" lon="5.294192"><ele>547.1</ele></trkpt>
    <trkpt lat="44.364847" lon="5.294194"><ele>546.0</ele></trkpt>
    <trkpt lat="44.364929" lon="5.294220"><ele>545.6</ele></trkpt>
    <trkpt lat="44.365269" lon="5.294356"><ele>543.2</ele></trkpt>
    <trkpt lat="44.365376" lon="5.294418"><ele>544.2</ele></trkpt>
    <trkpt lat="44.365470" lon="5.294489"><ele>545.1</ele></trkpt>
    <trkpt lat="44.365579" lon="5.294568"><ele>546.0</ele></trkpt>
    <trkpt lat="44.365618" lon="5.294540"><ele>546.8</ele></trkpt>
    <trkpt lat="44.365638" lon="5.294492"><ele>547.1</ele></trkpt>
    <trkpt lat="44.365634" lon="5.294411"><ele>547.1</ele></trkpt>
    <trkpt lat="44.365579" lon="5.294241"><ele>545.8</ele></trkpt>
    <trkpt lat="44.365457" lon="5.294010"><ele>545.6</ele></trkpt>
    <trkpt lat="44.365301" lon="5.293774"><ele>545.3</ele></trkpt>
    <trkpt lat="44.365230" lon="5.293642"><ele>545.7</ele></trkpt>
    <trkpt lat="44.365182" lon="5.293523"><ele>546.9</ele></trkpt>
    <trkpt lat="44.365131" lon="5.293351"><ele>549.2</ele></trkpt>
    <trkpt lat="44.365135" lon="5.293257"><ele>551.1</ele></trkpt>
    <trkpt lat="44.365151" lon="5.293105"><ele>554.2</ele></trkpt>
    <trkpt lat="44.365164" lon="5.293005"><ele>556.2</ele></trkpt>
    <trkpt lat="44.365177" lon="5.292894"><ele>558.0</ele></trkpt>
    <trkpt lat="44.365166" lon="5.292866"><ele>558.0</ele></trkpt>
    <trkpt lat="44.365152" lon="5.292854"><ele>557.8</ele></trkpt>
    <trkpt lat="44.364967" lon="5.292774"><ele>554.5</ele></trkpt>
    <trkpt lat="44.364838" lon="5.292682"><ele>555.0</ele></trkpt>
    <trkpt lat="44.364752" lon="5.292593"><ele>555.9</ele></trkpt>
    <trkpt lat="44.364667" lon="5.292533"><ele>556.1</ele></trkpt>
    <trkpt lat="44.364572" lon="5.292498"><ele>555.4</ele></trkpt>
    <trkpt lat="44.364459" lon="5.292497"><ele>553.4</ele></trkpt>
    <trkpt lat="44.364331" lon="5.292521"><ele>553.2</ele></trkpt>
    <trkpt lat="44.364179" lon="5.292575"><ele>552.2</ele></trkpt>
    <trkpt lat="44.363995" lon="5.292620"><ele>552.3</ele></trkpt>
    <trkpt lat="44.363925" lon="5.292628"><ele>552.6</ele></trkpt>
    <trkpt lat="44.363510" lon="5.292624"><ele>557.4</ele></trkpt>
    <trkpt lat="44.363336" lon="5.292621"><ele>558.1</ele></trkpt>
    <trkpt lat="44.363289" lon="5.292604"><ele>557.9</ele></trkpt>
    <trkpt lat="44.363247" lon="5.292563"><ele>558.5</ele></trkpt>
    <trkpt lat="44.363215" lon="5.292504"><ele>559.7</ele></trkpt>
    <trkpt lat="44.363161" lon="5.292353"><ele>561.0</ele></trkpt>
    <trkpt lat="44.363132" lon="5.292219"><ele>562.4</ele></trkpt>
    <trkpt lat="44.363127" lon="5.292167"><ele>562.7</ele></trkpt>
    <trkpt lat="44.363171" lon="5.291726"><ele>566.3</ele></trkpt>
    <trkpt lat="44.363185" lon="5.291563"><ele>566.4</ele></trkpt>
    <trkpt lat="44.363219" lon="5.291481"><ele>566.9</ele></trkpt>
    <trkpt lat="44.363247" lon="5.291431"><ele>567.3</ele></trkpt>
    <trkpt lat="44.363296" lon="5.291344"><ele>567.9</ele></trkpt>
    <trkpt lat="44.363312" lon="5.291320"><ele>568.1</ele></trkpt>
    <trkpt lat="44.363344" lon="5.291274"><ele>568.5</ele></trkpt>
    <trkpt lat="44.363379" lon="5.291215"><ele>569.1</ele></trkpt>
    <trkpt lat="44.363402" lon="5.291047"><ele>568.8</ele></trkpt>
    <trkpt lat="44.363413" lon="5.290821"><ele>567.5</ele></trkpt>
    <trkpt lat="44.363400" lon="5.290491"><ele>564.9</ele></trkpt>
    <trkpt lat="44.363381" lon="5.290171"><ele>563.1</ele></trkpt>
    <trkpt lat="44.363332" lon="5.289958"><ele>561.1</ele></trkpt>
    <trkpt lat="44.363261" lon="5.289796"><ele>559.7</ele></trkpt>
    <trkpt lat="44.363242" lon="5.289670"><ele>559.4</ele></trkpt>
    <trkpt lat="44.363230" lon="5.289566"><ele>559.0</ele></trkpt>
    <trkpt lat="44.363218" lon="5.289334"><ele>558.6</ele></trkpt>
    <trkpt lat="44.363224" lon="5.289233"><ele>558.7</ele></trkpt>
    <trkpt lat="44.363259" lon="5.289166"><ele>559.4</ele></trkpt>
    <trkpt lat="44.363300" lon="5.289132"><ele>560.0</ele></trkpt>
    <trkpt lat="44.363360" lon="5.289146"><ele>560.9</ele></trkpt>
    <trkpt lat="44.363386" lon="5.289152"><ele>561.1</ele></trkpt>
    <trkpt lat="44.363489" lon="5.289222"><ele>562.2</ele></trkpt>
    <trkpt lat="44.363669" lon="5.289366"><ele>565.5</ele></trkpt>
    <trkpt lat="44.363785" lon="5.289407"><ele>566.2</ele></trkpt>
    <trkpt lat="44.364083" lon="5.289492"><ele>568.0</ele></trkpt>
    <trkpt lat="44.364140" lon="5.289489"><ele>568.0</ele></trkpt>
    <trkpt lat="44.364436" lon="5.289333"><ele>568.3</ele></trkpt>
    <trkpt lat="44.364478" lon="5.289275"><ele>568.2</ele></trkpt>
    <trkpt lat="44.364512" lon="5.289210"><ele>567.8</ele></trkpt>
    <trkpt lat="44.364533" lon="5.289114"><ele>566.9</ele></trkpt>
    <trkpt lat="44.364555" lon="5.288971"><ele>565.5</ele></trkpt>
    <trkpt lat="44.364555" lon="5.288860"><ele>564.1</ele></trkpt>
    <trkpt lat="44.364564" lon="5.288809"><ele>563.7</ele></trkpt>
    <trkpt lat="44.364595" lon="5.288762"><ele>563.9</ele></trkpt>
    <trkpt lat="44.364694" lon="5.288659"><ele>564.9</ele></trkpt>
    <trkpt lat="44.365025" lon="5.288324"><ele>564.8</ele></trkpt>
    <trkpt lat="44.365137" lon="5.288260"><ele>563.2</ele></trkpt>
    <trkpt lat="44.365217" lon="5.288246"><ele>563.2</ele></trkpt>
    <trkpt lat="44.365373" lon="5.288263"><ele>564.5</ele></trkpt>
    <trkpt lat="44.365522" lon="5.288272"><ele>565.3</ele></trkpt>
    <trkpt lat="44.365684" lon="5.288262"><ele>563.8</ele></trkpt>
    <trkpt lat="44.365873" lon="5.288236"><ele>561.4</ele></trkpt>
    <trkpt lat="44.366079" lon="5.288155"><ele>559.3</ele></trkpt>
    <trkpt lat="44.366120" lon="5.288126"><ele>559.3</ele></trkpt>
    <trkpt lat="44.366167" lon="5.288069"><ele>560.1</ele></trkpt>
    <trkpt lat="44.366180" lon="5.288000"><ele>560.9</ele></trkpt>
    <trkpt lat="44.366166" lon="5.287925"><ele>560.9</ele></trkpt>
    <trkpt lat="44.366034" lon="5.287802"><ele>558.0</ele></trkpt>
    <trkpt lat="44.365941" lon="5.287681"><ele>556.4</ele></trkpt>
    <trkpt lat="44.365900" lon="5.287596"><ele>556.0</ele></trkpt>
    <trkpt lat="44.365886" lon="5.287502"><ele>556.3</ele></trkpt>
    <trkpt lat="44.365883" lon="5.287246"><ele>555.3</ele></trkpt>
    <trkpt lat="44.365864" lon="5.287127"><ele>555.1</ele></trkpt>
    <trkpt lat="44.365800" lon="5.286975"><ele>554.2</ele></trkpt>
    <trkpt lat="44.365771" lon="5.286897"><ele>553.6</ele></trkpt>
    <trkpt lat="44.365754" lon="5.286780"><ele>553.2</ele></trkpt>
    <trkpt lat="44.365788" lon="5.286492"><ele>551.9</ele></trkpt>
    <trkpt lat="44.365840" lon="5.286202"><ele>549.1</ele></trkpt>
    <trkpt lat="44.365899" lon="5.285977"><ele>547.7</ele></trkpt>
    <trkpt lat="44.365946" lon="5.285635"><ele>545.1</ele></trkpt>
    <trkpt lat="44.365985" lon="5.285337"><ele>543.4</ele></trkpt>
    <trkpt lat="44.366027" lon="5.285179"><ele>542.6</ele></trkpt>
    <trkpt lat="44.366099" lon="5.284995"><ele>541.6</ele></trkpt>
    <trkpt lat="44.366180" lon="5.284857"><ele>540.7</ele></trkpt>
    <trkpt lat="44.366305" lon="5.284680"><ele>540.2</ele></trkpt>
    <trkpt lat="44.366351" lon="5.284591"><ele>540.6</ele></trkpt>
    <trkpt lat="44.366378" lon="5.284520"><ele>541.0</ele></trkpt>
    <trkpt lat="44.366393" lon="5.284403"><ele>541.1</ele></trkpt>
    <trkpt lat="44.366370" lon="5.284251"><ele>540.4</ele></trkpt>
    <trkpt lat="44.366247" lon="5.283823"><ele>539.8</ele></trkpt>
    <trkpt lat="44.366220" lon="5.283776"><ele>540.0</ele></trkpt>
    <trkpt lat="44.366167" lon="5.283742"><ele>539.8</ele></trkpt>
    <trkpt lat="44.366120" lon="5.283769"><ele>538.7</ele></trkpt>
    <trkpt lat="44.366047" lon="5.283855"><ele>536.7</ele></trkpt>
    <trkpt lat="44.366000" lon="5.283886"><ele>536.1</ele></trkpt>
    <trkpt lat="44.365958" lon="5.283884"><ele>536.1</ele></trkpt>
    <trkpt lat="44.365911" lon="5.283874"><ele>536.2</ele></trkpt>
    <trkpt lat="44.365849" lon="5.283800"><ele>537.3</ele></trkpt>
    <trkpt lat="44.365739" lon="5.283604"><ele>538.8</ele></trkpt>
    <trkpt lat="44.365698" lon="5.283542"><ele>539.7</ele></trkpt>
    <trkpt lat="44.365657" lon="5.283517"><ele>539.6</ele></trkpt>
    <trkpt lat="44.365602" lon="5.283500"><ele>539.1</ele></trkpt>
    <trkpt lat="44.365523" lon="5.283469"><ele>538.5</ele></trkpt>
    <trkpt lat="44.365462" lon="5.283436"><ele>538.1</ele></trkpt>
    <trkpt lat="44.365364" lon="5.283312"><ele>538.9</ele></trkpt>
    <trkpt lat="44.365142" lon="5.283217"><ele>537.4</ele></trkpt>
    <trkpt lat="44.365093" lon="5.283195"><ele>537.2</ele></trkpt>
    <trkpt lat="44.365014" lon="5.283088"><ele>537.7</ele></trkpt>
    <trkpt lat="44.364873" lon="5.282844"><ele>538.9</ele></trkpt>
    <trkpt lat="44.364734" lon="5.282641"><ele>539.2</ele></trkpt>
    <trkpt lat="44.364608" lon="5.282479"><ele>539.4</ele></trkpt>
    <trkpt lat="44.364552" lon="5.282439"><ele>539.4</ele></trkpt>
    <trkpt lat="44.364491" lon="5.282418"><ele>538.9</ele></trkpt>
    <trkpt lat="44.364423" lon="5.282418"><ele>537.8</ele></trkpt>
    <trkpt lat="44.364342" lon="5.282423"><ele>536.7</ele></trkpt>
    <trkpt lat="44.364273" lon="5.282418"><ele>536.0</ele></trkpt>
    <trkpt lat="44.364186" lon="5.282388"><ele>535.7</ele></trkpt>
    <trkpt lat="44.364056" lon="5.282281"><ele>535.9</ele></trkpt>
    <trkpt lat="44.363967" lon="5.282181"><ele>535.7</ele></trkpt>
    <trkpt lat="44.363907" lon="5.282078"><ele>534.9</ele></trkpt>
    <trkpt lat="44.363854" lon="5.281934"><ele>534.1</ele></trkpt>
    <trkpt lat="44.363837" lon="5.281829"><ele>533.5</ele></trkpt>
    <trkpt lat="44.363842" lon="5.281754"><ele>533.6</ele></trkpt>
    <trkpt lat="44.363889" lon="5.281637"><ele>535.0</ele></trkpt>
    <trkpt lat="44.363959" lon="5.281506"><ele>537.7</ele></trkpt>
    <trkpt lat="44.363981" lon="5.281406"><ele>538.6</ele></trkpt>
    <trkpt lat="44.364003" lon="5.281035"><ele>541.0</ele></trkpt>
    <trkpt lat="44.363993" lon="5.280949"><ele>541.4</ele></trkpt>
    <trkpt lat="44.363952" lon="5.280865"><ele>540.4</ele></trkpt>
    <trkpt lat="44.363829" lon="5.280753"><ele>536.8</ele></trkpt>
    <trkpt lat="44.363778" lon="5.280668"><ele>536.0</ele></trkpt>
    <trkpt lat="44.363749" lon="5.280549"><ele>536.5</ele></trkpt>
    <trkpt lat="44.363735" lon="5.280279"><ele>538.3</ele></trkpt>
    <trkpt lat="44.363736" lon="5.279925"><ele>537.0</ele></trkpt>
    <trkpt lat="44.363757" lon="5.279814"><ele>536.4</ele></trkpt>
    <trkpt lat="44.364017" lon="5.279341"><ele>535.3</ele></trkpt>
    <trkpt lat="44.364128" lon="5.279162"><ele>535.3</ele></trkpt>
    <trkpt lat="44.364161" lon="5.279043"><ele>535.0</ele></trkpt>
    <trkpt lat="44.364174" lon="5.278940"><ele>534.1</ele></trkpt>
    <trkpt lat="44.364177" lon="5.278691"><ele>534.2</ele></trkpt>
    <trkpt lat="44.364160" lon="5.278404"><ele>534.4</ele></trkpt>
    <trkpt lat="44.364125" lon="5.278145"><ele>534.6</ele></trkpt>
    <trkpt lat="44.364101" lon="5.277932"><ele>534.6</ele></trkpt>
    <trkpt lat="44.364101" lon="5.277788"><ele>534.9</ele></trkpt>
    <trkpt lat="44.364127" lon="5.277703"><ele>535.4</ele></trkpt>
    <trkpt lat="44.364198" lon="5.277476"><ele>536.6</ele></trkpt>
    <trkpt lat="44.364339" lon="5.277202"><ele>536.5</ele></trkpt>
    <trkpt lat="44.364421" lon="5.277109"><ele>537.2</ele></trkpt>
    <trkpt lat="44.364470" lon="5.277076"><ele>538.1</ele></trkpt>
    <trkpt lat="44.364536" lon="5.277051"><ele>539.4</ele></trkpt>
    <trkpt lat="44.364602" lon="5.277027"><ele>540.9</ele></trkpt>
    <trkpt lat="44.364678" lon="5.276967"><ele>542.1</ele></trkpt>
    <trkpt lat="44.364764" lon="5.276826"><ele>542.8</ele></trkpt>
    <trkpt lat="44.364799" lon="5.276677"><ele>542.3</ele></trkpt>
    <trkpt lat="44.364833" lon="5.276419"><ele>541.8</ele></trkpt>
    <trkpt lat="44.364877" lon="5.276011"><ele>542.7</ele></trkpt>
    <trkpt lat="44.364870" lon="5.275846"><ele>542.8</ele></trkpt>
    <trkpt lat="44.364856" lon="5.275712"><ele>543.2</ele></trkpt>
    <trkpt lat="44.364827" lon="5.275608"><ele>543.2</ele></trkpt>
    <trkpt lat="44.364685" lon="5.275318"><ele>543.3</ele></trkpt>
    <trkpt lat="44.364584" lon="5.275141"><ele>544.0</ele></trkpt>
    <trkpt lat="44.364501" lon="5.275043"><ele>544.2</ele></trkpt>
    <trkpt lat="44.364339" lon="5.274848"><ele>545.7</ele></trkpt>
    <trkpt lat="44.364178" lon="5.274633"><ele>547.8</ele></trkpt>
    <trkpt lat="44.364065" lon="5.274472"><ele>549.0</ele></trkpt>
    <trkpt lat="44.363999" lon="5.274320"><ele>549.5</ele></trkpt>
    <trkpt lat="44.363948" lon="5.274126"><ele>550.7</ele></trkpt>
    <trkpt lat="44.363929" lon="5.273950"><ele>552.6</ele></trkpt>
    <trkpt lat="44.363877" lon="5.273452"><ele>554.0</ele></trkpt>
    <trkpt lat="44.363875" lon="5.273290"><ele>554.8</ele></trkpt>
    <trkpt lat="44.363876" lon="5.273235"><ele>555.4</ele></trkpt>
    <trkpt lat="44.363881" lon="5.273002"><ele>558.2</ele></trkpt>
    <trkpt lat="44.363748" lon="5.272594"><ele>559.1</ele></trkpt>
    <trkpt lat="44.363697" lon="5.272485"><ele>559.3</ele></trkpt>
    <trkpt lat="44.363663" lon="5.272378"><ele>559.7</ele></trkpt>
    <trkpt lat="44.363639" lon="5.272257"><ele>560.6</ele></trkpt>
    <trkpt lat="44.363629" lon="5.272140"><ele>560.2</ele></trkpt>
    <trkpt lat="44.363666" lon="5.271973"><ele>560.7</ele></trkpt>
    <trkpt lat="44.363685" lon="5.271914"><ele>560.8</ele></trkpt>
    <trkpt lat="44.363791" lon="5.271806"><ele>562.5</ele></trkpt>
    <trkpt lat="44.363976" lon="5.271557"><ele>561.1</ele></trkpt>
    <trkpt lat="44.364204" lon="5.271259"><ele>559.6</ele></trkpt>
    <trkpt lat="44.364414" lon="5.271006"><ele>557.4</ele></trkpt>
    <trkpt lat="44.364561" lon="5.270811"><ele>555.5</ele></trkpt>
    <trkpt lat="44.364704" lon="5.270607"><ele>553.9</ele></trkpt>
    <trkpt lat="44.364829" lon="5.270388"><ele>551.8</ele></trkpt>
    <trkpt lat="44.364892" lon="5.270245"><ele>549.6</ele></trkpt>
    <trkpt lat="44.364947" lon="5.270178"><ele>548.6</ele></trkpt>
    <trkpt lat="44.365142" lon="5.270112"><ele>549.2</ele></trkpt>
    <trkpt lat="44.365266" lon="5.270104"><ele>550.2</ele></trkpt>
    <trkpt lat="44.365386" lon="5.270091"><ele>551.0</ele></trkpt>
    <trkpt lat="44.365486" lon="5.270066"><ele>551.2</ele></trkpt>
    <trkpt lat="44.365612" lon="5.269990"><ele>550.1</ele></trkpt>
    <trkpt lat="44.365797" lon="5.269840"><ele>548.0</ele></trkpt>
    <trkpt lat="44.365991" lon="5.269686"><ele>546.7</ele></trkpt>
    <trkpt lat="44.366091" lon="5.269622"><ele>546.2</ele></trkpt>
    <trkpt lat="44.366243" lon="5.269586"><ele>545.6</ele></trkpt>
    <trkpt lat="44.366331" lon="5.269577"><ele>545.3</ele></trkpt>
    <trkpt lat="44.366441" lon="5.269619"><ele>545.4</ele></trkpt>
    <trkpt lat="44.366569" lon="5.269702"><ele>545.2</ele></trkpt>
    <trkpt lat="44.366652" lon="5.269777"><ele>545.2</ele></trkpt>
    <trkpt lat="44.366705" lon="5.269878"><ele>544.9</ele></trkpt>
    <trkpt lat="44.366810" lon="5.270155"><ele>544.4</ele></trkpt>
    <trkpt lat="44.366885" lon="5.270365"><ele>545.6</ele></trkpt>
    <trkpt lat="44.366975" lon="5.270519"><ele>546.1</ele></trkpt>
    <trkpt lat="44.367031" lon="5.270608"><ele>546.6</ele></trkpt>
    <trkpt lat="44.367136" lon="5.270676"><ele>545.1</ele></trkpt>
    <trkpt lat="44.367379" lon="5.270771"><ele>541.4</ele></trkpt>
    <trkpt lat="44.367653" lon="5.270825"><ele>537.1</ele></trkpt>
    <trkpt lat="44.367781" lon="5.270874"><ele>535.8</ele></trkpt>
    <trkpt lat="44.367855" lon="5.270903"><ele>535.0</ele></trkpt>
    <trkpt lat="44.368046" lon="5.270974"><ele>532.7</ele></trkpt>
    <trkpt lat="44.368114" lon="5.270999"><ele>532.1</ele></trkpt>
    <trkpt lat="44.368429" lon="5.271066"><ele>529.0</ele></trkpt>
    <trkpt lat="44.368627" lon="5.271092"><ele>527.6</ele></trkpt>
    <trkpt lat="44.368717" lon="5.271099"><ele>527.4</ele></trkpt>
    <trkpt lat="44.368835" lon="5.271078"><ele>526.7</ele></trkpt>
    <trkpt lat="44.369015" lon="5.271016"><ele>525.2</ele></trkpt>
    <trkpt lat="44.369358" lon="5.270822"><ele>522.6</ele></trkpt>
    <trkpt lat="44.369588" lon="5.270682"><ele>522.7</ele></trkpt>
    <trkpt lat="44.369678" lon="5.270594"><ele>522.8</ele></trkpt>
    <trkpt lat="44.369716" lon="5.270542"><ele>522.7</ele></trkpt>
    <trkpt lat="44.370013" lon="5.269955"><ele>515.3</ele></trkpt>
    <trkpt lat="44.370020" lon="5.269940"><ele>515.0</ele></trkpt>
    <trkpt lat="44.370073" lon="5.269821"><ele>513.2</ele></trkpt>
    <trkpt lat="44.370112" lon="5.269698"><ele>512.1</ele></trkpt>
    <trkpt lat="44.370129" lon="5.269618"><ele>511.6</ele></trkpt>
    <trkpt lat="44.370154" lon="5.269502"><ele>511.3</ele></trkpt>
    <trkpt lat="44.370222" lon="5.269202"><ele>511.8</ele></trkpt>
    <trkpt lat="44.370279" lon="5.269050"><ele>513.0</ele></trkpt>
    <trkpt lat="44.370303" lon="5.269175"><ele>512.4</ele></trkpt>
    <trkpt lat="44.370310" lon="5.269551"><ele>510.4</ele></trkpt>
    <trkpt lat="44.370335" lon="5.270180"><ele>507.0</ele></trkpt>
    <trkpt lat="44.370333" lon="5.270647"><ele>506.8</ele></trkpt>
    <trkpt lat="44.370322" lon="5.270801"><ele>507.1</ele></trkpt>
    <trkpt lat="44.370327" lon="5.270931"><ele>507.4</ele></trkpt>
    <trkpt lat="44.370369" lon="5.271088"><ele>505.9</ele></trkpt>
    <trkpt lat="44.370471" lon="5.271276"><ele>502.6</ele></trkpt>
    <trkpt lat="44.370591" lon="5.271539"><ele>499.6</ele></trkpt>
    <trkpt lat="44.370704" lon="5.271820"><ele>497.4</ele></trkpt>
    <trkpt lat="44.370838" lon="5.272143"><ele>495.0</ele></trkpt>
    <trkpt lat="44.371017" lon="5.272465"><ele>491.2</ele></trkpt>
    <trkpt lat="44.371056" lon="5.272587"><ele>489.9</ele></trkpt>
    <trkpt lat="44.371081" lon="5.272772"><ele>489.4</ele></trkpt>
    <trkpt lat="44.371086" lon="5.272949"><ele>486.8</ele></trkpt>
    <trkpt lat="44.371064" lon="5.273117"><ele>485.5</ele></trkpt>
    <trkpt lat="44.371039" lon="5.273221"><ele>484.9</ele></trkpt>
    <trkpt lat="44.370929" lon="5.273507"><ele>490.3</ele></trkpt>
    <trkpt lat="44.370924" lon="5.273687"><ele>489.7</ele></trkpt>
    <trkpt lat="44.370948" lon="5.273867"><ele>488.9</ele></trkpt>
    <trkpt lat="44.371033" lon="5.274092"><ele>485.9</ele></trkpt>
    <trkpt lat="44.371167" lon="5.274395"><ele>483.1</ele></trkpt>
    <trkpt lat="44.371251" lon="5.274629"><ele>480.4</ele></trkpt>
    <trkpt lat="44.371271" lon="5.274700"><ele>480.0</ele></trkpt>
    <trkpt lat="44.371314" lon="5.274763"><ele>478.5</ele></trkpt>
    <trkpt lat="44.371388" lon="5.274806"><ele>476.2</ele></trkpt>
    <trkpt lat="44.371439" lon="5.274835"><ele>478.2</ele></trkpt>
    <trkpt lat="44.371483" lon="5.274850"><ele>479.7</ele></trkpt>
    <trkpt lat="44.371541" lon="5.274834"><ele>481.3</ele></trkpt>
    <trkpt lat="44.371587" lon="5.274787"><ele>482.2</ele></trkpt>
    <trkpt lat="44.371624" lon="5.274718"><ele>482.5</ele></trkpt>
    <trkpt lat="44.371665" lon="5.274607"><ele>481.9</ele></trkpt>
    <trkpt lat="44.371691" lon="5.274500"><ele>480.8</ele></trkpt>
    <trkpt lat="44.371738" lon="5.274315"><ele>479.9</ele></trkpt>
    <trkpt lat="44.371775" lon="5.274203"><ele>479.9</ele></trkpt>
    <trkpt lat="44.371854" lon="5.274086"><ele>481.4</ele></trkpt>
    <trkpt lat="44.371897" lon="5.274059"><ele>482.4</ele></trkpt>
    <trkpt lat="44.371957" lon="5.274021"><ele>483.7</ele></trkpt>
    <trkpt lat="44.372159" lon="5.273906"><ele>486.1</ele></trkpt>
    <trkpt lat="44.372227" lon="5.273881"><ele>487.0</ele></trkpt>
    <trkpt lat="44.372331" lon="5.273809"><ele>489.2</ele></trkpt>
    <trkpt lat="44.372407" lon="5.273738"><ele>491.1</ele></trkpt>
    <trkpt lat="44.372421" lon="5.273709"><ele>491.5</ele></trkpt>
    <trkpt lat="44.372434" lon="5.273660"><ele>491.7</ele></trkpt>
    <trkpt lat="44.372435" lon="5.273603"><ele>491.7</ele></trkpt>
    <trkpt lat="44.372433" lon="5.273535"><ele>491.5</ele></trkpt>
    <trkpt lat="44.372425" lon="5.273441"><ele>491.1</ele></trkpt>
    <trkpt lat="44.372431" lon="5.273374"><ele>491.3</ele></trkpt>
    <trkpt lat="44.372441" lon="5.273313"><ele>491.5</ele></trkpt>
    <trkpt lat="44.372479" lon="5.273137"><ele>491.8</ele></trkpt>
    <trkpt lat="44.372552" lon="5.272901"><ele>492.4</ele></trkpt>
    <trkpt lat="44.372611" lon="5.272780"><ele>492.8</ele></trkpt>
    <trkpt lat="44.372641" lon="5.272755"><ele>493.2</ele></trkpt>
    <trkpt lat="44.372717" lon="5.272692"><ele>494.1</ele></trkpt>
    <trkpt lat="44.372856" lon="5.272603"><ele>495.4</ele></trkpt>
    <trkpt lat="44.373117" lon="5.272462"><ele>497.3</ele></trkpt>
    <trkpt lat="44.373307" lon="5.272367"><ele>499.1</ele></trkpt>
    <trkpt lat="44.373418" lon="5.272285"><ele>500.4</ele></trkpt>
    <trkpt lat="44.373505" lon="5.272205"><ele>501.9</ele></trkpt>
    <trkpt lat="44.373576" lon="5.272130"><ele>503.9</ele></trkpt>
    <trkpt lat="44.373621" lon="5.272044"><ele>505.3</ele></trkpt>
    <trkpt lat="44.373609" lon="5.271935"><ele>505.0</ele></trkpt>
    <trkpt lat="44.373579" lon="5.271862"><ele>504.5</ele></trkpt>
    <trkpt lat="44.373492" lon="5.271617"><ele>502.7</ele></trkpt>
    <trkpt lat="44.373484" lon="5.271532"><ele>502.4</ele></trkpt>
    <trkpt lat="44.373497" lon="5.271408"><ele>502.9</ele></trkpt>
    <trkpt lat="44.373535" lon="5.271333"><ele>503.8</ele></trkpt>
    <trkpt lat="44.373588" lon="5.271253"><ele>504.8</ele></trkpt>
    <trkpt lat="44.373648" lon="5.271197"><ele>505.6</ele></trkpt>
    <trkpt lat="44.373734" lon="5.271176"><ele>507.0</ele></trkpt>
    <trkpt lat="44.373811" lon="5.271174"><ele>508.4</ele></trkpt>
    <trkpt lat="44.373850" lon="5.271160"><ele>509.0</ele></trkpt>
    <trkpt lat="44.373964" lon="5.271097"><ele>509.9</ele></trkpt>
    <trkpt lat="44.374058" lon="5.271027"><ele>510.3</ele></trkpt>
    <trkpt lat="44.374431" lon="5.270742"><ele>514.4</ele></trkpt>
    <trkpt lat="44.374559" lon="5.270626"><ele>515.7</ele></trkpt>
    <trkpt lat="44.374625" lon="5.270563"><ele>516.0</ele></trkpt>
    <trkpt lat="44.374713" lon="5.270498"><ele>517.0</ele></trkpt>
    <trkpt lat="44.374811" lon="5.270463"><ele>518.7</ele></trkpt>
    <trkpt lat="44.374953" lon="5.270427"><ele>521.2</ele></trkpt>
    <trkpt lat="44.375029" lon="5.270395"><ele>522.2</ele></trkpt>
    <trkpt lat="44.375083" lon="5.270352"><ele>522.5</ele></trkpt>
    <trkpt lat="44.375171" lon="5.270243"><ele>523.1</ele></trkpt>
    <trkpt lat="44.375283" lon="5.270057"><ele>524.6</ele></trkpt>
    <trkpt lat="44.375382" lon="5.269823"><ele>526.4</ele></trkpt>
    <trkpt lat="44.375455" lon="5.269624"><ele>527.1</ele></trkpt>
    <trkpt lat="44.375514" lon="5.269507"><ele>527.1</ele></trkpt>
    <trkpt lat="44.375591" lon="5.269417"><ele>527.2</ele></trkpt>
    <trkpt lat="44.375689" lon="5.269353"><ele>528.1</ele></trkpt>
    <trkpt lat="44.375783" lon="5.269315"><ele>529.2</ele></trkpt>
    <trkpt lat="44.375873" lon="5.269323"><ele>529.8</ele></trkpt>
    <trkpt lat="44.375935" lon="5.269357"><ele>529.8</ele></trkpt>
    <trkpt lat="44.375983" lon="5.269410"><ele>530.3</ele></trkpt>
    <trkpt lat="44.376053" lon="5.269555"><ele>532.0</ele></trkpt>
    <trkpt lat="44.376092" lon="5.269660"><ele>533.2</ele></trkpt>
    <trkpt lat="44.376116" lon="5.269761"><ele>534.4</ele></trkpt>
    <trkpt lat="44.376123" lon="5.269886"><ele>535.7</ele></trkpt>
    <trkpt lat="44.376120" lon="5.270014"><ele>537.0</ele></trkpt>
    <trkpt lat="44.376110" lon="5.270111"><ele>537.8</ele></trkpt>
    <trkpt lat="44.376100" lon="5.270172"><ele>538.3</ele></trkpt>
    <trkpt lat="44.376074" lon="5.270242"><ele>539.0</ele></trkpt>
    <trkpt lat="44.376008" lon="5.270346"><ele>539.9</ele></trkpt>
    <trkpt lat="44.375941" lon="5.270425"><ele>540.9</ele></trkpt>
    <trkpt lat="44.375896" lon="5.270480"><ele>541.7</ele></trkpt>
    <trkpt lat="44.375747" lon="5.270689"><ele>543.0</ele></trkpt>
    <trkpt lat="44.375564" lon="5.270992"><ele>545.9</ele></trkpt>
    <trkpt lat="44.375345" lon="5.271301"><ele>548.1</ele></trkpt>
    <trkpt lat="44.375200" lon="5.271521"><ele>548.8</ele></trkpt>
    <trkpt lat="44.375153" lon="5.271618"><ele>548.8</ele></trkpt>
    <trkpt lat="44.375140" lon="5.271691"><ele>549.3</ele></trkpt>
    <trkpt lat="44.375140" lon="5.271735"><ele>549.8</ele></trkpt>
    <trkpt lat="44.375151" lon="5.271776"><ele>550.5</ele></trkpt>
    <trkpt lat="44.375173" lon="5.271797"><ele>551.4</ele></trkpt>
    <trkpt lat="44.375204" lon="5.271798"><ele>552.3</ele></trkpt>
    <trkpt lat="44.375235" lon="5.271788"><ele>553.1</ele></trkpt>
    <trkpt lat="44.375280" lon="5.271739"><ele>553.8</ele></trkpt>
    <trkpt lat="44.375363" lon="5.271643"><ele>553.6</ele></trkpt>
    <trkpt lat="44.375450" lon="5.271598"><ele>554.0</ele></trkpt>
    <trkpt lat="44.375514" lon="5.271595"><ele>554.7</ele></trkpt>
    <trkpt lat="44.375564" lon="5.271603"><ele>555.3</ele></trkpt>
    <trkpt lat="44.375628" lon="5.271655"><ele>555.9</ele></trkpt>
    <trkpt lat="44.375708" lon="5.271764"><ele>557.1</ele></trkpt>
    <trkpt lat="44.375804" lon="5.271933"><ele>558.9</ele></trkpt>
    <trkpt lat="44.375897" lon="5.272079"><ele>560.1</ele></trkpt>
    <trkpt lat="44.375991" lon="5.272185"><ele>561.0</ele></trkpt>
    <trkpt lat="44.376200" lon="5.272338"><ele>563.1</ele></trkpt>
    <trkpt lat="44.376361" lon="5.272456"><ele>565.2</ele></trkpt>
    <trkpt lat="44.376485" lon="5.272563"><ele>566.9</ele></trkpt>
    <trkpt lat="44.376610" lon="5.272706"><ele>569.0</ele></trkpt>
    <trkpt lat="44.376673" lon="5.272746"><ele>569.6</ele></trkpt>
    <trkpt lat="44.376720" lon="5.272744"><ele>570.1</ele></trkpt>
    <trkpt lat="44.376756" lon="5.272736"><ele>570.4</ele></trkpt>
    <trkpt lat="44.376790" lon="5.272717"><ele>570.6</ele></trkpt>
    <trkpt lat="44.376911" lon="5.272584"><ele>570.5</ele></trkpt>
    <trkpt lat="44.377023" lon="5.272440"><ele>570.8</ele></trkpt>
    <trkpt lat="44.377116" lon="5.272298"><ele>570.9</ele></trkpt>
    <trkpt lat="44.377145" lon="5.272255"><ele>571.0</ele></trkpt>
    <trkpt lat="44.377188" lon="5.272223"><ele>571.4</ele></trkpt>
    <trkpt lat="44.377214" lon="5.272214"><ele>571.8</ele></trkpt>
    <trkpt lat="44.377293" lon="5.272217"><ele>572.7</ele></trkpt>
    <trkpt lat="44.377558" lon="5.272269"><ele>576.2</ele></trkpt>
    <trkpt lat="44.377630" lon="5.272286"><ele>577.2</ele></trkpt>
    <trkpt lat="44.377656" lon="5.272302"><ele>577.7</ele></trkpt>
    <trkpt lat="44.377673" lon="5.272327"><ele>578.2</ele></trkpt>
    <trkpt lat="44.377681" lon="5.272356"><ele>578.7</ele></trkpt>
    <trkpt lat="44.377684" lon="5.272382"><ele>579.1</ele></trkpt>
    <trkpt lat="44.377682" lon="5.272423"><ele>579.6</ele></trkpt>
    <trkpt lat="44.377674" lon="5.272457"><ele>579.9</ele></trkpt>
    <trkpt lat="44.377654" lon="5.272503"><ele>580.3</ele></trkpt>
    <trkpt lat="44.377625" lon="5.272546"><ele>580.5</ele></trkpt>
    <trkpt lat="44.377602" lon="5.272578"><ele>580.7</ele></trkpt>
    <trkpt lat="44.377555" lon="5.272640"><ele>580.9</ele></trkpt>
    <trkpt lat="44.377444" lon="5.272878"><ele>582.4</ele></trkpt>
    <trkpt lat="44.377259" lon="5.273281"><ele>584.0</ele></trkpt>
    <trkpt lat="44.377145" lon="5.273534"><ele>585.7</ele></trkpt>
    <trkpt lat="44.377085" lon="5.273639"><ele>586.5</ele></trkpt>
    <trkpt lat="44.377042" lon="5.273699"><ele>587.1</ele></trkpt>
    <trkpt lat="44.377003" lon="5.273729"><ele>587.2</ele></trkpt>
    <trkpt lat="44.376964" lon="5.273755"><ele>587.3</ele></trkpt>
    <trkpt lat="44.376924" lon="5.273770"><ele>587.4</ele></trkpt>
    <trkpt lat="44.376808" lon="5.273811"><ele>587.8</ele></trkpt>
    <trkpt lat="44.376710" lon="5.273874"><ele>588.8</ele></trkpt>
    <trkpt lat="44.376640" lon="5.273951"><ele>589.7</ele></trkpt>
    <trkpt lat="44.376561" lon="5.274068"><ele>590.5</ele></trkpt>
    <trkpt lat="44.376499" lon="5.274230"><ele>591.9</ele></trkpt>
    <trkpt lat="44.376453" lon="5.274370"><ele>592.9</ele></trkpt>
    <trkpt lat="44.376379" lon="5.274608"><ele>594.7</ele></trkpt>
    <trkpt lat="44.376333" lon="5.274790"><ele>596.1</ele></trkpt>
    <trkpt lat="44.376309" lon="5.274971"><ele>597.4</ele></trkpt>
    <trkpt lat="44.376303" lon="5.275108"><ele>598.8</ele></trkpt>
    <trkpt lat="44.376280" lon="5.275206"><ele>599.5</ele></trkpt>
    <trkpt lat="44.376250" lon="5.275274"><ele>599.9</ele></trkpt>
    <trkpt lat="44.376207" lon="5.275340"><ele>600.4</ele></trkpt>
    <trkpt lat="44.376067" lon="5.275508"><ele>601.8</ele></trkpt>
    <trkpt lat="44.375991" lon="5.275604"><ele>602.8</ele></trkpt>
    <trkpt lat="44.375941" lon="5.275752"><ele>604.0</ele></trkpt>
    <trkpt lat="44.375916" lon="5.275915"><ele>605.1</ele></trkpt>
    <trkpt lat="44.375911" lon="5.276062"><ele>606.0</ele></trkpt>
    <trkpt lat="44.375912" lon="5.276146"><ele>606.5</ele></trkpt>
    <trkpt lat="44.375930" lon="5.276267"><ele>606.9</ele></trkpt>
    <trkpt lat="44.375998" lon="5.276467"><ele>608.7</ele></trkpt>
    <trkpt lat="44.376214" lon="5.277068"><ele>611.9</ele></trkpt>
    <trkpt lat="44.376250" lon="5.277150"><ele>612.6</ele></trkpt>
    <trkpt lat="44.376290" lon="5.277194"><ele>613.5</ele></trkpt>
    <trkpt lat="44.376331" lon="5.277210"><ele>614.6</ele></trkpt>
    <trkpt lat="44.376368" lon="5.277196"><ele>615.5</ele></trkpt>
    <trkpt lat="44.376413" lon="5.277154"><ele>616.6</ele></trkpt>
    <trkpt lat="44.376470" lon="5.276983"><ele>618.3</ele></trkpt>
    <trkpt lat="44.376581" lon="5.276675"><ele>620.2</ele></trkpt>
    <trkpt lat="44.376717" lon="5.276369"><ele>621.9</ele></trkpt>
    <trkpt lat="44.376784" lon="5.276274"><ele>622.3</ele></trkpt>
    <trkpt lat="44.376865" lon="5.276205"><ele>623.3</ele></trkpt>
    <trkpt lat="44.376915" lon="5.276171"><ele>624.0</ele></trkpt>
    <trkpt lat="44.377004" lon="5.276135"><ele>625.3</ele></trkpt>
    <trkpt lat="44.377334" lon="5.276037"><ele>629.4</ele></trkpt>
    <trkpt lat="44.377685" lon="5.275942"><ele>632.4</ele></trkpt>
    <trkpt lat="44.377334" lon="5.276037"><ele>629.4</ele></trkpt>
    <trkpt lat="44.377004" lon="5.276135"><ele>625.3</ele></trkpt>
    <trkpt lat="44.376915" lon="5.276171"><ele>624.0</ele></trkpt>
    <trkpt lat="44.376865" lon="5.276205"><ele>623.3</ele></trkpt>
    <trkpt lat="44.376784" lon="5.276274"><ele>622.3</ele></trkpt>
    <trkpt lat="44.376717" lon="5.276369"><ele>621.9</ele></trkpt>
    <trkpt lat="44.376581" lon="5.276675"><ele>620.2</ele></trkpt>
    <trkpt lat="44.376470" lon="5.276983"><ele>618.3</ele></trkpt>
    <trkpt lat="44.376413" lon="5.277154"><ele>616.6</ele></trkpt>
    <trkpt lat="44.376368" lon="5.277196"><ele>615.5</ele></trkpt>
    <trkpt lat="44.376331" lon="5.277210"><ele>614.6</ele></trkpt>
    <trkpt lat="44.376290" lon="5.277194"><ele>613.5</ele></trkpt>
    <trkpt lat="44.376250" lon="5.277150"><ele>612.6</ele></trkpt>
    <trkpt lat="44.376214" lon="5.277068"><ele>611.9</ele></trkpt>
    <trkpt lat="44.375998" lon="5.276467"><ele>608.7</ele></trkpt>
    <trkpt lat="44.375930" lon="5.276267"><ele>606.9</ele></trkpt>
    <trkpt lat="44.375912" lon="5.276146"><ele>606.5</ele></trkpt>
    <trkpt lat="44.375911" lon="5.276062"><ele>606.0</ele></trkpt>
    <trkpt lat="44.375916" lon="5.275915"><ele>605.1</ele></trkpt>
    <trkpt lat="44.375941" lon="5.275752"><ele>604.0</ele></trkpt>
    <trkpt lat="44.375991" lon="5.275604"><ele>602.8</ele></trkpt>
    <trkpt lat="44.376067" lon="5.275508"><ele>601.8</ele></trkpt>
    <trkpt lat="44.376207" lon="5.275340"><ele>600.4</ele></trkpt>
    <trkpt lat="44.376250" lon="5.275274"><ele>599.9</ele></trkpt>
    <trkpt lat="44.376280" lon="5.275206"><ele>599.5</ele></trkpt>
    <trkpt lat="44.376303" lon="5.275108"><ele>598.8</ele></trkpt>
    <trkpt lat="44.376309" lon="5.274971"><ele>597.4</ele></trkpt>
    <trkpt lat="44.376333" lon="5.274790"><ele>596.1</ele></trkpt>
    <trkpt lat="44.376379" lon="5.274608"><ele>594.7</ele></trkpt>
    <trkpt lat="44.376453" lon="5.274370"><ele>592.9</ele></trkpt>
    <trkpt lat="44.376499" lon="5.274230"><ele>591.9</ele></trkpt>
    <trkpt lat="44.376561" lon="5.274068"><ele>590.5</ele></trkpt>
    <trkpt lat="44.376640" lon="5.273951"><ele>589.7</ele></trkpt>
    <trkpt lat="44.376710" lon="5.273874"><ele>588.8</ele></trkpt>
    <trkpt lat="44.376808" lon="5.273811"><ele>587.8</ele></trkpt>
    <trkpt lat="44.376924" lon="5.273770"><ele>587.4</ele></trkpt>
    <trkpt lat="44.376964" lon="5.273755"><ele>587.3</ele></trkpt>
    <trkpt lat="44.377003" lon="5.273729"><ele>587.2</ele></trkpt>
    <trkpt lat="44.377042" lon="5.273699"><ele>587.1</ele></trkpt>
    <trkpt lat="44.377085" lon="5.273639"><ele>586.5</ele></trkpt>
    <trkpt lat="44.377145" lon="5.273534"><ele>585.7</ele></trkpt>
    <trkpt lat="44.377259" lon="5.273281"><ele>584.0</ele></trkpt>
    <trkpt lat="44.377444" lon="5.272878"><ele>582.4</ele></trkpt>
    <trkpt lat="44.377555" lon="5.272640"><ele>580.9</ele></trkpt>
    <trkpt lat="44.377602" lon="5.272578"><ele>580.7</ele></trkpt>
    <trkpt lat="44.377625" lon="5.272546"><ele>580.5</ele></trkpt>
    <trkpt lat="44.377654" lon="5.272503"><ele>580.3</ele></trkpt>
    <trkpt lat="44.377674" lon="5.272457"><ele>579.9</ele></trkpt>
    <trkpt lat="44.377682" lon="5.272423"><ele>579.6</ele></trkpt>
    <trkpt lat="44.377684" lon="5.272382"><ele>579.1</ele></trkpt>
    <trkpt lat="44.377681" lon="5.272356"><ele>578.7</ele></trkpt>
    <trkpt lat="44.377673" lon="5.272327"><ele>578.2</ele></trkpt>
    <trkpt lat="44.377656" lon="5.272302"><ele>577.7</ele></trkpt>
    <trkpt lat="44.377630" lon="5.272286"><ele>577.2</ele></trkpt>
    <trkpt lat="44.377558" lon="5.272269"><ele>576.2</ele></trkpt>
    <trkpt lat="44.377293" lon="5.272217"><ele>572.7</ele></trkpt>
    <trkpt lat="44.377214" lon="5.272214"><ele>571.8</ele></trkpt>
    <trkpt lat="44.377188" lon="5.272223"><ele>571.4</ele></trkpt>
    <trkpt lat="44.377145" lon="5.272255"><ele>571.0</ele></trkpt>
    <trkpt lat="44.377116" lon="5.272298"><ele>570.9</ele></trkpt>
    <trkpt lat="44.377023" lon="5.272440"><ele>570.8</ele></trkpt>
    <trkpt lat="44.376911" lon="5.272584"><ele>570.5</ele></trkpt>
    <trkpt lat="44.376790" lon="5.272717"><ele>570.6</ele></trkpt>
    <trkpt lat="44.376756" lon="5.272736"><ele>570.4</ele></trkpt>
    <trkpt lat="44.376720" lon="5.272744"><ele>570.1</ele></trkpt>
    <trkpt lat="44.376673" lon="5.272746"><ele>569.6</ele></trkpt>
    <trkpt lat="44.376610" lon="5.272706"><ele>569.0</ele></trkpt>
    <trkpt lat="44.376485" lon="5.272563"><ele>566.9</ele></trkpt>
    <trkpt lat="44.376361" lon="5.272456"><ele>565.2</ele></trkpt>
    <trkpt lat="44.376200" lon="5.272338"><ele>563.1</ele></trkpt>
    <trkpt lat="44.375991" lon="5.272185"><ele>561.0</ele></trkpt>
    <trkpt lat="44.375897" lon="5.272079"><ele>560.1</ele></trkpt>
    <trkpt lat="44.375804" lon="5.271933"><ele>558.9</ele></trkpt>
    <trkpt lat="44.375708" lon="5.271764"><ele>557.1</ele></trkpt>
    <trkpt lat="44.375628" lon="5.271655"><ele>555.9</ele></trkpt>
    <trkpt lat="44.375564" lon="5.271603"><ele>555.3</ele></trkpt>
    <trkpt lat="44.375514" lon="5.271595"><ele>554.7</ele></trkpt>
    <trkpt lat="44.375450" lon="5.271598"><ele>554.0</ele></trkpt>
    <trkpt lat="44.375363" lon="5.271643"><ele>553.6</ele></trkpt>
    <trkpt lat="44.375280" lon="5.271739"><ele>553.8</ele></trkpt>
    <trkpt lat="44.375235" lon="5.271788"><ele>553.1</ele></trkpt>
    <trkpt lat="44.375204" lon="5.271798"><ele>552.3</ele></trkpt>
    <trkpt lat="44.375173" lon="5.271797"><ele>551.4</ele></trkpt>
    <trkpt lat="44.375151" lon="5.271776"><ele>550.5</ele></trkpt>
    <trkpt lat="44.375140" lon="5.271735"><ele>549.8</ele></trkpt>
    <trkpt lat="44.375140" lon="5.271691"><ele>549.3</ele></trkpt>
    <trkpt lat="44.375153" lon="5.271618"><ele>548.8</ele></trkpt>
    <trkpt lat="44.375200" lon="5.271521"><ele>548.8</ele></trkpt>
    <trkpt lat="44.375345" lon="5.271301"><ele>548.1</ele></trkpt>
    <trkpt lat="44.375564" lon="5.270992"><ele>545.9</ele></trkpt>
    <trkpt lat="44.375747" lon="5.270689"><ele>543.0</ele></trkpt>
    <trkpt lat="44.375896" lon="5.270480"><ele>541.7</ele></trkpt>
    <trkpt lat="44.375941" lon="5.270425"><ele>540.9</ele></trkpt>
    <trkpt lat="44.376008" lon="5.270346"><ele>539.9</ele></trkpt>
    <trkpt lat="44.376074" lon="5.270242"><ele>539.0</ele></trkpt>
    <trkpt lat="44.376100" lon="5.270172"><ele>538.3</ele></trkpt>
    <trkpt lat="44.376110" lon="5.270111"><ele>537.8</ele></trkpt>
    <trkpt lat="44.376120" lon="5.270014"><ele>537.0</ele></trkpt>
    <trkpt lat="44.376123" lon="5.269886"><ele>535.7</ele></trkpt>
    <trkpt lat="44.376116" lon="5.269761"><ele>534.4</ele></trkpt>
    <trkpt lat="44.376092" lon="5.269660"><ele>533.2</ele></trkpt>
    <trkpt lat="44.376053" lon="5.269555"><ele>532.0</ele></trkpt>
    <trkpt lat="44.375983" lon="5.269410"><ele>530.3</ele></trkpt>
    <trkpt lat="44.375935" lon="5.269357"><ele>529.8</ele></trkpt>
    <trkpt lat="44.375873" lon="5.269323"><ele>529.8</ele></trkpt>
    <trkpt lat="44.375783" lon="5.269315"><ele>529.2</ele></trkpt>
    <trkpt lat="44.375689" lon="5.269353"><ele>528.1</ele></trkpt>
    <trkpt lat="44.375591" lon="5.269417"><ele>527.2</ele></trkpt>
    <trkpt lat="44.375514" lon="5.269507"><ele>527.1</ele></trkpt>
    <trkpt lat="44.375455" lon="5.269624"><ele>527.1</ele></trkpt>
    <trkpt lat="44.375382" lon="5.269823"><ele>526.4</ele></trkpt>
    <trkpt lat="44.375283" lon="5.270057"><ele>524.6</ele></trkpt>
    <trkpt lat="44.375171" lon="5.270243"><ele>523.1</ele></trkpt>
    <trkpt lat="44.375083" lon="5.270352"><ele>522.5</ele></trkpt>
    <trkpt lat="44.375029" lon="5.270395"><ele>522.2</ele></trkpt>
    <trkpt lat="44.374953" lon="5.270427"><ele>521.2</ele></trkpt>
    <trkpt lat="44.374811" lon="5.270463"><ele>518.7</ele></trkpt>
    <trkpt lat="44.374713" lon="5.270498"><ele>517.0</ele></trkpt>
    <trkpt lat="44.374625" lon="5.270563"><ele>516.0</ele></trkpt>
    <trkpt lat="44.374559" lon="5.270626"><ele>515.7</ele></trkpt>
    <trkpt lat="44.374431" lon="5.270742"><ele>514.4</ele></trkpt>
    <trkpt lat="44.374058" lon="5.271027"><ele>510.3</ele></trkpt>
    <trkpt lat="44.373964" lon="5.271097"><ele>509.9</ele></trkpt>
    <trkpt lat="44.373850" lon="5.271160"><ele>509.0</ele></trkpt>
    <trkpt lat="44.373811" lon="5.271174"><ele>508.4</ele></trkpt>
    <trkpt lat="44.373734" lon="5.271176"><ele>507.0</ele></trkpt>
    <trkpt lat="44.373648" lon="5.271197"><ele>505.6</ele></trkpt>
    <trkpt lat="44.373588" lon="5.271253"><ele>504.8</ele></trkpt>
    <trkpt lat="44.373535" lon="5.271333"><ele>503.8</ele></trkpt>
    <trkpt lat="44.373497" lon="5.271408"><ele>502.9</ele></trkpt>
    <trkpt lat="44.373484" lon="5.271532"><ele>502.4</ele></trkpt>
    <trkpt lat="44.373492" lon="5.271617"><ele>502.7</ele></trkpt>
    <trkpt lat="44.373579" lon="5.271862"><ele>504.5</ele></trkpt>
    <trkpt lat="44.373609" lon="5.271935"><ele>505.0</ele></trkpt>
    <trkpt lat="44.373621" lon="5.272044"><ele>505.3</ele></trkpt>
    <trkpt lat="44.373576" lon="5.272130"><ele>503.9</ele></trkpt>
    <trkpt lat="44.373505" lon="5.272205"><ele>501.9</ele></trkpt>
    <trkpt lat="44.373418" lon="5.272285"><ele>500.4</ele></trkpt>
    <trkpt lat="44.373307" lon="5.272367"><ele>499.1</ele></trkpt>
    <trkpt lat="44.373117" lon="5.272462"><ele>497.3</ele></trkpt>
    <trkpt lat="44.372856" lon="5.272603"><ele>495.4</ele></trkpt>
    <trkpt lat="44.372717" lon="5.272692"><ele>494.1</ele></trkpt>
    <trkpt lat="44.372641" lon="5.272755"><ele>493.2</ele></trkpt>
    <trkpt lat="44.372611" lon="5.272780"><ele>492.8</ele></trkpt>
    <trkpt lat="44.372552" lon="5.272901"><ele>492.4</ele></trkpt>
    <trkpt lat="44.372479" lon="5.273137"><ele>491.8</ele></trkpt>
    <trkpt lat="44.372441" lon="5.273313"><ele>491.5</ele></trkpt>
    <trkpt lat="44.372431" lon="5.273374"><ele>491.3</ele></trkpt>
    <trkpt lat="44.372425" lon="5.273441"><ele>491.1</ele></trkpt>
    <trkpt lat="44.372433" lon="5.273535"><ele>491.5</ele></trkpt>
    <trkpt lat="44.372435" lon="5.273603"><ele>491.7</ele></trkpt>
    <trkpt lat="44.372434" lon="5.273660"><ele>491.7</ele></trkpt>
    <trkpt lat="44.372421" lon="5.273709"><ele>491.5</ele></trkpt>
    <trkpt lat="44.372407" lon="5.273738"><ele>491.1</ele></trkpt>
    <trkpt lat="44.372331" lon="5.273809"><ele>489.2</ele></trkpt>
    <trkpt lat="44.372227" lon="5.273881"><ele>487.0</ele></trkpt>
    <trkpt lat="44.372159" lon="5.273906"><ele>486.1</ele></trkpt>
    <trkpt lat="44.371957" lon="5.274021"><ele>483.7</ele></trkpt>
    <trkpt lat="44.371897" lon="5.274059"><ele>482.4</ele></trkpt>
    <trkpt lat="44.371854" lon="5.274086"><ele>481.4</ele></trkpt>
    <trkpt lat="44.371775" lon="5.274203"><ele>479.9</ele></trkpt>
    <trkpt lat="44.371738" lon="5.274315"><ele>479.9</ele></trkpt>
    <trkpt lat="44.371691" lon="5.274500"><ele>480.8</ele></trkpt>
    <trkpt lat="44.371665" lon="5.274607"><ele>481.9</ele></trkpt>
    <trkpt lat="44.371624" lon="5.274718"><ele>482.5</ele></trkpt>
    <trkpt lat="44.371587" lon="5.274787"><ele>482.2</ele></trkpt>
    <trkpt lat="44.371541" lon="5.274834"><ele>481.3</ele></trkpt>
    <trkpt lat="44.371483" lon="5.274850"><ele>479.7</ele></trkpt>
    <trkpt lat="44.371439" lon="5.274835"><ele>478.2</ele></trkpt>
    <trkpt lat="44.371388" lon="5.274806"><ele>476.2</ele></trkpt>
    <trkpt lat="44.371314" lon="5.274763"><ele>478.5</ele></trkpt>
    <trkpt lat="44.371271" lon="5.274700"><ele>480.0</ele></trkpt>
    <trkpt lat="44.371251" lon="5.274629"><ele>480.4</ele></trkpt>
    <trkpt lat="44.371167" lon="5.274395"><ele>483.1</ele></trkpt>
    <trkpt lat="44.371033" lon="5.274092"><ele>485.9</ele></trkpt>
    <trkpt lat="44.370948" lon="5.273867"><ele>488.9</ele></trkpt>
    <trkpt lat="44.370924" lon="5.273687"><ele>489.7</ele></trkpt>
    <trkpt lat="44.370929" lon="5.273507"><ele>490.3</ele></trkpt>
    <trkpt lat="44.371039" lon="5.273221"><ele>484.9</ele></trkpt>
    <trkpt lat="44.371064" lon="5.273117"><ele>485.5</ele></trkpt>
    <trkpt lat="44.371086" lon="5.272949"><ele>486.8</ele></trkpt>
    <trkpt lat="44.371081" lon="5.272772"><ele>489.4</ele></trkpt>
    <trkpt lat="44.371056" lon="5.272587"><ele>489.9</ele></trkpt>
    <trkpt lat="44.371017" lon="5.272465"><ele>491.2</ele></trkpt>
    <trkpt lat="44.370838" lon="5.272143"><ele>495.0</ele></trkpt>
    <trkpt lat="44.370704" lon="5.271820"><ele>497.4</ele></trkpt>
    <trkpt lat="44.370591" lon="5.271539"><ele>499.6</ele></trkpt>
    <trkpt lat="44.370471" lon="5.271276"><ele>502.6</ele></trkpt>
    <trkpt lat="44.370369" lon="5.271088"><ele>505.9</ele></trkpt>
    <trkpt lat="44.370327" lon="5.270931"><ele>507.4</ele></trkpt>
    <trkpt lat="44.370322" lon="5.270801"><ele>507.1</ele></trkpt>
    <trkpt lat="44.370333" lon="5.270647"><ele>506.8</ele></trkpt>
    <trkpt lat="44.370335" lon="5.270180"><ele>507.0</ele></trkpt>
    <trkpt lat="44.370310" lon="5.269551"><ele>510.4</ele></trkpt>
    <trkpt lat="44.370303" lon="5.269175"><ele>512.4</ele></trkpt>
    <trkpt lat="44.370279" lon="5.269050"><ele>513.0</ele></trkpt>
    <trkpt lat="44.370222" lon="5.269202"><ele>511.8</ele></trkpt>
    <trkpt lat="44.370154" lon="5.269502"><ele>511.3</ele></trkpt>
    <trkpt lat="44.370129" lon="5.269618"><ele>511.6</ele></trkpt>
    <trkpt lat="44.370112" lon="5.269698"><ele>512.1</ele></trkpt>
    <trkpt lat="44.370073" lon="5.269821"><ele>513.2</ele></trkpt>
    <trkpt lat="44.370020" lon="5.269940"><ele>515.0</ele></trkpt>
    <trkpt lat="44.370013" lon="5.269955"><ele>515.3</ele></trkpt>
    <trkpt lat="44.369716" lon="5.270542"><ele>522.7</ele></trkpt>
    <trkpt lat="44.369678" lon="5.270594"><ele>522.8</ele></trkpt>
    <trkpt lat="44.369588" lon="5.270682"><ele>522.7</ele></trkpt>
    <trkpt lat="44.369358" lon="5.270822"><ele>522.6</ele></trkpt>
    <trkpt lat="44.369015" lon="5.271016"><ele>525.2</ele></trkpt>
    <trkpt lat="44.368835" lon="5.271078"><ele>526.7</ele></trkpt>
    <trkpt lat="44.368717" lon="5.271099"><ele>527.4</ele></trkpt>
    <trkpt lat="44.368627" lon="5.271092"><ele>527.6</ele></trkpt>
    <trkpt lat="44.368429" lon="5.271066"><ele>529.0</ele></trkpt>
    <trkpt lat="44.368114" lon="5.270999"><ele>532.1</ele></trkpt>
    <trkpt lat="44.368046" lon="5.270974"><ele>532.7</ele></trkpt>
    <trkpt lat="44.367855" lon="5.270903"><ele>535.0</ele></trkpt>
    <trkpt lat="44.367781" lon="5.270874"><ele>535.8</ele></trkpt>
    <trkpt lat="44.367653" lon="5.270825"><ele>537.1</ele></trkpt>
    <trkpt lat="44.367379" lon="5.270771"><ele>541.4</ele></trkpt>
    <trkpt lat="44.367136" lon="5.270676"><ele>545.1</ele></trkpt>
    <trkpt lat="44.367031" lon="5.270608"><ele>546.6</ele></trkpt>
    <trkpt lat="44.366975" lon="5.270519"><ele>546.1</ele></trkpt>
    <trkpt lat="44.366885" lon="5.270365"><ele>545.6</ele></trkpt>
    <trkpt lat="44.366810" lon="5.270155"><ele>544.4</ele></trkpt>
    <trkpt lat="44.366705" lon="5.269878"><ele>544.9</ele></trkpt>
    <trkpt lat="44.366652" lon="5.269777"><ele>545.2</ele></trkpt>
    <trkpt lat="44.366569" lon="5.269702"><ele>545.2</ele></trkpt>
    <trkpt lat="44.366441" lon="5.269619"><ele>545.4</ele></trkpt>
    <trkpt lat="44.366331" lon="5.269577"><ele>545.3</ele></trkpt>
    <trkpt lat="44.366243" lon="5.269586"><ele>545.6</ele></trkpt>
    <trkpt lat="44.366091" lon="5.269622"><ele>546.2</ele></trkpt>
    <trkpt lat="44.365991" lon="5.269686"><ele>546.7</ele></trkpt>
    <trkpt lat="44.365797" lon="5.269840"><ele>548.0</ele></trkpt>
    <trkpt lat="44.365612" lon="5.269990"><ele>550.1</ele></trkpt>
    <trkpt lat="44.365486" lon="5.270066"><ele>551.2</ele></trkpt>
    <trkpt lat="44.365386" lon="5.270091"><ele>551.0</ele></trkpt>
    <trkpt lat="44.365266" lon="5.270104"><ele>550.2</ele></trkpt>
    <trkpt lat="44.365142" lon="5.270112"><ele>549.2</ele></trkpt>
    <trkpt lat="44.364947" lon="5.270178"><ele>548.6</ele></trkpt>
    <trkpt lat="44.364892" lon="5.270245"><ele>549.6</ele></trkpt>
    <trkpt lat="44.364829" lon="5.270388"><ele>551.8</ele></trkpt>
    <trkpt lat="44.364704" lon="5.270607"><ele>553.9</ele></trkpt>
    <trkpt lat="44.364561" lon="5.270811"><ele>555.5</ele></trkpt>
    <trkpt lat="44.364414" lon="5.271006"><ele>557.4</ele></trkpt>
    <trkpt lat="44.364204" lon="5.271259"><ele>559.6</ele></trkpt>
    <trkpt lat="44.363976" lon="5.271557"><ele>561.1</ele></trkpt>
    <trkpt lat="44.363791" lon="5.271806"><ele>562.5</ele></trkpt>
    <trkpt lat="44.363685" lon="5.271914"><ele>560.8</ele></trkpt>
    <trkpt lat="44.363666" lon="5.271973"><ele>560.7</ele></trkpt>
    <trkpt lat="44.363629" lon="5.272140"><ele>560.2</ele></trkpt>
    <trkpt lat="44.363639" lon="5.272257"><ele>560.6</ele></trkpt>
    <trkpt lat="44.363663" lon="5.272378"><ele>559.7</ele></trkpt>
    <trkpt lat="44.363697" lon="5.272485"><ele>559.3</ele></trkpt>
    <trkpt lat="44.363748" lon="5.272594"><ele>559.1</ele></trkpt>
    <trkpt lat="44.363881" lon="5.273002"><ele>558.2</ele></trkpt>
    <trkpt lat="44.363876" lon="5.273235"><ele>555.4</ele></trkpt>
    <trkpt lat="44.363875" lon="5.273290"><ele>554.8</ele></trkpt>
    <trkpt lat="44.363877" lon="5.273452"><ele>554.0</ele></trkpt>
    <trkpt lat="44.363929" lon="5.273950"><ele>552.6</ele></trkpt>
    <trkpt lat="44.363948" lon="5.274126"><ele>550.7</ele></trkpt>
    <trkpt lat="44.363999" lon="5.274320"><ele>549.5</ele></trkpt>
    <trkpt lat="44.364065" lon="5.274472"><ele>549.0</ele></trkpt>
    <trkpt lat="44.364178" lon="5.274633"><ele>547.8</ele></trkpt>
    <trkpt lat="44.364339" lon="5.274848"><ele>545.7</ele></trkpt>
    <trkpt lat="44.364501" lon="5.275043"><ele>544.2</ele></trkpt>
    <trkpt lat="44.364584" lon="5.275141"><ele>544.0</ele></trkpt>
    <trkpt lat="44.364685" lon="5.275318"><ele>543.3</ele></trkpt>
    <trkpt lat="44.364827" lon="5.275608"><ele>543.2</ele></trkpt>
    <trkpt lat="44.364856" lon="5.275712"><ele>543.2</ele></trkpt>
    <trkpt lat="44.364870" lon="5.275846"><ele>542.8</ele></trkpt>
    <trkpt lat="44.364877" lon="5.276011"><ele>542.7</ele></trkpt>
    <trkpt lat="44.364833" lon="5.276419"><ele>541.8</ele></trkpt>
    <trkpt lat="44.364799" lon="5.276677"><ele>542.3</ele></trkpt>
    <trkpt lat="44.364764" lon="5.276826"><ele>542.8</ele></trkpt>
    <trkpt lat="44.364678" lon="5.276967"><ele>542.1</ele></trkpt>
    <trkpt lat="44.364602" lon="5.277027"><ele>540.9</ele></trkpt>
    <trkpt lat="44.364536" lon="5.277051"><ele>539.4</ele></trkpt>
    <trkpt lat="44.364470" lon="5.277076"><ele>538.1</ele></trkpt>
    <trkpt lat="44.364421" lon="5.277109"><ele>537.2</ele></trkpt>
    <trkpt lat="44.364339" lon="5.277202"><ele>536.5</ele></trkpt>
    <trkpt lat="44.364198" lon="5.277476"><ele>536.6</ele></trkpt>
    <trkpt lat="44.364127" lon="5.277703"><ele>535.4</ele></trkpt>
    <trkpt lat="44.364101" lon="5.277788"><ele>534.9</ele></trkpt>
    <trkpt lat="44.364101" lon="5.277932"><ele>534.6</ele></trkpt>
    <trkpt lat="44.364125" lon="5.278145"><ele>534.6</ele></trkpt>
    <trkpt lat="44.364160" lon="5.278404"><ele>534.4</ele></trkpt>
    <trkpt lat="44.364177" lon="5.278691"><ele>534.2</ele></trkpt>
    <trkpt lat="44.364174" lon="5.278940"><ele>534.1</ele></trkpt>
    <trkpt lat="44.364161" lon="5.279043"><ele>535.0</ele></trkpt>
    <trkpt lat="44.364128" lon="5.279162"><ele>535.3</ele></trkpt>
    <trkpt lat="44.364017" lon="5.279341"><ele>535.3</ele></trkpt>
    <trkpt lat="44.363757" lon="5.279814"><ele>536.4</ele></trkpt>
    <trkpt lat="44.363736" lon="5.279925"><ele>537.0</ele></trkpt>
    <trkpt lat="44.363735" lon="5.280279"><ele>538.3</ele></trkpt>
    <trkpt lat="44.363749" lon="5.280549"><ele>536.5</ele></trkpt>
    <trkpt lat="44.363778" lon="5.280668"><ele>536.0</ele></trkpt>
    <trkpt lat="44.363829" lon="5.280753"><ele>536.8</ele></trkpt>
    <trkpt lat="44.363952" lon="5.280865"><ele>540.4</ele></trkpt>
    <trkpt lat="44.363993" lon="5.280949"><ele>541.4</ele></trkpt>
    <trkpt lat="44.364003" lon="5.281035"><ele>541.0</ele></trkpt>
    <trkpt lat="44.363981" lon="5.281406"><ele>538.6</ele></trkpt>
    <trkpt lat="44.363959" lon="5.281506"><ele>537.7</ele></trkpt>
    <trkpt lat="44.363889" lon="5.281637"><ele>535.0</ele></trkpt>
    <trkpt lat="44.363842" lon="5.281754"><ele>533.6</ele></trkpt>
    <trkpt lat="44.363837" lon="5.281829"><ele>533.5</ele></trkpt>
    <trkpt lat="44.363854" lon="5.281934"><ele>534.1</ele></trkpt>
    <trkpt lat="44.363907" lon="5.282078"><ele>534.9</ele></trkpt>
    <trkpt lat="44.363967" lon="5.282181"><ele>535.7</ele></trkpt>
    <trkpt lat="44.364056" lon="5.282281"><ele>535.9</ele></trkpt>
    <trkpt lat="44.364186" lon="5.282388"><ele>535.7</ele></trkpt>
    <trkpt lat="44.364273" lon="5.282418"><ele>536.0</ele></trkpt>
    <trkpt lat="44.364342" lon="5.282423"><ele>536.7</ele></trkpt>
    <trkpt lat="44.364423" lon="5.282418"><ele>537.8</ele></trkpt>
    <trkpt lat="44.364491" lon="5.282418"><ele>538.9</ele></trkpt>
    <trkpt lat="44.364552" lon="5.282439"><ele>539.4</ele></trkpt>
    <trkpt lat="44.364608" lon="5.282479"><ele>539.4</ele></trkpt>
    <trkpt lat="44.364734" lon="5.282641"><ele>539.2</ele></trkpt>
    <trkpt lat="44.364873" lon="5.282844"><ele>538.9</ele></trkpt>
    <trkpt lat="44.365014" lon="5.283088"><ele>537.7</ele></trkpt>
    <trkpt lat="44.365093" lon="5.283195"><ele>537.2</ele></trkpt>
    <trkpt lat="44.365142" lon="5.283217"><ele>537.4</ele></trkpt>
    <trkpt lat="44.365364" lon="5.283312"><ele>538.9</ele></trkpt>
    <trkpt lat="44.365462" lon="5.283436"><ele>538.1</ele></trkpt>
    <trkpt lat="44.365523" lon="5.283469"><ele>538.5</ele></trkpt>
    <trkpt lat="44.365602" lon="5.283500"><ele>539.1</ele></trkpt>
    <trkpt lat="44.365657" lon="5.283517"><ele>539.6</ele></trkpt>
    <trkpt lat="44.365698" lon="5.283542"><ele>539.7</ele></trkpt>
    <trkpt lat="44.365739" lon="5.283604"><ele>538.8</ele></trkpt>
    <trkpt lat="44.365849" lon="5.283800"><ele>537.3</ele></trkpt>
    <trkpt lat="44.365911" lon="5.283874"><ele>536.2</ele></trkpt>
    <trkpt lat="44.365958" lon="5.283884"><ele>536.1</ele></trkpt>
    <trkpt lat="44.366000" lon="5.283886"><ele>536.1</ele></trkpt>
    <trkpt lat="44.366047" lon="5.283855"><ele>536.7</ele></trkpt>
    <trkpt lat="44.366120" lon="5.283769"><ele>538.7</ele></trkpt>
    <trkpt lat="44.366167" lon="5.283742"><ele>539.8</ele></trkpt>
    <trkpt lat="44.366220" lon="5.283776"><ele>540.0</ele></trkpt>
    <trkpt lat="44.366247" lon="5.283823"><ele>539.8</ele></trkpt>
    <trkpt lat="44.366370" lon="5.284251"><ele>540.4</ele></trkpt>
    <trkpt lat="44.366393" lon="5.284403"><ele>541.1</ele></trkpt>
    <trkpt lat="44.366378" lon="5.284520"><ele>541.0</ele></trkpt>
    <trkpt lat="44.366351" lon="5.284591"><ele>540.6</ele></trkpt>
    <trkpt lat="44.366305" lon="5.284680"><ele>540.2</ele></trkpt>
    <trkpt lat="44.366180" lon="5.284857"><ele>540.7</ele></trkpt>
    <trkpt lat="44.366099" lon="5.284995"><ele>541.6</ele></trkpt>
    <trkpt lat="44.366027" lon="5.285179"><ele>542.6</ele></trkpt>
    <trkpt lat="44.365985" lon="5.285337"><ele>543.4</ele></trkpt>
    <trkpt lat="44.365946" lon="5.285635"><ele>545.1</ele></trkpt>
    <trkpt lat="44.365899" lon="5.285977"><ele>547.7</ele></trkpt>
    <trkpt lat="44.365840" lon="5.286202"><ele>549.1</ele></trkpt>
    <trkpt lat="44.365788" lon="5.286492"><ele>551.9</ele></trkpt>
    <trkpt lat="44.365754" lon="5.286780"><ele>553.2</ele></trkpt>
    <trkpt lat="44.365771" lon="5.286897"><ele>553.6</ele></trkpt>
    <trkpt lat="44.365800" lon="5.286975"><ele>554.2</ele></trkpt>
    <trkpt lat="44.365864" lon="5.287127"><ele>555.1</ele></trkpt>
    <trkpt lat="44.365883" lon="5.287246"><ele>555.3</ele></trkpt>
    <trkpt lat="44.365886" lon="5.287502"><ele>556.3</ele></trkpt>
    <trkpt lat="44.365900" lon="5.287596"><ele>556.0</ele></trkpt>
    <trkpt lat="44.365941" lon="5.287681"><ele>556.4</ele></trkpt>
    <trkpt lat="44.366034" lon="5.287802"><ele>558.0</ele></trkpt>
    <trkpt lat="44.366166" lon="5.287925"><ele>560.9</ele></trkpt>
    <trkpt lat="44.366180" lon="5.288000"><ele>560.9</ele></trkpt>
    <trkpt lat="44.366167" lon="5.288069"><ele>560.1</ele></trkpt>
    <trkpt lat="44.366120" lon="5.288126"><ele>559.3</ele></trkpt>
    <trkpt lat="44.366079" lon="5.288155"><ele>559.3</ele></trkpt>
    <trkpt lat="44.365873" lon="5.288236"><ele>561.4</ele></trkpt>
    <trkpt lat="44.365684" lon="5.288262"><ele>563.8</ele></trkpt>
    <trkpt lat="44.365522" lon="5.288272"><ele>565.3</ele></trkpt>
    <trkpt lat="44.365373" lon="5.288263"><ele>564.5</ele></trkpt>
    <trkpt lat="44.365217" lon="5.288246"><ele>563.2</ele></trkpt>
    <trkpt lat="44.365137" lon="5.288260"><ele>563.2</ele></trkpt>
    <trkpt lat="44.365025" lon="5.288324"><ele>564.8</ele></trkpt>
    <trkpt lat="44.364694" lon="5.288659"><ele>564.9</ele></trkpt>
    <trkpt lat="44.364595" lon="5.288762"><ele>563.9</ele></trkpt>
    <trkpt lat="44.364564" lon="5.288809"><ele>563.7</ele></trkpt>
    <trkpt lat="44.364555" lon="5.288860"><ele>564.1</ele></trkpt>
    <trkpt lat="44.364555" lon="5.288971"><ele>565.5</ele></trkpt>
    <trkpt lat="44.364533" lon="5.289114"><ele>566.9</ele></trkpt>
    <trkpt lat="44.364512" lon="5.289210"><ele>567.8</ele></trkpt>
    <trkpt lat="44.364478" lon="5.289275"><ele>568.2</ele></trkpt>
    <trkpt lat="44.364436" lon="5.289333"><ele>568.3</ele></trkpt>
    <trkpt lat="44.364140" lon="5.289489"><ele>568.0</ele></trkpt>
    <trkpt lat="44.364083" lon="5.289492"><ele>568.0</ele></trkpt>
    <trkpt lat="44.363785" lon="5.289407"><ele>566.2</ele></trkpt>
    <trkpt lat="44.363669" lon="5.289366"><ele>565.5</ele></trkpt>
    <trkpt lat="44.363489" lon="5.289222"><ele>562.2</ele></trkpt>
    <trkpt lat="44.363386" lon="5.289152"><ele>561.1</ele></trkpt>
    <trkpt lat="44.363360" lon="5.289146"><ele>560.9</ele></trkpt>
    <trkpt lat="44.363300" lon="5.289132"><ele>560.0</ele></trkpt>
    <trkpt lat="44.363259" lon="5.289166"><ele>559.4</ele></trkpt>
    <trkpt lat="44.363224" lon="5.289233"><ele>558.7</ele></trkpt>
    <trkpt lat="44.363218" lon="5.289334"><ele>558.6</ele></trkpt>
    <trkpt lat="44.363230" lon="5.289566"><ele>559.0</ele></trkpt>
    <trkpt lat="44.363242" lon="5.289670"><ele>559.4</ele></trkpt>
    <trkpt lat="44.363261" lon="5.289796"><ele>559.7</ele></trkpt>
    <trkpt lat="44.363332" lon="5.289958"><ele>561.1</ele></trkpt>
    <trkpt lat="44.363381" lon="5.290171"><ele>563.1</ele></trkpt>
    <trkpt lat="44.363400" lon="5.290491"><ele>564.9</ele></trkpt>
    <trkpt lat="44.363413" lon="5.290821"><ele>567.5</ele></trkpt>
    <trkpt lat="44.363402" lon="5.291047"><ele>568.8</ele></trkpt>
    <trkpt lat="44.363379" lon="5.291215"><ele>569.1</ele></trkpt>
    <trkpt lat="44.363344" lon="5.291274"><ele>568.5</ele></trkpt>
    <trkpt lat="44.363312" lon="5.291320"><ele>568.1</ele></trkpt>
    <trkpt lat="44.363296" lon="5.291344"><ele>567.9</ele></trkpt>
    <trkpt lat="44.363247" lon="5.291431"><ele>567.3</ele></trkpt>
    <trkpt lat="44.363219" lon="5.291481"><ele>566.9</ele></trkpt>
    <trkpt lat="44.363185" lon="5.291563"><ele>566.4</ele></trkpt>
    <trkpt lat="44.363171" lon="5.291726"><ele>566.3</ele></trkpt>
    <trkpt lat="44.363127" lon="5.292167"><ele>562.7</ele></trkpt>
    <trkpt lat="44.363132" lon="5.292219"><ele>562.4</ele></trkpt>
    <trkpt lat="44.363161" lon="5.292353"><ele>561.0</ele></trkpt>
    <trkpt lat="44.363215" lon="5.292504"><ele>559.7</ele></trkpt>
    <trkpt lat="44.363247" lon="5.292563"><ele>558.5</ele></trkpt>
    <trkpt lat="44.363289" lon="5.292604"><ele>557.9</ele></trkpt>
    <trkpt lat="44.363336" lon="5.292621"><ele>558.1</ele></trkpt>
    <trkpt lat="44.363510" lon="5.292624"><ele>557.4</ele></trkpt>
    <trkpt lat="44.363925" lon="5.292628"><ele>552.6</ele></trkpt>
    <trkpt lat="44.363995" lon="5.292620"><ele>552.3</ele></trkpt>
    <trkpt lat="44.364179" lon="5.292575"><ele>552.2</ele></trkpt>
    <trkpt lat="44.364331" lon="5.292521"><ele>553.2</ele></trkpt>
    <trkpt lat="44.364459" lon="5.292497"><ele>553.4</ele></trkpt>
    <trkpt lat="44.364572" lon="5.292498"><ele>555.4</ele></trkpt>
    <trkpt lat="44.364667" lon="5.292533"><ele>556.1</ele></trkpt>
    <trkpt lat="44.364752" lon="5.292593"><ele>555.9</ele></trkpt>
    <trkpt lat="44.364838" lon="5.292682"><ele>555.0</ele></trkpt>
    <trkpt lat="44.364967" lon="5.292774"><ele>554.5</ele></trkpt>
    <trkpt lat="44.365152" lon="5.292854"><ele>557.8</ele></trkpt>
    <trkpt lat="44.365166" lon="5.292866"><ele>558.0</ele></trkpt>
    <trkpt lat="44.365177" lon="5.292894"><ele>558.0</ele></trkpt>
    <trkpt lat="44.365164" lon="5.293005"><ele>556.2</ele></trkpt>
    <trkpt lat="44.365151" lon="5.293105"><ele>554.2</ele></trkpt>
    <trkpt lat="44.365135" lon="5.293257"><ele>551.1</ele></trkpt>
    <trkpt lat="44.365131" lon="5.293351"><ele>549.2</ele></trkpt>
    <trkpt lat="44.365182" lon="5.293523"><ele>546.9</ele></trkpt>
    <trkpt lat="44.365230" lon="5.293642"><ele>545.7</ele></trkpt>
    <trkpt lat="44.365301" lon="5.293774"><ele>545.3</ele></trkpt>
    <trkpt lat="44.365457" lon="5.294010"><ele>545.6</ele></trkpt>
    <trkpt lat="44.365579" lon="5.294241"><ele>545.8</ele></trkpt>
    <trkpt lat="44.365634" lon="5.294411"><ele>547.1</ele></trkpt>
    <trkpt lat="44.365638" lon="5.294492"><ele>547.1</ele></trkpt>
    <trkpt lat="44.365618" lon="5.294540"><ele>546.8</ele></trkpt>
    <trkpt lat="44.365579" lon="5.294568"><ele>546.0</ele></trkpt>
    <trkpt lat="44.365470" lon="5.294489"><ele>545.1</ele></trkpt>
    <trkpt lat="44.365376" lon="5.294418"><ele>544.2</ele></trkpt>
    <trkpt lat="44.365269" lon="5.294356"><ele>543.2</ele></trkpt>
    <trkpt lat="44.364929" lon="5.294220"><ele>545.6</ele></trkpt>
    <trkpt lat="44.364847" lon="5.294194"><ele>546.0</ele></trkpt>
    <trkpt lat="44.364774" lon="5.294192"><ele>547.1</ele></trkpt>
    <trkpt lat="44.364685" lon="5.294220"><ele>549.4</ele></trkpt>
    <trkpt lat="44.364632" lon="5.294231"><ele>550.7</ele></trkpt>
    <trkpt lat="44.364547" lon="5.294230"><ele>552.2</ele></trkpt>
    <trkpt lat="44.364458" lon="5.294213"><ele>553.3</ele></trkpt>
    <trkpt lat="44.364388" lon="5.294176"><ele>552.7</ele></trkpt>
    <trkpt lat="44.364317" lon="5.294151"><ele>552.4</ele></trkpt>
    <trkpt lat="44.364221" lon="5.294147"><ele>552.9</ele></trkpt>
    <trkpt lat="44.364114" lon="5.294195"><ele>554.6</ele></trkpt>
    <trkpt lat="44.363949" lon="5.294294"><ele>556.9</ele></trkpt>
    <trkpt lat="44.363865" lon="5.294370"><ele>559.0</ele></trkpt>
    <trkpt lat="44.363768" lon="5.294524"><ele>562.7</ele></trkpt>
    <trkpt lat="44.363726" lon="5.294608"><ele>564.7</ele></trkpt>
    <trkpt lat="44.363682" lon="5.294687"><ele>566.7</ele></trkpt>
    <trkpt lat="44.363552" lon="5.294727"><ele>567.2</ele></trkpt>
    <trkpt lat="44.363494" lon="5.294744"><ele>567.7</ele></trkpt>
    <trkpt lat="44.363431" lon="5.294748"><ele>567.9</ele></trkpt>
    <trkpt lat="44.363390" lon="5.294743"><ele>567.7</ele></trkpt>
    <trkpt lat="44.363347" lon="5.294696"><ele>566.0</ele></trkpt>
    <trkpt lat="44.363307" lon="5.294646"><ele>564.1</ele></trkpt>
    <trkpt lat="44.363265" lon="5.294612"><ele>563.0</ele></trkpt>
    <trkpt lat="44.363170" lon="5.294614"><ele>563.5</ele></trkpt>
    <trkpt lat="44.363027" lon="5.294653"><ele>565.8</ele></trkpt>
    <trkpt lat="44.362874" lon="5.294714"><ele>569.6</ele></trkpt>
    <trkpt lat="44.362745" lon="5.294727"><ele>571.6</ele></trkpt>
    <trkpt lat="44.362481" lon="5.294671"><ele>573.3</ele></trkpt>
    <trkpt lat="44.362103" lon="5.294586"><ele>577.9</ele></trkpt>
    <trkpt lat="44.361904" lon="5.294549"><ele>581.4</ele></trkpt>
    <trkpt lat="44.361818" lon="5.294511"><ele>582.3</ele></trkpt>
    <trkpt lat="44.361709" lon="5.294452"><ele>583.2</ele></trkpt>
    <trkpt lat="44.361595" lon="5.294373"><ele>583.7</ele></trkpt>
    <trkpt lat="44.361270" lon="5.294193"><ele>587.3</ele></trkpt>
    <trkpt lat="44.361067" lon="5.294101"><ele>590.5</ele></trkpt>
    <trkpt lat="44.360928" lon="5.294083"><ele>594.3</ele></trkpt>
    <trkpt lat="44.360785" lon="5.294044"><ele>597.8</ele></trkpt>
    <trkpt lat="44.360702" lon="5.294008"><ele>599.6</ele></trkpt>
    <trkpt lat="44.360589" lon="5.293887"><ele>599.7</ele></trkpt>
    <trkpt lat="44.360216" lon="5.293465"><ele>605.1</ele></trkpt>
    <trkpt lat="44.360049" lon="5.293196"><ele>607.1</ele></trkpt>
    <trkpt lat="44.359888" lon="5.292918"><ele>609.3</ele></trkpt>
    <trkpt lat="44.359706" lon="5.292587"><ele>612.2</ele></trkpt>
    <trkpt lat="44.359498" lon="5.292230"><ele>614.5</ele></trkpt>
    <trkpt lat="44.359357" lon="5.292000"><ele>615.7</ele></trkpt>
    <trkpt lat="44.359280" lon="5.291910"><ele>616.5</ele></trkpt>
    <trkpt lat="44.359186" lon="5.291854"><ele>618.4</ele></trkpt>
    <trkpt lat="44.359072" lon="5.291791"><ele>618.1</ele></trkpt>
    <trkpt lat="44.358876" lon="5.291625"><ele>616.3</ele></trkpt>
    <trkpt lat="44.358720" lon="5.291485"><ele>613.2</ele></trkpt>
    <trkpt lat="44.358708" lon="5.291474"><ele>612.9</ele></trkpt>
    <trkpt lat="44.358645" lon="5.291418"><ele>611.7</ele></trkpt>
    <trkpt lat="44.358577" lon="5.291375"><ele>610.5</ele></trkpt>
    <trkpt lat="44.358496" lon="5.291369"><ele>609.6</ele></trkpt>
    <trkpt lat="44.358426" lon="5.291393"><ele>609.1</ele></trkpt>
    <trkpt lat="44.358293" lon="5.291512"><ele>608.7</ele></trkpt>
    <trkpt lat="44.358051" lon="5.291748"><ele>606.2</ele></trkpt>
    <trkpt lat="44.357889" lon="5.291983"><ele>603.5</ele></trkpt>
    <trkpt lat="44.357785" lon="5.292189"><ele>602.0</ele></trkpt>
    <trkpt lat="44.357660" lon="5.292453"><ele>599.1</ele></trkpt>
    <trkpt lat="44.357488" lon="5.292898"><ele>594.3</ele></trkpt>
    <trkpt lat="44.357406" lon="5.293201"><ele>591.4</ele></trkpt>
    <trkpt lat="44.357360" lon="5.293492"><ele>590.0</ele></trkpt>
    <trkpt lat="44.357343" lon="5.293725"><ele>589.2</ele></trkpt>
    <trkpt lat="44.357276" lon="5.293896"><ele>587.2</ele></trkpt>
    <trkpt lat="44.357151" lon="5.294089"><ele>584.5</ele></trkpt>
    <trkpt lat="44.357072" lon="5.294266"><ele>582.4</ele></trkpt>
    <trkpt lat="44.357062" lon="5.294326"><ele>582.0</ele></trkpt>
    <trkpt lat="44.357040" lon="5.294461"><ele>581.0</ele></trkpt>
    <trkpt lat="44.357037" lon="5.294480"><ele>580.8</ele></trkpt>
    <trkpt lat="44.357019" lon="5.294640"><ele>579.7</ele></trkpt>
    <trkpt lat="44.356880" lon="5.294623"><ele>577.1</ele></trkpt>
    <trkpt lat="44.356819" lon="5.294350"><ele>576.5</ele></trkpt>
    <trkpt lat="44.356728" lon="5.293994"><ele>574.5</ele></trkpt>
    <trkpt lat="44.356629" lon="5.293698"><ele>572.1</ele></trkpt>
    <trkpt lat="44.356532" lon="5.293438"><ele>570.2</ele></trkpt>
    <trkpt lat="44.356386" lon="5.293112"><ele>567.7</ele></trkpt>
    <trkpt lat="44.356199" lon="5.292661"><ele>565.3</ele></trkpt>
    <trkpt lat="44.355981" lon="5.292102"><ele>561.6</ele></trkpt>
    <trkpt lat="44.355801" lon="5.291572"><ele>558.6</ele></trkpt>
    <trkpt lat="44.355600" lon="5.291065"><ele>554.9</ele></trkpt>
    <trkpt lat="44.355491" lon="5.290755"><ele>552.7</ele></trkpt>
    <trkpt lat="44.355451" lon="5.290639"><ele>552.3</ele></trkpt>
    <trkpt lat="44.355412" lon="5.290568"><ele>551.9</ele></trkpt>
    <trkpt lat="44.355368" lon="5.290515"><ele>551.6</ele></trkpt>
    <trkpt lat="44.355226" lon="5.290384"><ele>550.1</ele></trkpt>
    <trkpt lat="44.354949" lon="5.290175"><ele>545.8</ele></trkpt>
    <trkpt lat="44.354612" lon="5.289909"><ele>540.3</ele></trkpt>
    <trkpt lat="44.354219" lon="5.289561"><ele>536.3</ele></trkpt>
    <trkpt lat="44.353867" lon="5.289227"><ele>533.2</ele></trkpt>
    <trkpt lat="44.353690" lon="5.289073"><ele>531.8</ele></trkpt>
    <trkpt lat="44.353575" lon="5.288939"><ele>531.0</ele></trkpt>
    <trkpt lat="44.353493" lon="5.288831"><ele>530.1</ele></trkpt>
    <trkpt lat="44.353428" lon="5.288713"><ele>529.3</ele></trkpt>
    <trkpt lat="44.353276" lon="5.288372"><ele>527.7</ele></trkpt>
    <trkpt lat="44.352877" lon="5.287545"><ele>521.5</ele></trkpt>
    <trkpt lat="44.352700" lon="5.287302"><ele>519.8</ele></trkpt>
    <trkpt lat="44.352509" lon="5.287086"><ele>517.2</ele></trkpt>
    <trkpt lat="44.352170" lon="5.286758"><ele>511.7</ele></trkpt>
    <trkpt lat="44.352044" lon="5.286633"><ele>509.8</ele></trkpt>
    <trkpt lat="44.351922" lon="5.286593"><ele>507.6</ele></trkpt>
    <trkpt lat="44.351774" lon="5.286584"><ele>505.1</ele></trkpt>
    <trkpt lat="44.351665" lon="5.286525"><ele>503.5</ele></trkpt>
    <trkpt lat="44.351420" lon="5.286360"><ele>499.5</ele></trkpt>
    <trkpt lat="44.351215" lon="5.286183"><ele>496.5</ele></trkpt>
    <trkpt lat="44.351114" lon="5.286131"><ele>495.0</ele></trkpt>
    <trkpt lat="44.350954" lon="5.286077"><ele>492.4</ele></trkpt>
    <trkpt lat="44.350780" lon="5.286011"><ele>489.5</ele></trkpt>
    <trkpt lat="44.350363" lon="5.285744"><ele>482.5</ele></trkpt>
    <trkpt lat="44.350064" lon="5.285541"><ele>476.8</ele></trkpt>
    <trkpt lat="44.349735" lon="5.285349"><ele>469.7</ele></trkpt>
    <trkpt lat="44.349290" lon="5.285095"><ele>462.7</ele></trkpt>
    <trkpt lat="44.349116" lon="5.285046"><ele>460.8</ele></trkpt>
    <trkpt lat="44.349011" lon="5.285021"><ele>459.4</ele></trkpt>
    <trkpt lat="44.348875" lon="5.284988"><ele>457.6</ele></trkpt>
    <trkpt lat="44.348837" lon="5.284986"><ele>457.0</ele></trkpt>
    <trkpt lat="44.348804" lon="5.284992"><ele>456.7</ele></trkpt>
    <trkpt lat="44.348759" lon="5.285018"><ele>456.2</ele></trkpt>
    <trkpt lat="44.348620" lon="5.285245"><ele>454.2</ele></trkpt>
    <trkpt lat="44.348593" lon="5.285290"><ele>453.6</ele></trkpt>
    <trkpt lat="44.348567" lon="5.285338"><ele>452.8</ele></trkpt>
    <trkpt lat="44.348552" lon="5.285398"><ele>452.1</ele></trkpt>
    <trkpt lat="44.348551" lon="5.285556"><ele>450.9</ele></trkpt>
    <trkpt lat="44.348553" lon="5.285639"><ele>450.3</ele></trkpt>
    <trkpt lat="44.348533" lon="5.285695"><ele>449.4</ele></trkpt>
    <trkpt lat="44.348512" lon="5.285700"><ele>449.0</ele></trkpt>
    <trkpt lat="44.348483" lon="5.285682"><ele>448.6</ele></trkpt>
    <trkpt lat="44.348331" lon="5.285582"><ele>446.7</ele></trkpt>
    <trkpt lat="44.348285" lon="5.285552"><ele>446.0</ele></trkpt>
    <trkpt lat="44.348043" lon="5.285396"><ele>442.5</ele></trkpt>
    <trkpt lat="44.347831" lon="5.285281"><ele>439.9</ele></trkpt>
    <trkpt lat="44.347689" lon="5.285216"><ele>437.7</ele></trkpt>
    <trkpt lat="44.347512" lon="5.285160"><ele>434.5</ele></trkpt>
    <trkpt lat="44.347359" lon="5.285112"><ele>431.0</ele></trkpt>
    <trkpt lat="44.347241" lon="5.285040"><ele>428.9</ele></trkpt>
    <trkpt lat="44.347166" lon="5.284955"><ele>427.8</ele></trkpt>
    <trkpt lat="44.347143" lon="5.284879"><ele>427.9</ele></trkpt>
    <trkpt lat="44.347095" lon="5.284739"><ele>427.7</ele></trkpt>
    <trkpt lat="44.347031" lon="5.284626"><ele>426.5</ele></trkpt>
    <trkpt lat="44.346944" lon="5.284482"><ele>424.7</ele></trkpt>
    <trkpt lat="44.346839" lon="5.284319"><ele>422.3</ele></trkpt>
    <trkpt lat="44.346823" lon="5.284301"><ele>421.9</ele></trkpt>
    <trkpt lat="44.346733" lon="5.284206"><ele>419.7</ele></trkpt>
    <trkpt lat="44.346611" lon="5.284115"><ele>417.1</ele></trkpt>
    <trkpt lat="44.346445" lon="5.284029"><ele>415.1</ele></trkpt>
    <trkpt lat="44.346380" lon="5.284002"><ele>414.5</ele></trkpt>
    <trkpt lat="44.346213" lon="5.283932"><ele>413.6</ele></trkpt>
    <trkpt lat="44.345916" lon="5.283777"><ele>412.3</ele></trkpt>
    <trkpt lat="44.345834" lon="5.283587"><ele>411.8</ele></trkpt>
    <trkpt lat="44.345794" lon="5.283480"><ele>410.9</ele></trkpt>
    <trkpt lat="44.345549" lon="5.283392"><ele>409.3</ele></trkpt>
    <trkpt lat="44.345403" lon="5.283372"><ele>407.6</ele></trkpt>
    <trkpt lat="44.345346" lon="5.283376"><ele>406.9</ele></trkpt>
    <trkpt lat="44.345317" lon="5.283395"><ele>406.7</ele></trkpt>
    <trkpt lat="44.345302" lon="5.283418"><ele>406.6</ele></trkpt>
    <trkpt lat="44.345212" lon="5.283461"><ele>405.6</ele></trkpt>
    <trkpt lat="44.345051" lon="5.283401"><ele>403.2</ele></trkpt>
  </trkseg></trk></gpx>