<?xml version="1.0" encoding="UTF-8"?>
<gpx version="1.1" creator="Chemins Noirs + BRouter hiking-mountain"
  xmlns="http://www.topografix.com/GPX/1/1" xmlns:xsi="http://www.w3.org/2001/XMLSchema-instance"
  xsi:schemaLocation="http://www.topografix.com/GPX/1/1 http://www.topografix.com/GPX/1/1/gpx.xsd">
<metadata><name>J3 — Gorges de la Méouge (sauvage)</name>
<desc>⭐4.7 Les plus spectaculaires du parc. Falaises, eau turquoise, baignade. Éviter WE juil/août. — 19.2km +752m. Tracé BRouter sentiers OSM.</desc></metadata>
<wpt lat="44.258000" lon="5.615000"><name>🅿️ Parking gorges de la Méouge (D942, Châteauneuf-de-Chabre)</name><sym>Parking Area</sym></wpt>
<trk><name>J3 — Gorges de la Méouge (sauvage)</name><desc>⭐4.7 Les plus spectaculaires du parc. Falaises, eau turquoise, baignade. Éviter WE juil/août.</desc><trkseg>
    <trkpt lat="44.257950" lon="5.614685"><ele>1185.8</ele></trkpt>
    <trkpt lat="44.257738" lon="5.614750"><ele>1187.0</ele></trkpt>
    <trkpt lat="44.257509" lon="5.614885"><ele>1186.2</ele></trkpt>
    <trkpt lat="44.257202" lon="5.615104"><ele>1183.0</ele></trkpt>
    <trkpt lat="44.257017" lon="5.615212"><ele>1182.8</ele></trkpt>
    <trkpt lat="44.256809" lon="5.615286"><ele>1184.5</ele></trkpt>
    <trkpt lat="44.256644" lon="5.615363"><ele>1185.0</ele></trkpt>
    <trkpt lat="44.256542" lon="5.615378"><ele>1182.5</ele></trkpt>
    <trkpt lat="44.256478" lon="5.615301"><ele>1183.0</ele></trkpt>
    <trkpt lat="44.256478" lon="5.615175"><ele>1186.0</ele></trkpt>
    <trkpt lat="44.256498" lon="5.615018"><ele>1190.2</ele></trkpt>
    <trkpt lat="44.256417" lon="5.614241"><ele>1200.2</ele></trkpt>
    <trkpt lat="44.256361" lon="5.613986"><ele>1204.0</ele></trkpt>
    <trkpt lat="44.256320" lon="5.613862"><ele>1205.8</ele></trkpt>
    <trkpt lat="44.256222" lon="5.613721"><ele>1206.2</ele></trkpt>
    <trkpt lat="44.256090" lon="5.613554"><ele>1206.2</ele></trkpt>
    <trkpt lat="44.255955" lon="5.613425"><ele>1205.2</ele></trkpt>
    <trkpt lat="44.255763" lon="5.613295"><ele>1203.0</ele></trkpt>
    <trkpt lat="44.255388" lon="5.613089"><ele>1197.8</ele></trkpt>
    <trkpt lat="44.255285" lon="5.612984"><ele>1197.2</ele></trkpt>
    <trkpt lat="44.255216" lon="5.612790"><ele>1199.5</ele></trkpt>
    <trkpt lat="44.255243" lon="5.612417"><ele>1207.2</ele></trkpt>
    <trkpt lat="44.255251" lon="5.612008"><ele>1213.0</ele></trkpt>
    <trkpt lat="44.255190" lon="5.611844"><ele>1213.8</ele></trkpt>
    <trkpt lat="44.255108" lon="5.611699"><ele>1214.0</ele></trkpt>
    <trkpt lat="44.255029" lon="5.611539"><ele>1212.8</ele></trkpt>
    <trkpt lat="44.254980" lon="5.611370"><ele>1212.0</ele></trkpt>
    <trkpt lat="44.254998" lon="5.611262"><ele>1212.8</ele></trkpt>
    <trkpt lat="44.255083" lon="5.611228"><ele>1215.0</ele></trkpt>
    <trkpt lat="44.255252" lon="5.611244"><ele>1219.0</ele></trkpt>
    <trkpt lat="44.255440" lon="5.611182"><ele>1223.8</ele></trkpt>
    <trkpt lat="44.255696" lon="5.611050"><ele>1230.5</ele></trkpt>
    <trkpt lat="44.255941" lon="5.610803"><ele>1238.0</ele></trkpt>
    <trkpt lat="44.255963" lon="5.610563"><ele>1237.5</ele></trkpt>
    <trkpt lat="44.256029" lon="5.610366"><ele>1238.8</ele></trkpt>
    <trkpt lat="44.256193" lon="5.610138"><ele>1244.0</ele></trkpt>
    <trkpt lat="44.256243" lon="5.609940"><ele>1245.8</ele></trkpt>
    <trkpt lat="44.256263" lon="5.609626"><ele>1246.5</ele></trkpt>
    <trkpt lat="44.256250" lon="5.609346"><ele>1246.2</ele></trkpt>
    <trkpt lat="44.256257" lon="5.609056"><ele>1247.0</ele></trkpt>
    <trkpt lat="44.256314" lon="5.608277"><ele>1251.5</ele></trkpt>
    <trkpt lat="44.256294" lon="5.607978"><ele>1250.8</ele></trkpt>
    <trkpt lat="44.256223" lon="5.607414"><ele>1248.0</ele></trkpt>
    <trkpt lat="44.256098" lon="5.606280"><ele>1250.2</ele></trkpt>
    <trkpt lat="44.255985" lon="5.605673"><ele>1251.8</ele></trkpt>
    <trkpt lat="44.255921" lon="5.605454"><ele>1251.8</ele></trkpt>
    <trkpt lat="44.255678" lon="5.604986"><ele>1248.5</ele></trkpt>
    <trkpt lat="44.255414" lon="5.604641"><ele>1245.5</ele></trkpt>
    <trkpt lat="44.255291" lon="5.604501"><ele>1240.8</ele></trkpt>
    <trkpt lat="44.255414" lon="5.604641"><ele>1245.5</ele></trkpt>
    <trkpt lat="44.255678" lon="5.604986"><ele>1248.5</ele></trkpt>
    <trkpt lat="44.255921" lon="5.605454"><ele>1251.8</ele></trkpt>
    <trkpt lat="44.255985" lon="5.605673"><ele>1251.8</ele></trkpt>
    <trkpt lat="44.256098" lon="5.606280"><ele>1250.2</ele></trkpt>
    <trkpt lat="44.256223" lon="5.607414"><ele>1248.0</ele></trkpt>
    <trkpt lat="44.256294" lon="5.607978"><ele>1250.8</ele></trkpt>
    <trkpt lat="44.256314" lon="5.608277"><ele>1251.5</ele></trkpt>
    <trkpt lat="44.256257" lon="5.609056"><ele>1247.0</ele></trkpt>
    <trkpt lat="44.256250" lon="5.609346"><ele>1246.2</ele></trkpt>
    <trkpt lat="44.256263" lon="5.609626"><ele>1246.5</ele></trkpt>
    <trkpt lat="44.256243" lon="5.609940"><ele>1245.8</ele></trkpt>
    <trkpt lat="44.256193" lon="5.610138"><ele>1244.0</ele></trkpt>
    <trkpt lat="44.256029" lon="5.610366"><ele>1238.8</ele></trkpt>
    <trkpt lat="44.255963" lon="5.610563"><ele>1237.5</ele></trkpt>
    <trkpt lat="44.255941" lon="5.610803"><ele>1238.0</ele></trkpt>
    <trkpt lat="44.255696" lon="5.611050"><ele>1230.5</ele></trkpt>
    <trkpt lat="44.255440" lon="5.611182"><ele>1223.8</ele></trkpt>
    <trkpt lat="44.255252" lon="5.611244"><ele>1219.0</ele></trkpt>
    <trkpt lat="44.255083" lon="5.611228"><ele>1215.0</ele></trkpt>
    <trkpt lat="44.254998" lon="5.611262"><ele>1212.8</ele></trkpt>
    <trkpt lat="44.254980" lon="5.611370"><ele>1212.0</ele></trkpt>
    <trkpt lat="44.255029" lon="5.611539"><ele>1212.8</ele></trkpt>
    <trkpt lat="44.255108" lon="5.611699"><ele>1214.0</ele></trkpt>
    <trkpt lat="44.255190" lon="5.611844"><ele>1213.8</ele></trkpt>
    <trkpt lat="44.255251" lon="5.612008"><ele>1213.0</ele></trkpt>
    <trkpt lat="44.255243" lon="5.612417"><ele>1207.2</ele></trkpt>
    <trkpt lat="44.255216" lon="5.612790"><ele>1199.5</ele></trkpt>
    <trkpt lat="44.255285" lon="5.612984"><ele>1197.2</ele></trkpt>
    <trkpt lat="44.255388" lon="5.613089"><ele>1197.8</ele></trkpt>
    <trkpt lat="44.255763" lon="5.613295"><ele>1203.0</ele></trkpt>
    <trkpt lat="44.255955" lon="5.613425"><ele>1205.2</ele></trkpt>
    <trkpt lat="44.256090" lon="5.613554"><ele>1206.2</ele></trkpt>
    <trkpt lat="44.256222" lon="5.613721"><ele>1206.2</ele></trkpt>
    <trkpt lat="44.256320" lon="5.613862"><ele>1205.8</ele></trkpt>
    <trkpt lat="44.256361" lon="5.613986"><ele>1204.0</ele></trkpt>
    <trkpt lat="44.256417" lon="5.614241"><ele>1200.2</ele></trkpt>
    <trkpt lat="44.256498" lon="5.615018"><ele>1190.2</ele></trkpt>
    <trkpt lat="44.256478" lon="5.615175"><ele>1186.0</ele></trkpt>
    <trkpt lat="44.256478" lon="5.615301"><ele>1183.0</ele></trkpt>
    <trkpt lat="44.256542" lon="5.615378"><ele>1182.5</ele></trkpt>
    <trkpt lat="44.256644" lon="5.615363"><ele>1185.0</ele></trkpt>
    <trkpt lat="44.256809" lon="5.615286"><ele>1184.5</ele></trkpt>
    <trkpt lat="44.257017" lon="5.615212"><ele>1182.8</ele></trkpt>
    <trkpt lat="44.257202" lon="5.615104"><ele>1183.0</ele></trkpt>
    <trkpt lat="44.257509" lon="5.614885"><ele>1186.2</ele></trkpt>
    <trkpt lat="44.257738" lon="5.614750"><ele>1187.0</ele></trkpt>
    <trkpt lat="44.257981" lon="5.614676"><ele>1185.8</ele></trkpt>
    <trkpt lat="44.258297" lon="5.614559"><ele>1186.2</ele></trkpt>
    <trkpt lat="44.258533" lon="5.614522"><ele>1184.5</ele></trkpt>
    <trkpt lat="44.258778" lon="5.614528"><ele>1180.5</ele></trkpt>
    <trkpt lat="44.258870" lon="5.614432"><ele>1183.5</ele></trkpt>
    <trkpt lat="44.258959" lon="5.614306"><ele>1187.2</ele></trkpt>
    <trkpt lat="44.259027" lon="5.614275"><ele>1187.2</ele></trkpt>
    <trkpt lat="44.259190" lon="5.614127"><ele>1190.2</ele></trkpt>
    <trkpt lat="44.259548" lon="5.613878"><ele>1192.5</ele></trkpt>
    <trkpt lat="44.259828" lon="5.613607"><ele>1194.8</ele></trkpt>
    <trkpt lat="44.260177" lon="5.613345"><ele>1194.2</ele></trkpt>
    <trkpt lat="44.260329" lon="5.613212"><ele>1194.5</ele></trkpt>
    <trkpt lat="44.260393" lon="5.613086"><ele>1195.5</ele></trkpt>
    <trkpt lat="44.260442" lon="5.612849"><ele>1199.0</ele></trkpt>
    <trkpt lat="44.260506" lon="5.612695"><ele>1200.5</ele></trkpt>
    <trkpt lat="44.260751" lon="5.612393"><ele>1199.5</ele></trkpt>
    <trkpt lat="44.260821" lon="5.612066"><ele>1202.0</ele></trkpt>
    <trkpt lat="44.260914" lon="5.611875"><ele>1204.2</ele></trkpt>
    <trkpt lat="44.261073" lon="5.611675"><ele>1207.2</ele></trkpt>
    <trkpt lat="44.261238" lon="5.611505"><ele>1209.0</ele></trkpt>
    <trkpt lat="44.261337" lon="5.611225"><ele>1211.2</ele></trkpt>
    <trkpt lat="44.261435" lon="5.610842"><ele>1214.0</ele></trkpt>
    <trkpt lat="44.261459" lon="5.610661"><ele>1212.8</ele></trkpt>
    <trkpt lat="44.261512" lon="5.610516"><ele>1211.0</ele></trkpt>
    <trkpt lat="44.261636" lon="5.610358"><ele>1208.0</ele></trkpt>
    <trkpt lat="44.261793" lon="5.610235"><ele>1208.0</ele></trkpt>
    <trkpt lat="44.261866" lon="5.610200"><ele>1208.5</ele></trkpt>
    <trkpt lat="44.261892" lon="5.609808"><ele>1203.5</ele></trkpt>
    <trkpt lat="44.261932" lon="5.609609"><ele>1201.2</ele></trkpt>
    <trkpt lat="44.262133" lon="5.609178"><ele>1196.2</ele></trkpt>
    <trkpt lat="44.262334" lon="5.608610"><ele>1189.0</ele></trkpt>
    <trkpt lat="44.262476" lon="5.608154"><ele>1181.0</ele></trkpt>
    <trkpt lat="44.262555" lon="5.607974"><ele>1179.0</ele></trkpt>
    <trkpt lat="44.262657" lon="5.607841"><ele>1178.8</ele></trkpt>
    <trkpt lat="44.262686" lon="5.607662"><ele>1176.0</ele></trkpt>
    <trkpt lat="44.262748" lon="5.607602"><ele>1176.2</ele></trkpt>
    <trkpt lat="44.262833" lon="5.607373"><ele>1174.0</ele></trkpt>
    <trkpt lat="44.262905" lon="5.607090"><ele>1170.8</ele></trkpt>
    <trkpt lat="44.263058" lon="5.606592"><ele>1164.5</ele></trkpt>
    <trkpt lat="44.263165" lon="5.606324"><ele>1160.5</ele></trkpt>
    <trkpt lat="44.263167" lon="5.606240"><ele>1159.0</ele></trkpt>
    <trkpt lat="44.263343" lon="5.605851"><ele>1151.5</ele></trkpt>
    <trkpt lat="44.263432" lon="5.605681"><ele>1150.8</ele></trkpt>
    <trkpt lat="44.263475" lon="5.605638"><ele>1151.0</ele></trkpt>
    <trkpt lat="44.263518" lon="5.605520"><ele>1150.0</ele></trkpt>
    <trkpt lat="44.263539" lon="5.605413"><ele>1148.5</ele></trkpt>
    <trkpt lat="44.263630" lon="5.605327"><ele>1148.8</ele></trkpt>
    <trkpt lat="44.263731" lon="5.605166"><ele>1147.8</ele></trkpt>
    <trkpt lat="44.263770" lon="5.604808"><ele>1143.0</ele></trkpt>
    <trkpt lat="44.263811" lon="5.604560"><ele>1140.8</ele></trkpt>
    <trkpt lat="44.263805" lon="5.604174"><ele>1136.2</ele></trkpt>
    <trkpt lat="44.263777" lon="5.603481"><ele>1129.5</ele></trkpt>
    <trkpt lat="44.263788" lon="5.602820"><ele>1120.5</ele></trkpt>
    <trkpt lat="44.263855" lon="5.602338"><ele>1113.0</ele></trkpt>
    <trkpt lat="44.263920" lon="5.602112"><ele>1109.0</ele></trkpt>
    <trkpt lat="44.264047" lon="5.601758"><ele>1102.2</ele></trkpt>
    <trkpt lat="44.264111" lon="5.601625"><ele>1099.5</ele></trkpt>
    <trkpt lat="44.264132" lon="5.601101"><ele>1091.8</ele></trkpt>
    <trkpt lat="44.264037" lon="5.600440"><ele>1084.2</ele></trkpt>
    <trkpt lat="44.263937" lon="5.599876"><ele>1079.5</ele></trkpt>
    <trkpt lat="44.263984" lon="5.599745"><ele>1078.8</ele></trkpt>
    <trkpt lat="44.263831" lon="5.599090"><ele>1074.8</ele></trkpt>
    <trkpt lat="44.263734" lon="5.598719"><ele>1071.2</ele></trkpt>
    <trkpt lat="44.263713" lon="5.598519"><ele>1069.5</ele></trkpt>
    <trkpt lat="44.263760" lon="5.598410"><ele>1069.0</ele></trkpt>
    <trkpt lat="44.263700" lon="5.598340"><ele>1067.8</ele></trkpt>
    <trkpt lat="44.263690" lon="5.598217"><ele>1067.0</ele></trkpt>
    <trkpt lat="44.263700" lon="5.597940"><ele>1065.8</ele></trkpt>
    <trkpt lat="44.263660" lon="5.597780"><ele>1064.2</ele></trkpt>
    <trkpt lat="44.263530" lon="5.597390"><ele>1060.0</ele></trkpt>
    <trkpt lat="44.263322" lon="5.596853"><ele>1054.2</ele></trkpt>
    <trkpt lat="44.263264" lon="5.596360"><ele>1052.8</ele></trkpt>
    <trkpt lat="44.263176" lon="5.596087"><ele>1051.8</ele></trkpt>
    <trkpt lat="44.263093" lon="5.595929"><ele>1051.2</ele></trkpt>
    <trkpt lat="44.262926" lon="5.595667"><ele>1051.5</ele></trkpt>
    <trkpt lat="44.262834" lon="5.595551"><ele>1052.0</ele></trkpt>
    <trkpt lat="44.262664" lon="5.595391"><ele>1053.0</ele></trkpt>
    <trkpt lat="44.262308" lon="5.595257"><ele>1055.5</ele></trkpt>
    <trkpt lat="44.262179" lon="5.595238"><ele>1056.8</ele></trkpt>
    <trkpt lat="44.262025" lon="5.595232"><ele>1058.0</ele></trkpt>
    <trkpt lat="44.261911" lon="5.595244"><ele>1058.8</ele></trkpt>
    <trkpt lat="44.261823" lon="5.595303"><ele>1059.0</ele></trkpt>
    <trkpt lat="44.261770" lon="5.595400"><ele>1058.8</ele></trkpt>
    <trkpt lat="44.261710" lon="5.595540"><ele>1058.0</ele></trkpt>
    <trkpt lat="44.261590" lon="5.596070"><ele>1055.5</ele></trkpt>
    <trkpt lat="44.261510" lon="5.596330"><ele>1054.5</ele></trkpt>
    <trkpt lat="44.261360" lon="5.596630"><ele>1053.8</ele></trkpt>
    <trkpt lat="44.261190" lon="5.596820"><ele>1054.2</ele></trkpt>
    <trkpt lat="44.260860" lon="5.597070"><ele>1054.5</ele></trkpt>
    <trkpt lat="44.260600" lon="5.597180"><ele>1051.2</ele></trkpt>
    <trkpt lat="44.260456" lon="5.597145"><ele>1051.2</ele></trkpt>
    <trkpt lat="44.260217" lon="5.596852"><ele>1055.0</ele></trkpt>
    <trkpt lat="44.259957" lon="5.596549"><ele>1059.2</ele></trkpt>
    <trkpt lat="44.259793" lon="5.596412"><ele>1060.8</ele></trkpt>
    <trkpt lat="44.259324" lon="5.596144"><ele>1060.0</ele></trkpt>
    <trkpt lat="44.259070" lon="5.595956"><ele>1060.5</ele></trkpt>
    <trkpt lat="44.258827" lon="5.595807"><ele>1058.8</ele></trkpt>
    <trkpt lat="44.258716" lon="5.595710"><ele>1058.2</ele></trkpt>
    <trkpt lat="44.258592" lon="5.595576"><ele>1058.2</ele></trkpt>
    <trkpt lat="44.258452" lon="5.595322"><ele>1060.0</ele></trkpt>
    <trkpt lat="44.258324" lon="5.595194"><ele>1058.5</ele></trkpt>
    <trkpt lat="44.258129" lon="5.595076"><ele>1057.0</ele></trkpt>
    <trkpt lat="44.257938" lon="5.595029"><ele>1054.0</ele></trkpt>
    <trkpt lat="44.257659" lon="5.595154"><ele>1044.8</ele></trkpt>
    <trkpt lat="44.257555" lon="5.595105"><ele>1044.0</ele></trkpt>
    <trkpt lat="44.257453" lon="5.594950"><ele>1045.5</ele></trkpt>
    <trkpt lat="44.257379" lon="5.594746"><ele>1047.0</ele></trkpt>
    <trkpt lat="44.257349" lon="5.594556"><ele>1050.0</ele></trkpt>
    <trkpt lat="44.257327" lon="5.594243"><ele>1055.5</ele></trkpt>
    <trkpt lat="44.257289" lon="5.594118"><ele>1057.0</ele></trkpt>
    <trkpt lat="44.257213" lon="5.593997"><ele>1057.8</ele></trkpt>
    <trkpt lat="44.257121" lon="5.593928"><ele>1057.0</ele></trkpt>
    <trkpt lat="44.257029" lon="5.593894"><ele>1056.0</ele></trkpt>
    <trkpt lat="44.256765" lon="5.593854"><ele>1052.0</ele></trkpt>
    <trkpt lat="44.256513" lon="5.593878"><ele>1046.8</ele></trkpt>
    <trkpt lat="44.256332" lon="5.593947"><ele>1042.0</ele></trkpt>
    <trkpt lat="44.256114" lon="5.594115"><ele>1034.8</ele></trkpt>
    <trkpt lat="44.256040" lon="5.594090"><ele>1033.5</ele></trkpt>
    <trkpt lat="44.255985" lon="5.594006"><ele>1033.5</ele></trkpt>
    <trkpt lat="44.255960" lon="5.593907"><ele>1034.5</ele></trkpt>
    <trkpt lat="44.255908" lon="5.593607"><ele>1038.2</ele></trkpt>
    <trkpt lat="44.255908" lon="5.593456"><ele>1038.5</ele></trkpt>
    <trkpt lat="44.255880" lon="5.593343"><ele>1038.8</ele></trkpt>
    <trkpt lat="44.255798" lon="5.593265"><ele>1039.0</ele></trkpt>
    <trkpt lat="44.255669" lon="5.593205"><ele>1039.2</ele></trkpt>
    <trkpt lat="44.255591" lon="5.593122"><ele>1038.8</ele></trkpt>
    <trkpt lat="44.255473" lon="5.592886"><ele>1039.8</ele></trkpt>
    <trkpt lat="44.254785" lon="5.592275"><ele>1035.2</ele></trkpt>
    <trkpt lat="44.254272" lon="5.591880"><ele>1031.8</ele></trkpt>
    <trkpt lat="44.254192" lon="5.591810"><ele>1031.0</ele></trkpt>
    <trkpt lat="44.254062" lon="5.591640"><ele>1029.8</ele></trkpt>
    <trkpt lat="44.253982" lon="5.591410"><ele>1029.5</ele></trkpt>
    <trkpt lat="44.253962" lon="5.591370"><ele>1029.5</ele></trkpt>
    <trkpt lat="44.253932" lon="5.591360"><ele>1029.0</ele></trkpt>
    <trkpt lat="44.253892" lon="5.591380"><ele>1028.0</ele></trkpt>
    <trkpt lat="44.253872" lon="5.591450"><ele>1027.0</ele></trkpt>
    <trkpt lat="44.253882" lon="5.591850"><ele>1023.5</ele></trkpt>
    <trkpt lat="44.253852" lon="5.592120"><ele>1020.2</ele></trkpt>
    <trkpt lat="44.253832" lon="5.592500"><ele>1015.8</ele></trkpt>
    <trkpt lat="44.253837" lon="5.592834"><ele>1012.5</ele></trkpt>
    <trkpt lat="44.253903" lon="5.593047"><ele>1011.8</ele></trkpt>
    <trkpt lat="44.254003" lon="5.593307"><ele>1011.0</ele></trkpt>
    <trkpt lat="44.254103" lon="5.593467"><ele>1010.8</ele></trkpt>
    <trkpt lat="44.254193" lon="5.593567"><ele>1010.8</ele></trkpt>
    <trkpt lat="44.254343" lon="5.593897"><ele>1007.8</ele></trkpt>
    <trkpt lat="44.254453" lon="5.594207"><ele>1004.5</ele></trkpt>
    <trkpt lat="44.254423" lon="5.594287"><ele>1003.2</ele></trkpt>
    <trkpt lat="44.254393" lon="5.594297"><ele>1002.8</ele></trkpt>
    <trkpt lat="44.254243" lon="5.594167"><ele>1002.8</ele></trkpt>
    <trkpt lat="44.254113" lon="5.594147"><ele>1001.5</ele></trkpt>
    <trkpt lat="44.253403" lon="5.594357"><ele>990.0</ele></trkpt>
    <trkpt lat="44.253193" lon="5.594307"><ele>987.5</ele></trkpt>
    <trkpt lat="44.253153" lon="5.594277"><ele>987.2</ele></trkpt>
    <trkpt lat="44.253053" lon="5.594117"><ele>987.2</ele></trkpt>
    <trkpt lat="44.253013" lon="5.594107"><ele>986.5</ele></trkpt>
    <trkpt lat="44.252993" lon="5.594157"><ele>985.8</ele></trkpt>
    <trkpt lat="44.253003" lon="5.594267"><ele>984.8</ele></trkpt>
    <trkpt lat="44.253083" lon="5.594457"><ele>983.5</ele></trkpt>
    <trkpt lat="44.253193" lon="5.594617"><ele>983.2</ele></trkpt>
    <trkpt lat="44.253283" lon="5.594677"><ele>983.8</ele></trkpt>
    <trkpt lat="44.253603" lon="5.594637"><ele>988.5</ele></trkpt>
    <trkpt lat="44.253633" lon="5.594657"><ele>988.5</ele></trkpt>
    <trkpt lat="44.253643" lon="5.594687"><ele>988.2</ele></trkpt>
    <trkpt lat="44.253633" lon="5.594717"><ele>987.8</ele></trkpt>
    <trkpt lat="44.253583" lon="5.594757"><ele>986.5</ele></trkpt>
    <trkpt lat="44.253393" lon="5.594847"><ele>982.8</ele></trkpt>
    <trkpt lat="44.253193" lon="5.595047"><ele>977.5</ele></trkpt>
    <trkpt lat="44.253133" lon="5.595077"><ele>976.2</ele></trkpt>
    <trkpt lat="44.253073" lon="5.595057"><ele>975.8</ele></trkpt>
    <trkpt lat="44.253023" lon="5.595007"><ele>975.8</ele></trkpt>
    <trkpt lat="44.252783" lon="5.594647"><ele>976.5</ele></trkpt>
    <trkpt lat="44.252743" lon="5.594627"><ele>976.2</ele></trkpt>
    <trkpt lat="44.252543" lon="5.594427"><ele>975.0</ele></trkpt>
    <trkpt lat="44.252383" lon="5.594327"><ele>973.5</ele></trkpt>
    <trkpt lat="44.252333" lon="5.594317"><ele>973.0</ele></trkpt>
    <trkpt lat="44.252213" lon="5.594337"><ele>971.0</ele></trkpt>
    <trkpt lat="44.252083" lon="5.594377"><ele>968.8</ele></trkpt>
    <trkpt lat="44.251903" lon="5.594557"><ele>964.8</ele></trkpt>
    <trkpt lat="44.251823" lon="5.594587"><ele>963.5</ele></trkpt>
    <trkpt lat="44.251743" lon="5.594577"><ele>962.5</ele></trkpt>
    <trkpt lat="44.251703" lon="5.594547"><ele>962.0</ele></trkpt>
    <trkpt lat="44.251563" lon="5.594387"><ele>960.2</ele></trkpt>
    <trkpt lat="44.251513" lon="5.594297"><ele>959.8</ele></trkpt>
    <trkpt lat="44.251503" lon="5.594177"><ele>960.2</ele></trkpt>
    <trkpt lat="44.251523" lon="5.594007"><ele>961.8</ele></trkpt>
    <trkpt lat="44.251543" lon="5.593947"><ele>962.8</ele></trkpt>
    <trkpt lat="44.251533" lon="5.593737"><ele>964.0</ele></trkpt>
    <trkpt lat="44.251443" lon="5.593477"><ele>964.0</ele></trkpt>
    <trkpt lat="44.251413" lon="5.593427"><ele>964.0</ele></trkpt>
    <trkpt lat="44.251333" lon="5.593367"><ele>963.0</ele></trkpt>
    <trkpt lat="44.251173" lon="5.593367"><ele>960.2</ele></trkpt>
    <trkpt lat="44.250923" lon="5.593487"><ele>954.8</ele></trkpt>
    <trkpt lat="44.250823" lon="5.593487"><ele>953.0</ele></trkpt>
    <trkpt lat="44.250403" lon="5.593227"><ele>952.2</ele></trkpt>
    <trkpt lat="44.250343" lon="5.593217"><ele>952.0</ele></trkpt>
    <trkpt lat="44.250193" lon="5.593247"><ele>950.0</ele></trkpt>
    <trkpt lat="44.249843" lon="5.593437"><ele>943.5</ele></trkpt>
    <trkpt lat="44.249873" lon="5.593507"><ele>942.8</ele></trkpt>
    <trkpt lat="44.249893" lon="5.593517"><ele>943.0</ele></trkpt>
    <trkpt lat="44.250093" lon="5.593467"><ele>945.8</ele></trkpt>
    <trkpt lat="44.250143" lon="5.593467"><ele>946.2</ele></trkpt>
    <trkpt lat="44.250223" lon="5.593517"><ele>946.5</ele></trkpt>
    <trkpt lat="44.250523" lon="5.593917"><ele>944.5</ele></trkpt>
    <trkpt lat="44.250633" lon="5.594147"><ele>943.2</ele></trkpt>
    <trkpt lat="44.250633" lon="5.594197"><ele>942.8</ele></trkpt>
    <trkpt lat="44.250603" lon="5.594217"><ele>942.2</ele></trkpt>
    <trkpt lat="44.250563" lon="5.594207"><ele>941.8</ele></trkpt>
    <trkpt lat="44.250493" lon="5.594147"><ele>941.2</ele></trkpt>
    <trkpt lat="44.250433" lon="5.594047"><ele>941.8</ele></trkpt>
    <trkpt lat="44.250383" lon="5.593997"><ele>941.8</ele></trkpt>
    <trkpt lat="44.250323" lon="5.593967"><ele>941.2</ele></trkpt>
    <trkpt lat="44.250193" lon="5.593947"><ele>939.8</ele></trkpt>
    <trkpt lat="44.249923" lon="5.593967"><ele>936.2</ele></trkpt>
    <trkpt lat="44.249753" lon="5.594007"><ele>934.2</ele></trkpt>
    <trkpt lat="44.249673" lon="5.594047"><ele>933.0</ele></trkpt>
    <trkpt lat="44.249643" lon="5.594087"><ele>932.0</ele></trkpt>
    <trkpt lat="44.249613" lon="5.594187"><ele>930.5</ele></trkpt>
    <trkpt lat="44.249620" lon="5.594818"><ele>927.2</ele></trkpt>
    <trkpt lat="44.249611" lon="5.594955"><ele>924.8</ele></trkpt>
    <trkpt lat="44.249600" lon="5.595158"><ele>924.8</ele></trkpt>
    <trkpt lat="44.249570" lon="5.595288"><ele>923.2</ele></trkpt>
    <trkpt lat="44.249510" lon="5.595388"><ele>922.0</ele></trkpt>
    <trkpt lat="44.249470" lon="5.595418"><ele>921.2</ele></trkpt>
    <trkpt lat="44.249360" lon="5.595448"><ele>920.0</ele></trkpt>
    <trkpt lat="44.249140" lon="5.595468"><ele>917.5</ele></trkpt>
    <trkpt lat="44.249010" lon="5.595528"><ele>915.0</ele></trkpt>
    <trkpt lat="44.248960" lon="5.595608"><ele>913.5</ele></trkpt>
    <trkpt lat="44.248920" lon="5.595930"><ele>910.2</ele></trkpt>
    <trkpt lat="44.248880" lon="5.596030"><ele>908.5</ele></trkpt>
    <trkpt lat="44.248850" lon="5.596060"><ele>907.8</ele></trkpt>
    <trkpt lat="44.248730" lon="5.596060"><ele>906.0</ele></trkpt>
    <trkpt lat="44.248660" lon="5.596000"><ele>905.8</ele></trkpt>
    <trkpt lat="44.248580" lon="5.595890"><ele>905.8</ele></trkpt>
    <trkpt lat="44.248440" lon="5.595570"><ele>905.8</ele></trkpt>
    <trkpt lat="44.248410" lon="5.595530"><ele>905.5</ele></trkpt>
    <trkpt lat="44.248340" lon="5.595520"><ele>904.5</ele></trkpt>
    <trkpt lat="44.248240" lon="5.595680"><ele>901.8</ele></trkpt>
    <trkpt lat="44.248190" lon="5.595800"><ele>900.0</ele></trkpt>
    <trkpt lat="44.248170" lon="5.595920"><ele>898.8</ele></trkpt>
    <trkpt lat="44.248170" lon="5.596150"><ele>896.8</ele></trkpt>
    <trkpt lat="44.248130" lon="5.596200"><ele>895.5</ele></trkpt>
    <trkpt lat="44.248070" lon="5.596180"><ele>894.8</ele></trkpt>
    <trkpt lat="44.248010" lon="5.596080"><ele>894.5</ele></trkpt>
    <trkpt lat="44.247970" lon="5.595940"><ele>894.8</ele></trkpt>
    <trkpt lat="44.247990" lon="5.595680"><ele>896.5</ele></trkpt>
    <trkpt lat="44.248040" lon="5.595340"><ele>899.2</ele></trkpt>
    <trkpt lat="44.248030" lon="5.595170"><ele>899.8</ele></trkpt>
    <trkpt lat="44.247990" lon="5.595010"><ele>899.8</ele></trkpt>
    <trkpt lat="44.247960" lon="5.594950"><ele>899.5</ele></trkpt>
    <trkpt lat="44.247920" lon="5.594900"><ele>899.0</ele></trkpt>
    <trkpt lat="44.247810" lon="5.594850"><ele>897.0</ele></trkpt>
    <trkpt lat="44.247360" lon="5.594820"><ele>889.8</ele></trkpt>
    <trkpt lat="44.247220" lon="5.594870"><ele>888.0</ele></trkpt>
    <trkpt lat="44.247210" lon="5.594950"><ele>887.0</ele></trkpt>
    <trkpt lat="44.247134" lon="5.594979"><ele>885.8</ele></trkpt>
    <trkpt lat="44.246891" lon="5.595260"><ele>881.0</ele></trkpt>
    <trkpt lat="44.246696" lon="5.595443"><ele>877.5</ele></trkpt>
    <trkpt lat="44.246519" lon="5.595762"><ele>873.5</ele></trkpt>
    <trkpt lat="44.246259" lon="5.596076"><ele>867.0</ele></trkpt>
    <trkpt lat="44.246060" lon="5.596357"><ele>862.0</ele></trkpt>
    <trkpt lat="44.245866" lon="5.596418"><ele>858.5</ele></trkpt>
    <trkpt lat="44.245813" lon="5.596475"><ele>857.2</ele></trkpt>
    <trkpt lat="44.245801" lon="5.596531"><ele>856.8</ele></trkpt>
    <trkpt lat="44.245805" lon="5.596536"><ele>856.8</ele></trkpt>
    <trkpt lat="44.245753" lon="5.596554"><ele>856.2</ele></trkpt>
    <trkpt lat="44.245606" lon="5.596749"><ele>852.8</ele></trkpt>
    <trkpt lat="44.245535" lon="5.596710"><ele>852.5</ele></trkpt>
    <trkpt lat="44.245576" lon="5.596537"><ele>855.0</ele></trkpt>
    <trkpt lat="44.245738" lon="5.596261"><ele>859.0</ele></trkpt>
    <trkpt lat="44.245743" lon="5.596080"><ele>860.8</ele></trkpt>
    <trkpt lat="44.245186" lon="5.596119"><ele>860.5</ele></trkpt>
    <trkpt lat="44.244856" lon="5.596300"><ele>856.2</ele></trkpt>
    <trkpt lat="44.244526" lon="5.596636"><ele>847.5</ele></trkpt>
    <trkpt lat="44.244144" lon="5.596880"><ele>842.8</ele></trkpt>
    <trkpt lat="44.243898" lon="5.596841"><ele>844.2</ele></trkpt>
    <trkpt lat="44.243705" lon="5.596710"><ele>847.2</ele></trkpt>
    <trkpt lat="44.243525" lon="5.596735"><ele>847.8</ele></trkpt>
    <trkpt lat="44.243360" lon="5.596838"><ele>846.8</ele></trkpt>
    <trkpt lat="44.242815" lon="5.597450"><ele>836.8</ele></trkpt>
    <trkpt lat="44.242681" lon="5.597463"><ele>837.0</ele></trkpt>
    <trkpt lat="44.243089" lon="5.596539"><ele>850.5</ele></trkpt>
    <trkpt lat="44.243138" lon="5.595874"><ele>860.5</ele></trkpt>
    <trkpt lat="44.243117" lon="5.595467"><ele>867.0</ele></trkpt>
    <trkpt lat="44.243001" lon="5.594900"><ele>874.8</ele></trkpt>
    <trkpt lat="44.242745" lon="5.594313"><ele>879.8</ele></trkpt>
    <trkpt lat="44.242559" lon="5.594171"><ele>878.8</ele></trkpt>
    <trkpt lat="44.242542" lon="5.594012"><ele>880.2</ele></trkpt>
    <trkpt lat="44.242542" lon="5.593667"><ele>884.0</ele></trkpt>
    <trkpt lat="44.242641" lon="5.593148"><ele>891.8</ele></trkpt>
    <trkpt lat="44.242638" lon="5.592951"><ele>895.0</ele></trkpt>
    <trkpt lat="44.242481" lon="5.592494"><ele>901.5</ele></trkpt>
    <trkpt lat="44.242449" lon="5.592347"><ele>905.8</ele></trkpt>
    <trkpt lat="44.242457" lon="5.592157"><ele>909.5</ele></trkpt>
    <trkpt lat="44.242594" lon="5.591492"><ele>922.0</ele></trkpt>
    <trkpt lat="44.242703" lon="5.591181"><ele>927.2</ele></trkpt>
    <trkpt lat="44.242726" lon="5.590831"><ele>933.0</ele></trkpt>
    <trkpt lat="44.242732" lon="5.590727"><ele>935.0</ele></trkpt>
    <trkpt lat="44.242800" lon="5.590031"><ele>947.8</ele></trkpt>
    <trkpt lat="44.243034" lon="5.589644"><ele>952.5</ele></trkpt>
    <trkpt lat="44.243839" lon="5.589633"><ele>963.0</ele></trkpt>
    <trkpt lat="44.244099" lon="5.589549"><ele>970.0</ele></trkpt>
    <trkpt lat="44.244166" lon="5.589512"><ele>972.0</ele></trkpt>
    <trkpt lat="44.244356" lon="5.589373"><ele>979.5</ele></trkpt>
    <trkpt lat="44.244442" lon="5.589239"><ele>983.2</ele></trkpt>
    <trkpt lat="44.244457" lon="5.589000"><ele>986.2</ele></trkpt>
    <trkpt lat="44.244357" lon="5.588762"><ele>985.5</ele></trkpt>
    <trkpt lat="44.244365" lon="5.588670"><ele>986.8</ele></trkpt>
    <trkpt lat="44.244422" lon="5.588591"><ele>989.8</ele></trkpt>
    <trkpt lat="44.244511" lon="5.588635"><ele>992.5</ele></trkpt>
    <trkpt lat="44.245122" lon="5.589837"><ele>1008.5</ele></trkpt>
    <trkpt lat="44.245172" lon="5.590662"><ele>1010.5</ele></trkpt>
    <trkpt lat="44.245218" lon="5.590715"><ele>1013.2</ele></trkpt>
    <trkpt lat="44.245530" lon="5.589869"><ele>1033.2</ele></trkpt>
    <trkpt lat="44.245659" lon="5.589260"><ele>1044.8</ele></trkpt>
    <trkpt lat="44.245725" lon="5.588591"><ele>1054.0</ele></trkpt>
    <trkpt lat="44.245702" lon="5.587384"><ele>1066.8</ele></trkpt>
    <trkpt lat="44.245527" lon="5.587013"><ele>1065.8</ele></trkpt>
    <trkpt lat="44.245388" lon="5.586354"><ele>1072.0</ele></trkpt>
    <trkpt lat="44.245349" lon="5.586257"><ele>1072.8</ele></trkpt>
    <trkpt lat="44.245388" lon="5.586354"><ele>1072.0</ele></trkpt>
    <trkpt lat="44.245527" lon="5.587013"><ele>1065.8</ele></trkpt>
    <trkpt lat="44.245702" lon="5.587384"><ele>1066.8</ele></trkpt>
    <trkpt lat="44.245725" lon="5.588591"><ele>1054.0</ele></trkpt>
    <trkpt lat="44.245659" lon="5.589260"><ele>1044.8</ele></trkpt>
    <trkpt lat="44.245530" lon="5.589869"><ele>1033.2</ele></trkpt>
    <trkpt lat="44.245218" lon="5.590715"><ele>1013.2</ele></trkpt>
    <trkpt lat="44.245172" lon="5.590662"><ele>1010.5</ele></trkpt>
    <trkpt lat="44.245122" lon="5.589837"><ele>1008.5</ele></trkpt>
    <trkpt lat="44.244511" lon="5.588635"><ele>992.5</ele></trkpt>
    <trkpt lat="44.244422" lon="5.588591"><ele>989.8</ele></trkpt>
    <trkpt lat="44.244365" lon="5.588670"><ele>986.8</ele></trkpt>
    <trkpt lat="44.244357" lon="5.588762"><ele>985.5</ele></trkpt>
    <trkpt lat="44.244457" lon="5.589000"><ele>986.2</ele></trkpt>
    <trkpt lat="44.244442" lon="5.589239"><ele>983.2</ele></trkpt>
    <trkpt lat="44.244356" lon="5.589373"><ele>979.5</ele></trkpt>
    <trkpt lat="44.244166" lon="5.589512"><ele>972.0</ele></trkpt>
    <trkpt lat="44.244099" lon="5.589549"><ele>970.0</ele></trkpt>
    <trkpt lat="44.243839" lon="5.589633"><ele>963.0</ele></trkpt>
    <trkpt lat="44.243034" lon="5.589644"><ele>952.5</ele></trkpt>
    <trkpt lat="44.242800" lon="5.590031"><ele>947.8</ele></trkpt>
    <trkpt lat="44.242732" lon="5.590727"><ele>935.0</ele></trkpt>
    <trkpt lat="44.242726" lon="5.590831"><ele>933.0</ele></trkpt>
    <trkpt lat="44.242703" lon="5.591181"><ele>927.2</ele></trkpt>
    <trkpt lat="44.242594" lon="5.591492"><ele>922.0</ele></trkpt>
    <trkpt lat="44.242457" lon="5.592157"><ele>909.5</ele></trkpt>
    <trkpt lat="44.242449" lon="5.592347"><ele>905.8</ele></trkpt>
    <trkpt lat="44.242481" lon="5.592494"><ele>901.5</ele></trkpt>
    <trkpt lat="44.242638" lon="5.592951"><ele>895.0</ele></trkpt>
    <trkpt lat="44.242641" lon="5.593148"><ele>891.8</ele></trkpt>
    <trkpt lat="44.242542" lon="5.593667"><ele>884.0</ele></trkpt>
    <trkpt lat="44.242542" lon="5.594012"><ele>880.2</ele></trkpt>
    <trkpt lat="44.242559" lon="5.594171"><ele>878.8</ele></trkpt>
    <trkpt lat="44.242745" lon="5.594313"><ele>879.8</ele></trkpt>
    <trkpt lat="44.243001" lon="5.594900"><ele>874.8</ele></trkpt>
    <trkpt lat="44.243117" lon="5.595467"><ele>867.0</ele></trkpt>
    <trkpt lat="44.243138" lon="5.595874"><ele>860.5</ele></trkpt>
    <trkpt lat="44.243089" lon="5.596539"><ele>850.5</ele></trkpt>
    <trkpt lat="44.242681" lon="5.597463"><ele>837.0</ele></trkpt>
    <trkpt lat="44.242815" lon="5.597450"><ele>836.8</ele></trkpt>
    <trkpt lat="44.243360" lon="5.596838"><ele>846.8</ele></trkpt>
    <trkpt lat="44.243525" lon="5.596735"><ele>847.8</ele></trkpt>
    <trkpt lat="44.243705" lon="5.596710"><ele>847.2</ele></trkpt>
    <trkpt lat="44.243898" lon="5.596841"><ele>844.2</ele></trkpt>
    <trkpt lat="44.244144" lon="5.596880"><ele>842.8</ele></trkpt>
    <trkpt lat="44.244526" lon="5.596636"><ele>847.5</ele></trkpt>
    <trkpt lat="44.244856" lon="5.596300"><ele>856.2</ele></trkpt>
    <trkpt lat="44.245186" lon="5.596119"><ele>860.5</ele></trkpt>
    <trkpt lat="44.245743" lon="5.596080"><ele>860.8</ele></trkpt>
    <trkpt lat="44.245738" lon="5.596261"><ele>859.0</ele></trkpt>
    <trkpt lat="44.245576" lon="5.596537"><ele>855.0</ele></trkpt>
    <trkpt lat="44.245535" lon="5.596710"><ele>852.5</ele></trkpt>
    <trkpt lat="44.245606" lon="5.596749"><ele>852.8</ele></trkpt>
    <trkpt lat="44.245753" lon="5.596554"><ele>856.2</ele></trkpt>
    <trkpt lat="44.245805" lon="5.596536"><ele>856.8</ele></trkpt>
    <trkpt lat="44.245801" lon="5.596531"><ele>856.8</ele></trkpt>
    <trkpt lat="44.245813" lon="5.596475"><ele>857.2</ele></trkpt>
    <trkpt lat="44.245866" lon="5.596418"><ele>858.5</ele></trkpt>
    <trkpt lat="44.246060" lon="5.596357"><ele>862.0</ele></trkpt>
    <trkpt lat="44.246259" lon="5.596076"><ele>867.0</ele></trkpt>
    <trkpt lat="44.246519" lon="5.595762"><ele>873.5</ele></trkpt>
    <trkpt lat="44.246696" lon="5.595443"><ele>877.5</ele></trkpt>
    <trkpt lat="44.246891" lon="5.595260"><ele>881.0</ele></trkpt>
    <trkpt lat="44.247134" lon="5.594979"><ele>885.8</ele></trkpt>
    <trkpt lat="44.247210" lon="5.594950"><ele>887.0</ele></trkpt>
    <trkpt lat="44.247220" lon="5.594870"><ele>888.0</ele></trkpt>
    <trkpt lat="44.247360" lon="5.594820"><ele>889.8</ele></trkpt>
    <trkpt lat="44.247810" lon="5.594850"><ele>897.0</ele></trkpt>
    <trkpt lat="44.247920" lon="5.594900"><ele>899.0</ele></trkpt>
    <trkpt lat="44.247960" lon="5.594950"><ele>899.5</ele></trkpt>
    <trkpt lat="44.247990" lon="5.595010"><ele>899.8</ele></trkpt>
    <trkpt lat="44.248030" lon="5.595170"><ele>899.8</ele></trkpt>
    <trkpt lat="44.248040" lon="5.595340"><ele>899.2</ele></trkpt>
    <trkpt lat="44.247990" lon="5.595680"><ele>896.5</ele></trkpt>
    <trkpt lat="44.247970" lon="5.595940"><ele>894.8</ele></trkpt>
    <trkpt lat="44.248010" lon="5.596080"><ele>894.5</ele></trkpt>
    <trkpt lat="44.248070" lon="5.596180"><ele>894.8</ele></trkpt>
    <trkpt lat="44.248130" lon="5.596200"><ele>895.5</ele></trkpt>
    <trkpt lat="44.248170" lon="5.596150"><ele>896.8</ele></trkpt>
    <trkpt lat="44.248170" lon="5.595920"><ele>898.8</ele></trkpt>
    <trkpt lat="44.248190" lon="5.595800"><ele>900.0</ele></trkpt>
    <trkpt lat="44.248240" lon="5.595680"><ele>901.8</ele></trkpt>
    <trkpt lat="44.248340" lon="5.595520"><ele>904.5</ele></trkpt>
    <trkpt lat="44.248410" lon="5.595530"><ele>905.5</ele></trkpt>
    <trkpt lat="44.248440" lon="5.595570"><ele>905.8</ele></trkpt>
    <trkpt lat="44.248580" lon="5.595890"><ele>905.8</ele></trkpt>
    <trkpt lat="44.248660" lon="5.596000"><ele>905.8</ele></trkpt>
    <trkpt lat="44.248730" lon="5.596060"><ele>906.0</ele></trkpt>
    <trkpt lat="44.248850" lon="5.596060"><ele>907.8</ele></trkpt>
    <trkpt lat="44.248880" lon="5.596030"><ele>908.5</ele></trkpt>
    <trkpt lat="44.248920" lon="5.595930"><ele>910.2</ele></trkpt>
    <trkpt lat="44.248960" lon="5.595608"><ele>913.5</ele></trkpt>
    <trkpt lat="44.249010" lon="5.595528"><ele>915.0</ele></trkpt>
    <trkpt lat="44.249140" lon="5.595468"><ele>917.5</ele></trkpt>
    <trkpt lat="44.249360" lon="5.595448"><ele>920.0</ele></trkpt>
    <trkpt lat="44.249470" lon="5.595418"><ele>921.2</ele></trkpt>
    <trkpt lat="44.249510" lon="5.595388"><ele>922.0</ele></trkpt>
    <trkpt lat="44.249570" lon="5.595288"><ele>923.2</ele></trkpt>
    <trkpt lat="44.249600" lon="5.595158"><ele>924.8</ele></trkpt>
    <trkpt lat="44.249620" lon="5.594818"><ele>927.2</ele></trkpt>
    <trkpt lat="44.249613" lon="5.594187"><ele>930.5</ele></trkpt>
    <trkpt lat="44.249643" lon="5.594087"><ele>932.0</ele></trkpt>
    <trkpt lat="44.249673" lon="5.594047"><ele>933.0</ele></trkpt>
    <trkpt lat="44.249753" lon="5.594007"><ele>934.2</ele></trkpt>
    <trkpt lat="44.249923" lon="5.593967"><ele>936.2</ele></trkpt>
    <trkpt lat="44.250193" lon="5.593947"><ele>939.8</ele></trkpt>
    <trkpt lat="44.250323" lon="5.593967"><ele>941.2</ele></trkpt>
    <trkpt lat="44.250383" lon="5.593997"><ele>941.8</ele></trkpt>
    <trkpt lat="44.250433" lon="5.594047"><ele>941.8</ele></trkpt>
    <trkpt lat="44.250493" lon="5.594147"><ele>941.2</ele></trkpt>
    <trkpt lat="44.250563" lon="5.594207"><ele>941.8</ele></trkpt>
    <trkpt lat="44.250603" lon="5.594217"><ele>942.2</ele></trkpt>
    <trkpt lat="44.250633" lon="5.594197"><ele>942.8</ele></trkpt>
    <trkpt lat="44.250633" lon="5.594147"><ele>943.2</ele></trkpt>
    <trkpt lat="44.250523" lon="5.593917"><ele>944.5</ele></trkpt>
    <trkpt lat="44.250223" lon="5.593517"><ele>946.5</ele></trkpt>
    <trkpt lat="44.250143" lon="5.593467"><ele>946.2</ele></trkpt>
    <trkpt lat="44.250093" lon="5.593467"><ele>945.8</ele></trkpt>
    <trkpt lat="44.249893" lon="5.593517"><ele>943.0</ele></trkpt>
    <trkpt lat="44.249873" lon="5.593507"><ele>942.8</ele></trkpt>
    <trkpt lat="44.249843" lon="5.593437"><ele>943.5</ele></trkpt>
    <trkpt lat="44.250193" lon="5.593247"><ele>950.0</ele></trkpt>
    <trkpt lat="44.250343" lon="5.593217"><ele>952.0</ele></trkpt>
    <trkpt lat="44.250403" lon="5.593227"><ele>952.2</ele></trkpt>
    <trkpt lat="44.250823" lon="5.593487"><ele>953.0</ele></trkpt>
    <trkpt lat="44.250923" lon="5.593487"><ele>954.8</ele></trkpt>
    <trkpt lat="44.251173" lon="5.593367"><ele>960.2</ele></trkpt>
    <trkpt lat="44.251333" lon="5.593367"><ele>963.0</ele></trkpt>
    <trkpt lat="44.251413" lon="5.593427"><ele>964.0</ele></trkpt>
    <trkpt lat="44.251443" lon="5.593477"><ele>964.0</ele></trkpt>
    <trkpt lat="44.251533" lon="5.593737"><ele>964.0</ele></trkpt>
    <trkpt lat="44.251543" lon="5.593947"><ele>962.8</ele></trkpt>
    <trkpt lat="44.251523" lon="5.594007"><ele>961.8</ele></trkpt>
    <trkpt lat="44.251503" lon="5.594177"><ele>960.2</ele></trkpt>
    <trkpt lat="44.251513" lon="5.594297"><ele>959.8</ele></trkpt>
    <trkpt lat="44.251563" lon="5.594387"><ele>960.2</ele></trkpt>
    <trkpt lat="44.251703" lon="5.594547"><ele>962.0</ele></trkpt>
    <trkpt lat="44.251743" lon="5.594577"><ele>962.5</ele></trkpt>
    <trkpt lat="44.251823" lon="5.594587"><ele>963.5</ele></trkpt>
    <trkpt lat="44.251903" lon="5.594557"><ele>964.8</ele></trkpt>
    <trkpt lat="44.252083" lon="5.594377"><ele>968.8</ele></trkpt>
    <trkpt lat="44.252213" lon="5.594337"><ele>971.0</ele></trkpt>
    <trkpt lat="44.252333" lon="5.594317"><ele>973.0</ele></trkpt>
    <trkpt lat="44.252383" lon="5.594327"><ele>973.5</ele></trkpt>
    <trkpt lat="44.252543" lon="5.594427"><ele>975.0</ele></trkpt>
    <trkpt lat="44.252743" lon="5.594627"><ele>976.2</ele></trkpt>
    <trkpt lat="44.252783" lon="5.594647"><ele>976.5</ele></trkpt>
    <trkpt lat="44.253023" lon="5.595007"><ele>975.8</ele></trkpt>
    <trkpt lat="44.253073" lon="5.595057"><ele>975.8</ele></trkpt>
    <trkpt lat="44.253133" lon="5.595077"><ele>976.2</ele></trkpt>
    <trkpt lat="44.253193" lon="5.595047"><ele>977.5</ele></trkpt>
    <trkpt lat="44.253393" lon="5.594847"><ele>982.8</ele></trkpt>
    <trkpt lat="44.253583" lon="5.594757"><ele>986.5</ele></trkpt>
    <trkpt lat="44.253633" lon="5.594717"><ele>987.8</ele></trkpt>
    <trkpt lat="44.253643" lon="5.594687"><ele>988.2</ele></trkpt>
    <trkpt lat="44.253633" lon="5.594657"><ele>988.5</ele></trkpt>
    <trkpt lat="44.253603" lon="5.594637"><ele>988.5</ele></trkpt>
    <trkpt lat="44.253283" lon="5.594677"><ele>983.8</ele></trkpt>
    <trkpt lat="44.253193" lon="5.594617"><ele>983.2</ele></trkpt>
    <trkpt lat="44.253083" lon="5.594457"><ele>983.5</ele></trkpt>
    <trkpt lat="44.253003" lon="5.594267"><ele>984.8</ele></trkpt>
    <trkpt lat="44.252993" lon="5.594157"><ele>985.8</ele></trkpt>
    <trkpt lat="44.253013" lon="5.594107"><ele>986.5</ele></trkpt>
    <trkpt lat="44.253053" lon="5.594117"><ele>987.2</ele></trkpt>
    <trkpt lat="44.253153" lon="5.594277"><ele>987.2</ele></trkpt>
    <trkpt lat="44.253193" lon="5.594307"><ele>987.5</ele></trkpt>
    <trkpt lat="44.253403" lon="5.594357"><ele>990.0</ele></trkpt>
    <trkpt lat="44.254113" lon="5.594147"><ele>1001.5</ele></trkpt>
    <trkpt lat="44.254243" lon="5.594167"><ele>1002.8</ele></trkpt>
    <trkpt lat="44.254393" lon="5.594297"><ele>1002.8</ele></trkpt>
    <trkpt lat="44.254423" lon="5.594287"><ele>1003.2</ele></trkpt>
    <trkpt lat="44.254453" lon="5.594207"><ele>1004.5</ele></trkpt>
    <trkpt lat="44.254343" lon="5.593897"><ele>1007.8</ele></trkpt>
    <trkpt lat="44.254193" lon="5.593567"><ele>1010.8</ele></trkpt>
    <trkpt lat="44.254103" lon="5.593467"><ele>1010.8</ele></trkpt>
    <trkpt lat="44.254003" lon="5.593307"><ele>1011.0</ele></trkpt>
    <trkpt lat="44.253903" lon="5.593047"><ele>1011.8</ele></trkpt>
    <trkpt lat="44.253837" lon="5.592834"><ele>1012.5</ele></trkpt>
    <trkpt lat="44.253832" lon="5.592500"><ele>1015.8</ele></trkpt>
    <trkpt lat="44.253852" lon="5.592120"><ele>1020.2</ele></trkpt>
    <trkpt lat="44.253882" lon="5.591850"><ele>1023.5</ele></trkpt>
    <trkpt lat="44.253872" lon="5.591450"><ele>1027.0</ele></trkpt>
    <trkpt lat="44.253892" lon="5.591380"><ele>1028.0</ele></trkpt>
    <trkpt lat="44.253932" lon="5.591360"><ele>1029.0</ele></trkpt>
    <trkpt lat="44.253962" lon="5.591370"><ele>1029.5</ele></trkpt>
    <trkpt lat="44.253982" lon="5.591410"><ele>1029.5</ele></trkpt>
    <trkpt lat="44.254062" lon="5.591640"><ele>1029.8</ele></trkpt>
    <trkpt lat="44.254192" lon="5.591810"><ele>1031.0</ele></trkpt>
    <trkpt lat="44.254272" lon="5.591880"><ele>1031.8</ele></trkpt>
    <trkpt lat="44.254785" lon="5.592275"><ele>1035.2</ele></trkpt>
    <trkpt lat="44.255473" lon="5.592886"><ele>1039.8</ele></trkpt>
    <trkpt lat="44.255591" lon="5.593122"><ele>1038.8</ele></trkpt>
    <trkpt lat="44.255669" lon="5.593205"><ele>1039.2</ele></trkpt>
    <trkpt lat="44.255798" lon="5.593265"><ele>1038.8</ele></trkpt>
    <trkpt lat="44.255880" lon="5.593343"><ele>1038.5</ele></trkpt>
    <trkpt lat="44.255908" lon="5.593456"><ele>1038.0</ele></trkpt>
    <trkpt lat="44.255908" lon="5.593607"><ele>1038.2</ele></trkpt>
    <trkpt lat="44.255960" lon="5.593907"><ele>1034.5</ele></trkpt>
    <trkpt lat="44.255985" lon="5.594006"><ele>1033.5</ele></trkpt>
    <trkpt lat="44.256040" lon="5.594090"><ele>1033.5</ele></trkpt>
    <trkpt lat="44.256114" lon="5.594115"><ele>1034.8</ele></trkpt>
    <trkpt lat="44.256332" lon="5.593947"><ele>1042.0</ele></trkpt>
    <trkpt lat="44.256513" lon="5.593878"><ele>1046.8</ele></trkpt>
    <trkpt lat="44.256765" lon="5.593854"><ele>1052.0</ele></trkpt>
    <trkpt lat="44.257029" lon="5.593894"><ele>1056.0</ele></trkpt>
    <trkpt lat="44.257121" lon="5.593928"><ele>1057.0</ele></trkpt>
    <trkpt lat="44.257213" lon="5.593997"><ele>1057.8</ele></trkpt>
    <trkpt lat="44.257289" lon="5.594118"><ele>1057.0</ele></trkpt>
    <trkpt lat="44.257327" lon="5.594243"><ele>1055.5</ele></trkpt>
    <trkpt lat="44.257349" lon="5.594556"><ele>1050.0</ele></trkpt>
    <trkpt lat="44.257379" lon="5.594746"><ele>1047.0</ele></trkpt>
    <trkpt lat="44.257453" lon="5.594950"><ele>1045.5</ele></trkpt>
    <trkpt lat="44.257555" lon="5.595105"><ele>1044.0</ele></trkpt>
    <trkpt lat="44.257659" lon="5.595154"><ele>1044.8</ele></trkpt>
    <trkpt lat="44.257938" lon="5.595029"><ele>1054.0</ele></trkpt>
    <trkpt lat="44.258129" lon="5.595076"><ele>1057.0</ele></trkpt>
    <trkpt lat="44.258324" lon="5.595194"><ele>1058.5</ele></trkpt>
    <trkpt lat="44.258452" lon="5.595322"><ele>1060.0</ele></trkpt>
    <trkpt lat="44.258592" lon="5.595576"><ele>1058.2</ele></trkpt>
    <trkpt lat="44.258716" lon="5.595710"><ele>1058.2</ele></trkpt>
    <trkpt lat="44.258827" lon="5.595807"><ele>1058.8</ele></trkpt>
    <trkpt lat="44.259070" lon="5.595956"><ele>1060.5</ele></trkpt>
    <trkpt lat="44.259324" lon="5.596144"><ele>1060.0</ele></trkpt>
    <trkpt lat="44.259793" lon="5.596412"><ele>1060.8</ele></trkpt>
    <trkpt lat="44.259957" lon="5.596549"><ele>1059.2</ele></trkpt>
    <trkpt lat="44.260217" lon="5.596852"><ele>1055.0</ele></trkpt>
    <trkpt lat="44.260456" lon="5.597145"><ele>1051.2</ele></trkpt>
    <trkpt lat="44.260600" lon="5.597180"><ele>1051.2</ele></trkpt>
    <trkpt lat="44.260860" lon="5.597070"><ele>1054.5</ele></trkpt>
    <trkpt lat="44.261190" lon="5.596820"><ele>1054.2</ele></trkpt>
    <trkpt lat="44.261360" lon="5.596630"><ele>1053.8</ele></trkpt>
    <trkpt lat="44.261510" lon="5.596330"><ele>1054.5</ele></trkpt>
    <trkpt lat="44.261590" lon="5.596070"><ele>1055.5</ele></trkpt>
    <trkpt lat="44.261710" lon="5.595540"><ele>1058.0</ele></trkpt>
    <trkpt lat="44.261770" lon="5.595400"><ele>1058.8</ele></trkpt>
    <trkpt lat="44.261823" lon="5.595303"><ele>1059.0</ele></trkpt>
    <trkpt lat="44.261911" lon="5.595244"><ele>1058.8</ele></trkpt>
    <trkpt lat="44.262025" lon="5.595232"><ele>1058.0</ele></trkpt>
    <trkpt lat="44.262179" lon="5.595238"><ele>1056.8</ele></trkpt>
    <trkpt lat="44.262308" lon="5.595257"><ele>1055.5</ele></trkpt>
    <trkpt lat="44.262664" lon="5.595391"><ele>1053.0</ele></trkpt>
    <trkpt lat="44.262834" lon="5.595551"><ele>1052.0</ele></trkpt>
    <trkpt lat="44.262926" lon="5.595667"><ele>1051.5</ele></trkpt>
    <trkpt lat="44.263093" lon="5.595929"><ele>1051.2</ele></trkpt>
    <trkpt lat="44.263176" lon="5.596087"><ele>1051.8</ele></trkpt>
    <trkpt lat="44.263264" lon="5.596360"><ele>1052.8</ele></trkpt>
    <trkpt lat="44.263322" lon="5.596853"><ele>1054.2</ele></trkpt>
    <trkpt lat="44.263530" lon="5.597390"><ele>1060.0</ele></trkpt>
    <trkpt lat="44.263660" lon="5.597780"><ele>1064.2</ele></trkpt>
    <trkpt lat="44.263700" lon="5.597940"><ele>1065.8</ele></trkpt>
    <trkpt lat="44.263690" lon="5.598217"><ele>1067.0</ele></trkpt>
    <trkpt lat="44.263700" lon="5.598340"><ele>1067.8</ele></trkpt>
    <trkpt lat="44.263760" lon="5.598410"><ele>1069.0</ele></trkpt>
    <trkpt lat="44.263713" lon="5.598519"><ele>1069.5</ele></trkpt>
    <trkpt lat="44.263734" lon="5.598719"><ele>1071.2</ele></trkpt>
    <trkpt lat="44.263831" lon="5.599090"><ele>1074.8</ele></trkpt>
    <trkpt lat="44.263984" lon="5.599745"><ele>1078.8</ele></trkpt>
    <trkpt lat="44.263937" lon="5.599876"><ele>1079.5</ele></trkpt>
    <trkpt lat="44.264037" lon="5.600440"><ele>1084.2</ele></trkpt>
    <trkpt lat="44.264132" lon="5.601101"><ele>1091.8</ele></trkpt>
    <trkpt lat="44.264111" lon="5.601625"><ele>1099.5</ele></trkpt>
    <trkpt lat="44.264047" lon="5.601758"><ele>1102.2</ele></trkpt>
    <trkpt lat="44.263920" lon="5.602112"><ele>1109.0</ele></trkpt>
    <trkpt lat="44.263855" lon="5.602338"><ele>1113.0</ele></trkpt>
    <trkpt lat="44.263788" lon="5.602820"><ele>1120.5</ele></trkpt>
    <trkpt lat="44.263777" lon="5.603481"><ele>1129.5</ele></trkpt>
    <trkpt lat="44.263805" lon="5.604174"><ele>1136.2</ele></trkpt>
    <trkpt lat="44.263811" lon="5.604560"><ele>1140.8</ele></trkpt>
    <trkpt lat="44.263770" lon="5.604808"><ele>1143.0</ele></trkpt>
    <trkpt lat="44.263731" lon="5.605166"><ele>1147.8</ele></trkpt>
    <trkpt lat="44.263630" lon="5.605327"><ele>1148.8</ele></trkpt>
    <trkpt lat="44.263539" lon="5.605413"><ele>1148.5</ele></trkpt>
    <trkpt lat="44.263518" lon="5.605520"><ele>1150.0</ele></trkpt>
    <trkpt lat="44.263475" lon="5.605638"><ele>1151.0</ele></trkpt>
    <trkpt lat="44.263432" lon="5.605681"><ele>1150.8</ele></trkpt>
    <trkpt lat="44.263343" lon="5.605851"><ele>1151.5</ele></trkpt>
    <trkpt lat="44.263167" lon="5.606240"><ele>1159.0</ele></trkpt>
    <trkpt lat="44.263165" lon="5.606324"><ele>1160.5</ele></trkpt>
    <trkpt lat="44.263058" lon="5.606592"><ele>1164.5</ele></trkpt>
    <trkpt lat="44.262905" lon="5.607090"><ele>1170.8</ele></trkpt>
    <trkpt lat="44.262833" lon="5.607373"><ele>1174.0</ele></trkpt>
    <trkpt lat="44.262748" lon="5.607602"><ele>1176.2</ele></trkpt>
    <trkpt lat="44.262686" lon="5.607662"><ele>1176.0</ele></trkpt>
    <trkpt lat="44.262657" lon="5.607841"><ele>1178.8</ele></trkpt>
    <trkpt lat="44.262555" lon="5.607974"><ele>1179.0</ele></trkpt>
    <trkpt lat="44.262476" lon="5.608154"><ele>1181.0</ele></trkpt>
    <trkpt lat="44.262334" lon="5.608610"><ele>1189.0</ele></trkpt>
    <trkpt lat="44.262133" lon="5.609178"><ele>1196.2</ele></trkpt>
    <trkpt lat="44.261932" lon="5.609609"><ele>1201.2</ele></trkpt>
    <trkpt lat="44.261892" lon="5.609808"><ele>1203.5</ele></trkpt>
    <trkpt lat="44.261866" lon="5.610200"><ele>1208.5</ele></trkpt>
    <trkpt lat="44.261793" lon="5.610235"><ele>1208.0</ele></trkpt>
    <trkpt lat="44.261636" lon="5.610358"><ele>1208.0</ele></trkpt>
    <trkpt lat="44.261512" lon="5.610516"><ele>1211.0</ele></trkpt>
    <trkpt lat="44.261459" lon="5.610661"><ele>1212.8</ele></trkpt>
    <trkpt lat="44.261435" lon="5.610842"><ele>1214.0</ele></trkpt>
    <trkpt lat="44.261337" lon="5.611225"><ele>1211.2</ele></trkpt>
    <trkpt lat="44.261238" lon="5.611505"><ele>1209.0</ele></trkpt>
    <trkpt lat="44.261073" lon="5.611675"><ele>1207.2</ele></trkpt>
    <trkpt lat="44.260914" lon="5.611875"><ele>1204.2</ele></trkpt>
    <trkpt lat="44.260821" lon="5.612066"><ele>1202.0</ele></trkpt>
    <trkpt lat="44.260751" lon="5.612393"><ele>1199.5</ele></trkpt>
    <trkpt lat="44.260506" lon="5.612695"><ele>1200.5</ele></trkpt>
    <trkpt lat="44.260442" lon="5.612849"><ele>1199.0</ele></trkpt>
    <trkpt lat="44.260393" lon="5.613086"><ele>1195.5</ele></trkpt>
    <trkpt lat="44.260329" lon="5.613212"><ele>1194.5</ele></trkpt>
    <trkpt lat="44.260177" lon="5.613345"><ele>1194.2</ele></trkpt>
    <trkpt lat="44.259828" lon="5.613607"><ele>1194.8</ele></trkpt>
    <trkpt lat="44.259548" lon="5.613878"><ele>1192.5</ele></trkpt>
    <trkpt lat="44.259190" lon="5.614127"><ele>1190.2</ele></trkpt>
    <trkpt lat="44.259027" lon="5.614275"><ele>1187.2</ele></trkpt>
    <trkpt lat="44.258959" lon="5.614306"><ele>1187.2</ele></trkpt>
    <trkpt lat="44.258870" lon="5.614432"><ele>1183.5</ele></trkpt>
    <trkpt lat="44.258778" lon="5.614528"><ele>1180.5</ele></trkpt>
    <trkpt lat="44.258533" lon="5.614522"><ele>1184.5</ele></trkpt>
    <trkpt lat="44.258297" lon="5.614559"><ele>1186.2</ele></trkpt>
    <trkpt lat="44.257981" lon="5.614676"><ele>1185.8</ele></trkpt>
    <trkpt lat="44.257738" lon="5.614750"><ele>1187.0</ele></trkpt>
    <trkpt lat="44.257509" lon="5.614885"><ele>1186.2</ele></trkpt>
    <trkpt lat="44.257202" lon="5.615104"><ele>1183.0</ele></trkpt>
    <trkpt lat="44.257017" lon="5.615212"><ele>1182.8</ele></trkpt>
    <trkpt lat="44.256809" lon="5.615286"><ele>1184.5</ele></trkpt>
    <trkpt lat="44.256644" lon="5.615363"><ele>1185.0</ele></trkpt>
    <trkpt lat="44.256542" lon="5.615378"><ele>1182.5</ele></trkpt>
    <trkpt lat="44.256478" lon="5.615301"><ele>1183.0</ele></trkpt>
    <trkpt lat="44.256478" lon="5.615175"><ele>1186.0</ele></trkpt>
    <trkpt lat="44.256498" lon="5.615018"><ele>1190.2</ele></trkpt>
    <trkpt lat="44.256417" lon="5.614241"><ele>1200.2</ele></trkpt>
    <trkpt lat="44.256361" lon="5.613986"><ele>1204.0</ele></trkpt>
    <trkpt lat="44.256320" lon="5.613862"><ele>1205.8</ele></trkpt>
    <trkpt lat="44.256222" lon="5.613721"><ele>1206.2</ele></trkpt>
    <trkpt lat="44.256090" lon="5.613554"><ele>1206.2</ele></trkpt>
    <trkpt lat="44.255955" lon="5.613425"><ele>1205.2</ele></trkpt>
    <trkpt lat="44.255763" lon="5.613295"><ele>1203.0</ele></trkpt>
    <trkpt lat="44.255388" lon="5.613089"><ele>1197.8</ele></trkpt>
    <trkpt lat="44.255285" lon="5.612984"><ele>1197.2</ele></trkpt>
    <trkpt lat="44.255216" lon="5.612790"><ele>1199.5</ele></trkpt>
    <trkpt lat="44.255243" lon="5.612417"><ele>1207.2</ele></trkpt>
    <trkpt lat="44.255251" lon="5.612008"><ele>1213.0</ele></trkpt>
    <trkpt lat="44.255190" lon="5.611844"><ele>1213.8</ele></trkpt>
    <trkpt lat="44.255108" lon="5.611699"><ele>1214.0</ele></trkpt>
    <trkpt lat="44.255029" lon="5.611539"><ele>1212.8</ele></trkpt>
    <trkpt lat="44.254980" lon="5.611370"><ele>1212.0</ele></trkpt>
    <trkpt lat="44.254998" lon="5.611262"><ele>1212.8</ele></trkpt>
    <trkpt lat="44.255083" lon="5.611228"><ele>1215.0</ele></trkpt>
    <trkpt lat="44.255252" lon="5.611244"><ele>1219.0</ele></trkpt>
    <trkpt lat="44.255440" lon="5.611182"><ele>1223.8</ele></trkpt>
    <trkpt lat="44.255696" lon="5.611050"><ele>1230.5</ele></trkpt>
    <trkpt lat="44.255941" lon="5.610803"><ele>1238.0</ele></trkpt>
    <trkpt lat="44.255963" lon="5.610563"><ele>1237.5</ele></trkpt>
    <trkpt lat="44.256029" lon="5.610366"><ele>1238.8</ele></trkpt>
    <trkpt lat="44.256193" lon="5.610138"><ele>1244.0</ele></trkpt>
    <trkpt lat="44.256243" lon="5.609940"><ele>1245.8</ele></trkpt>
    <trkpt lat="44.256263" lon="5.609626"><ele>1246.5</ele></trkpt>
    <trkpt lat="44.256250" lon="5.609346"><ele>1246.2</ele></trkpt>
    <trkpt lat="44.256257" lon="5.609056"><ele>1247.0</ele></trkpt>
    <trkpt lat="44.256314" lon="5.608277"><ele>1251.5</ele></trkpt>
    <trkpt lat="44.256294" lon="5.607978"><ele>1250.8</ele></trkpt>
    <trkpt lat="44.256223" lon="5.607414"><ele>1248.0</ele></trkpt>
    <trkpt lat="44.256098" lon="5.606280"><ele>1250.2</ele></trkpt>
    <trkpt lat="44.255985" lon="5.605673"><ele>1251.8</ele></trkpt>
    <trkpt lat="44.255921" lon="5.605454"><ele>1251.8</ele></trkpt>
    <trkpt lat="44.255792" lon="5.605207"><ele>1248.5</ele></trkpt>
    <trkpt lat="44.255921" lon="5.605454"><ele>1251.8</ele></trkpt>
    <trkpt lat="44.255985" lon="5.605673"><ele>1251.8</ele></trkpt>
    <trkpt lat="44.256098" lon="5.606280"><ele>1250.2</ele></trkpt>
    <trkpt lat="44.256223" lon="5.607414"><ele>1248.0</ele></trkpt>
    <trkpt lat="44.256294" lon="5.607978"><ele>1250.8</ele></trkpt>
    <trkpt lat="44.256314" lon="5.608277"><ele>1251.5</ele></trkpt>
    <trkpt lat="44.256257" lon="5.609056"><ele>1247.0</ele></trkpt>
    <trkpt lat="44.256250" lon="5.609346"><ele>1246.2</ele></trkpt>
    <trkpt lat="44.256263" lon="5.609626"><ele>1246.5</ele></trkpt>
    <trkpt lat="44.256243" lon="5.609940"><ele>1245.8</ele></trkpt>
    <trkpt lat="44.256193" lon="5.610138"><ele>1244.0</ele></trkpt>
    <trkpt lat="44.256029" lon="5.610366"><ele>1238.8</ele></trkpt>
    <trkpt lat="44.255963" lon="5.610563"><ele>1237.5</ele></trkpt>
    <trkpt lat="44.255941" lon="5.610803"><ele>1238.0</ele></trkpt>
    <trkpt lat="44.255696" lon="5.611050"><ele>1230.5</ele></trkpt>
    <trkpt lat="44.255440" lon="5.611182"><ele>1223.8</ele></trkpt>
    <trkpt lat="44.255252" lon="5.611244"><ele>1219.0</ele></trkpt>
    <trkpt lat="44.255083" lon="5.611228"><ele>1215.0</ele></trkpt>
    <trkpt lat="44.254998" lon="5.611262"><ele>1212.8</ele></trkpt>
    <trkpt lat="44.254980" lon="5.611370"><ele>1212.0</ele></trkpt>
    <trkpt lat="44.255029" lon="5.611539"><ele>1212.8</ele></trkpt>
    <trkpt lat="44.255108" lon="5.611699"><ele>1214.0</ele></trkpt>
    <trkpt lat="44.255190" lon="5.611844"><ele>1213.8</ele></trkpt>
    <trkpt lat="44.255251" lon="5.612008"><ele>1213.0</ele></trkpt>
    <trkpt lat="44.255243" lon="5.612417"><ele>1207.2</ele></trkpt>
    <trkpt lat="44.255216" lon="5.612790"><ele>1199.5</ele></trkpt>
    <trkpt lat="44.255285" lon="5.612984"><ele>1197.2</ele></trkpt>
    <trkpt lat="44.255388" lon="5.613089"><ele>1197.8</ele></trkpt>
    <trkpt lat="44.255763" lon="5.613295"><ele>1203.0</ele></trkpt>
    <trkpt lat="44.255955" lon="5.613425"><ele>1205.2</ele></trkpt>
    <trkpt lat="44.256090" lon="5.613554"><ele>1206.2</ele></trkpt>
    <trkpt lat="44.256222" lon="5.613721"><ele>1206.2</ele></trkpt>
    <trkpt lat="44.256320" lon="5.613862"><ele>1205.8</ele></trkpt>
    <trkpt lat="44.256361" lon="5.613986"><ele>1204.0</ele></trkpt>
    <trkpt lat="44.256417" lon="5.614241"><ele>1200.2</ele></trkpt>
    <trkpt lat="44.256498" lon="5.615018"><ele>1190.2</ele></trkpt>
    <trkpt lat="44.256478" lon="5.615175"><ele>1186.0</ele></trkpt>
    <trkpt lat="44.256478" lon="5.615301"><ele>1183.0</ele></trkpt>
    <trkpt lat="44.256542" lon="5.615378"><ele>1182.5</ele></trkpt>
    <trkpt lat="44.256644" lon="5.615363"><ele>1185.0</ele></trkpt>
    <trkpt lat="44.256809" lon="5.615286"><ele>1184.5</ele></trkpt>
    <trkpt lat="44.257017" lon="5.615212"><ele>1182.8</ele></trkpt>
    <trkpt lat="44.257202" lon="5.615104"><ele>1183.0</ele></trkpt>
    <trkpt lat="44.257509" lon="5.614885"><ele>1186.2</ele></trkpt>
    <trkpt lat="44.257738" lon="5.614750"><ele>1187.0</ele></trkpt>
    <trkpt lat="44.257950" lon="5.614685"><ele>1185.8</ele></trkpt>
  </trkseg></trk></gpx>