<?xml version="1.0" encoding="UTF-8"?>
<gpx version="1.1" creator="Chemins Noirs — Boucles Visorando Baronnies"
  xmlns="http://www.topografix.com/GPX/1/1"
  xmlns:xsi="http://www.w3.org/2001/XMLSchema-instance"
  xsi:schemaLocation="http://www.topografix.com/GPX/1/1 http://www.topografix.com/GPX/1/1/gpx.xsd">
<metadata><name>J3 — Les 6 Cols à partir de Rochebrune</name>
<desc>Boucle Visorando depuis Rochebrune. 6 cols enchaînés, bergerie, lavandes. — 15.04 km, +564m. Suivre balisage PR jaune sur le terrain.</desc></metadata>
<wpt lat="44.336286" lon="5.244982"><ele>575</ele>
  <name>🅿️ Départ Rochebrune</name><sym>Flag, Green</sym></wpt>
<wpt lat="44.330000" lon="5.258000"><ele>718</ele>
  <name>Col de Serriès</name><sym>Flag, Green</sym></wpt>
<wpt lat="44.325000" lon="5.262000"><ele>597</ele>
  <name>Chemin du Villard</name><sym>Flag, Green</sym></wpt>
<wpt lat="44.318000" lon="5.265000"><ele>723</ele>
  <name>Col des Lantons</name><sym>Flag, Green</sym></wpt>
<wpt lat="44.310000" lon="5.253000"><ele>893</ele>
  <name>Col de Linceuil</name><sym>Flag, Green</sym></wpt>
<wpt lat="44.308000" lon="5.250000"><ele>932</ele>
  <name>Bergerie — point haut</name><sym>Flag, Green</sym></wpt>
<wpt lat="44.315000" lon="5.248000"><ele>918</ele>
  <name>Col de Saint-Vincent</name><sym>Flag, Green</sym></wpt>
<wpt lat="44.330000" lon="5.245000"><ele>723</ele>
  <name>Col de la Croix</name><sym>Flag, Green</sym></wpt>
<wpt lat="44.332000" lon="5.248000"><ele>663</ele>
  <name>Pont Ruisseau Combebelle</name><sym>Flag, Green</sym></wpt>
<wpt lat="44.336286" lon="5.244982"><ele>575</ele>
  <name>🅿️ Retour Rochebrune</name><sym>Flag, Green</sym></wpt>
<trk><name>J3 — Les 6 Cols à partir de Rochebrune</name>
  <desc>Boucle Visorando depuis Rochebrune. 6 cols enchaînés, bergerie, lavandes.</desc><trkseg>
    <trkpt lat="44.336286" lon="5.244982"><ele>575.0</ele></trkpt>
    <trkpt lat="44.330000" lon="5.258000"><ele>718.0</ele></trkpt>
    <trkpt lat="44.325000" lon="5.262000"><ele>597.0</ele></trkpt>
    <trkpt lat="44.318000" lon="5.265000"><ele>723.0</ele></trkpt>
    <trkpt lat="44.310000" lon="5.253000"><ele>893.0</ele></trkpt>
    <trkpt lat="44.308000" lon="5.250000"><ele>932.0</ele></trkpt>
    <trkpt lat="44.315000" lon="5.248000"><ele>918.0</ele></trkpt>
    <trkpt lat="44.330000" lon="5.245000"><ele>723.0</ele></trkpt>
    <trkpt lat="44.332000" lon="5.248000"><ele>663.0</ele></trkpt>
    <trkpt lat="44.336286" lon="5.244982"><ele>575.0</ele></trkpt>
  </trkseg></trk></gpx>