<?xml version="1.0" encoding="UTF-8"?>
<gpx version="1.1" creator="Chemins Noirs + BRouter hiking-mountain"
  xmlns="http://www.topografix.com/GPX/1/1" xmlns:xsi="http://www.w3.org/2001/XMLSchema-instance"
  xsi:schemaLocation="http://www.topografix.com/GPX/1/1 http://www.topografix.com/GPX/1/1/gpx.xsd">
<metadata><name>J4 — Rocher du Caire + Vautours fauves</name>
<desc>🦅 Falaise panoramique, observation vautours fauves en vol. Accès facile depuis Saint-May. — 13.6km +653m. Tracé BRouter sentiers OSM.</desc></metadata>
<wpt lat="44.427900" lon="5.318500"><name>🅿️ Parking village Saint-May</name><sym>Parking Area</sym></wpt>
<trk><name>J4 — Rocher du Caire + Vautours fauves</name><desc>🦅 Falaise panoramique, observation vautours fauves en vol. Accès facile depuis Saint-May.</desc><trkseg>
    <trkpt lat="44.427900" lon="5.318478"><ele>450.0</ele></trkpt>
    <trkpt lat="44.427722" lon="5.318447"><ele>453.2</ele></trkpt>
    <trkpt lat="44.427448" lon="5.318381"><ele>456.5</ele></trkpt>
    <trkpt lat="44.427342" lon="5.318335"><ele>455.8</ele></trkpt>
    <trkpt lat="44.427227" lon="5.318244"><ele>454.0</ele></trkpt>
    <trkpt lat="44.427090" lon="5.318118"><ele>452.5</ele></trkpt>
    <trkpt lat="44.427024" lon="5.318072"><ele>452.2</ele></trkpt>
    <trkpt lat="44.426954" lon="5.318043"><ele>452.2</ele></trkpt>
    <trkpt lat="44.426961" lon="5.318170"><ele>454.5</ele></trkpt>
    <trkpt lat="44.426985" lon="5.318314"><ele>457.0</ele></trkpt>
    <trkpt lat="44.426976" lon="5.318405"><ele>458.8</ele></trkpt>
    <trkpt lat="44.426962" lon="5.318548"><ele>461.8</ele></trkpt>
    <trkpt lat="44.426965" lon="5.318627"><ele>463.2</ele></trkpt>
    <trkpt lat="44.426984" lon="5.318669"><ele>464.0</ele></trkpt>
    <trkpt lat="44.427028" lon="5.318708"><ele>465.0</ele></trkpt>
    <trkpt lat="44.427119" lon="5.318759"><ele>466.5</ele></trkpt>
    <trkpt lat="44.427194" lon="5.318856"><ele>469.2</ele></trkpt>
    <trkpt lat="44.427265" lon="5.318976"><ele>472.8</ele></trkpt>
    <trkpt lat="44.427346" lon="5.319095"><ele>476.8</ele></trkpt>
    <trkpt lat="44.427419" lon="5.319155"><ele>479.5</ele></trkpt>
    <trkpt lat="44.427469" lon="5.319314"><ele>485.0</ele></trkpt>
    <trkpt lat="44.427511" lon="5.319384"><ele>487.0</ele></trkpt>
    <trkpt lat="44.427647" lon="5.319529"><ele>487.2</ele></trkpt>
    <trkpt lat="44.427776" lon="5.319660"><ele>486.8</ele></trkpt>
    <trkpt lat="44.427805" lon="5.319724"><ele>487.5</ele></trkpt>
    <trkpt lat="44.427870" lon="5.320029"><ele>493.0</ele></trkpt>
    <trkpt lat="44.427950" lon="5.320220"><ele>495.8</ele></trkpt>
    <trkpt lat="44.427938" lon="5.320244"><ele>496.8</ele></trkpt>
    <trkpt lat="44.427939" lon="5.320284"><ele>498.0</ele></trkpt>
    <trkpt lat="44.427962" lon="5.320345"><ele>498.8</ele></trkpt>
    <trkpt lat="44.428051" lon="5.320528"><ele>500.2</ele></trkpt>
    <trkpt lat="44.428089" lon="5.320636"><ele>501.5</ele></trkpt>
    <trkpt lat="44.428200" lon="5.320998"><ele>508.2</ele></trkpt>
    <trkpt lat="44.428317" lon="5.321432"><ele>514.5</ele></trkpt>
    <trkpt lat="44.428390" lon="5.321663"><ele>516.2</ele></trkpt>
    <trkpt lat="44.428548" lon="5.322122"><ele>527.5</ele></trkpt>
    <trkpt lat="44.428823" lon="5.322874"><ele>533.2</ele></trkpt>
    <trkpt lat="44.429031" lon="5.323386"><ele>531.8</ele></trkpt>
    <trkpt lat="44.429287" lon="5.324072"><ele>540.2</ele></trkpt>
    <trkpt lat="44.429380" lon="5.324282"><ele>543.0</ele></trkpt>
    <trkpt lat="44.429537" lon="5.324570"><ele>544.5</ele></trkpt>
    <trkpt lat="44.429646" lon="5.324825"><ele>546.5</ele></trkpt>
    <trkpt lat="44.429755" lon="5.324998"><ele>544.8</ele></trkpt>
    <trkpt lat="44.430046" lon="5.325535"><ele>545.0</ele></trkpt>
    <trkpt lat="44.430090" lon="5.325570"><ele>545.2</ele></trkpt>
    <trkpt lat="44.430143" lon="5.325594"><ele>544.5</ele></trkpt>
    <trkpt lat="44.430208" lon="5.325597"><ele>543.0</ele></trkpt>
    <trkpt lat="44.430275" lon="5.325614"><ele>541.8</ele></trkpt>
    <trkpt lat="44.430330" lon="5.325655"><ele>541.2</ele></trkpt>
    <trkpt lat="44.430368" lon="5.325704"><ele>541.5</ele></trkpt>
    <trkpt lat="44.430403" lon="5.325781"><ele>542.2</ele></trkpt>
    <trkpt lat="44.430483" lon="5.326024"><ele>546.0</ele></trkpt>
    <trkpt lat="44.430518" lon="5.326361"><ele>554.0</ele></trkpt>
    <trkpt lat="44.430534" lon="5.326428"><ele>555.2</ele></trkpt>
    <trkpt lat="44.430578" lon="5.326561"><ele>557.0</ele></trkpt>
    <trkpt lat="44.430664" lon="5.326691"><ele>556.8</ele></trkpt>
    <trkpt lat="44.430781" lon="5.326913"><ele>557.0</ele></trkpt>
    <trkpt lat="44.430825" lon="5.326978"><ele>556.8</ele></trkpt>
    <trkpt lat="44.430889" lon="5.327036"><ele>558.2</ele></trkpt>
    <trkpt lat="44.430992" lon="5.327102"><ele>560.5</ele></trkpt>
    <trkpt lat="44.431120" lon="5.327170"><ele>563.0</ele></trkpt>
    <trkpt lat="44.431195" lon="5.327235"><ele>564.8</ele></trkpt>
    <trkpt lat="44.431293" lon="5.327344"><ele>567.2</ele></trkpt>
    <trkpt lat="44.431329" lon="5.327353"><ele>567.5</ele></trkpt>
    <trkpt lat="44.431364" lon="5.327341"><ele>567.5</ele></trkpt>
    <trkpt lat="44.431408" lon="5.327293"><ele>567.0</ele></trkpt>
    <trkpt lat="44.431430" lon="5.327223"><ele>566.0</ele></trkpt>
    <trkpt lat="44.431442" lon="5.327115"><ele>564.5</ele></trkpt>
    <trkpt lat="44.431488" lon="5.326936"><ele>562.2</ele></trkpt>
    <trkpt lat="44.431600" lon="5.326748"><ele>561.0</ele></trkpt>
    <trkpt lat="44.431674" lon="5.326647"><ele>561.0</ele></trkpt>
    <trkpt lat="44.431718" lon="5.326598"><ele>563.0</ele></trkpt>
    <trkpt lat="44.431928" lon="5.326506"><ele>573.5</ele></trkpt>
    <trkpt lat="44.432010" lon="5.326382"><ele>577.2</ele></trkpt>
    <trkpt lat="44.432039" lon="5.326352"><ele>578.5</ele></trkpt>
    <trkpt lat="44.432068" lon="5.326349"><ele>580.2</ele></trkpt>
    <trkpt lat="44.432087" lon="5.326370"><ele>581.2</ele></trkpt>
    <trkpt lat="44.432090" lon="5.326396"><ele>581.5</ele></trkpt>
    <trkpt lat="44.432085" lon="5.326447"><ele>581.8</ele></trkpt>
    <trkpt lat="44.431907" lon="5.327255"><ele>580.2</ele></trkpt>
    <trkpt lat="44.431893" lon="5.327400"><ele>581.2</ele></trkpt>
    <trkpt lat="44.431906" lon="5.327624"><ele>584.2</ele></trkpt>
    <trkpt lat="44.431960" lon="5.328105"><ele>592.0</ele></trkpt>
    <trkpt lat="44.431993" lon="5.328342"><ele>595.8</ele></trkpt>
    <trkpt lat="44.432047" lon="5.328636"><ele>602.5</ele></trkpt>
    <trkpt lat="44.432066" lon="5.328607"><ele>602.8</ele></trkpt>
    <trkpt lat="44.432087" lon="5.328550"><ele>602.2</ele></trkpt>
    <trkpt lat="44.432079" lon="5.328435"><ele>600.2</ele></trkpt>
    <trkpt lat="44.432086" lon="5.328384"><ele>599.8</ele></trkpt>
    <trkpt lat="44.432102" lon="5.328327"><ele>599.5</ele></trkpt>
    <trkpt lat="44.432127" lon="5.328281"><ele>600.0</ele></trkpt>
    <trkpt lat="44.432176" lon="5.328210"><ele>601.2</ele></trkpt>
    <trkpt lat="44.432225" lon="5.328137"><ele>602.8</ele></trkpt>
    <trkpt lat="44.432310" lon="5.327941"><ele>605.2</ele></trkpt>
    <trkpt lat="44.432349" lon="5.327810"><ele>606.5</ele></trkpt>
    <trkpt lat="44.432372" lon="5.327756"><ele>607.2</ele></trkpt>
    <trkpt lat="44.432380" lon="5.327749"><ele>607.8</ele></trkpt>
    <trkpt lat="44.432394" lon="5.327752"><ele>608.2</ele></trkpt>
    <trkpt lat="44.432411" lon="5.327902"><ele>609.5</ele></trkpt>
    <trkpt lat="44.432444" lon="5.328055"><ele>611.2</ele></trkpt>
    <trkpt lat="44.432473" lon="5.328126"><ele>612.5</ele></trkpt>
    <trkpt lat="44.432492" lon="5.328208"><ele>613.5</ele></trkpt>
    <trkpt lat="44.432589" lon="5.328455"><ele>619.8</ele></trkpt>
    <trkpt lat="44.432656" lon="5.328555"><ele>624.2</ele></trkpt>
    <trkpt lat="44.432666" lon="5.328586"><ele>625.0</ele></trkpt>
    <trkpt lat="44.432680" lon="5.328686"><ele>626.0</ele></trkpt>
    <trkpt lat="44.432703" lon="5.328755"><ele>627.5</ele></trkpt>
    <trkpt lat="44.432731" lon="5.328794"><ele>629.2</ele></trkpt>
    <trkpt lat="44.432755" lon="5.328806"><ele>630.8</ele></trkpt>
    <trkpt lat="44.432772" lon="5.328829"><ele>631.8</ele></trkpt>
    <trkpt lat="44.432777" lon="5.328846"><ele>632.0</ele></trkpt>
    <trkpt lat="44.432772" lon="5.328906"><ele>631.8</ele></trkpt>
    <trkpt lat="44.432781" lon="5.329057"><ele>632.5</ele></trkpt>
    <trkpt lat="44.432796" lon="5.329083"><ele>633.2</ele></trkpt>
    <trkpt lat="44.432830" lon="5.329114"><ele>635.2</ele></trkpt>
    <trkpt lat="44.432836" lon="5.329110"><ele>635.5</ele></trkpt>
    <trkpt lat="44.432852" lon="5.329069"><ele>636.2</ele></trkpt>
    <trkpt lat="44.432863" lon="5.328963"><ele>637.0</ele></trkpt>
    <trkpt lat="44.432871" lon="5.328945"><ele>637.2</ele></trkpt>
    <trkpt lat="44.432883" lon="5.328936"><ele>638.0</ele></trkpt>
    <trkpt lat="44.432897" lon="5.328942"><ele>638.8</ele></trkpt>
    <trkpt lat="44.432930" lon="5.329061"><ele>640.5</ele></trkpt>
    <trkpt lat="44.432951" lon="5.329112"><ele>641.8</ele></trkpt>
    <trkpt lat="44.433016" lon="5.329170"><ele>645.0</ele></trkpt>
    <trkpt lat="44.433041" lon="5.329207"><ele>646.5</ele></trkpt>
    <trkpt lat="44.433044" lon="5.329329"><ele>647.0</ele></trkpt>
    <trkpt lat="44.433061" lon="5.329353"><ele>648.0</ele></trkpt>
    <trkpt lat="44.433115" lon="5.329394"><ele>650.5</ele></trkpt>
    <trkpt lat="44.433188" lon="5.329506"><ele>654.0</ele></trkpt>
    <trkpt lat="44.433213" lon="5.329517"><ele>655.2</ele></trkpt>
    <trkpt lat="44.433301" lon="5.329476"><ele>659.2</ele></trkpt>
    <trkpt lat="44.433345" lon="5.329473"><ele>661.5</ele></trkpt>
    <trkpt lat="44.433391" lon="5.329489"><ele>664.5</ele></trkpt>
    <trkpt lat="44.433499" lon="5.329584"><ele>671.0</ele></trkpt>
    <trkpt lat="44.433511" lon="5.329605"><ele>671.8</ele></trkpt>
    <trkpt lat="44.433515" lon="5.329647"><ele>671.8</ele></trkpt>
    <trkpt lat="44.433506" lon="5.329675"><ele>671.2</ele></trkpt>
    <trkpt lat="44.433462" lon="5.329721"><ele>668.2</ele></trkpt>
    <trkpt lat="44.433414" lon="5.329810"><ele>664.8</ele></trkpt>
    <trkpt lat="44.433395" lon="5.329910"><ele>663.0</ele></trkpt>
    <trkpt lat="44.433352" lon="5.330047"><ele>660.5</ele></trkpt>
    <trkpt lat="44.433361" lon="5.330096"><ele>661.5</ele></trkpt>
    <trkpt lat="44.433357" lon="5.330153"><ele>661.8</ele></trkpt>
    <trkpt lat="44.433405" lon="5.330417"><ele>667.2</ele></trkpt>
    <trkpt lat="44.433422" lon="5.330479"><ele>668.8</ele></trkpt>
    <trkpt lat="44.433493" lon="5.330672"><ele>674.8</ele></trkpt>
    <trkpt lat="44.433561" lon="5.330802"><ele>679.8</ele></trkpt>
    <trkpt lat="44.433576" lon="5.330808"><ele>680.8</ele></trkpt>
    <trkpt lat="44.433605" lon="5.330750"><ele>681.8</ele></trkpt>
    <trkpt lat="44.433653" lon="5.330854"><ele>685.5</ele></trkpt>
    <trkpt lat="44.433690" lon="5.330723"><ele>686.8</ele></trkpt>
    <trkpt lat="44.433725" lon="5.330653"><ele>688.2</ele></trkpt>
    <trkpt lat="44.433743" lon="5.330652"><ele>689.2</ele></trkpt>
    <trkpt lat="44.433798" lon="5.330840"><ele>693.8</ele></trkpt>
    <trkpt lat="44.433843" lon="5.330867"><ele>696.8</ele></trkpt>
    <trkpt lat="44.433779" lon="5.331092"><ele>696.2</ele></trkpt>
    <trkpt lat="44.433673" lon="5.331242"><ele>692.8</ele></trkpt>
    <trkpt lat="44.433635" lon="5.331293"><ele>691.5</ele></trkpt>
    <trkpt lat="44.433532" lon="5.331393"><ele>687.8</ele></trkpt>
    <trkpt lat="44.433290" lon="5.331578"><ele>680.8</ele></trkpt>
    <trkpt lat="44.433225" lon="5.331620"><ele>681.2</ele></trkpt>
    <trkpt lat="44.433203" lon="5.331646"><ele>681.8</ele></trkpt>
    <trkpt lat="44.433169" lon="5.331720"><ele>683.0</ele></trkpt>
    <trkpt lat="44.433145" lon="5.331853"><ele>685.5</ele></trkpt>
    <trkpt lat="44.433124" lon="5.331892"><ele>686.2</ele></trkpt>
    <trkpt lat="44.433097" lon="5.331898"><ele>686.2</ele></trkpt>
    <trkpt lat="44.433058" lon="5.331946"><ele>687.2</ele></trkpt>
    <trkpt lat="44.432974" lon="5.331847"><ele>684.8</ele></trkpt>
    <trkpt lat="44.432924" lon="5.331808"><ele>683.5</ele></trkpt>
    <trkpt lat="44.432908" lon="5.331786"><ele>683.0</ele></trkpt>
    <trkpt lat="44.432879" lon="5.331717"><ele>681.2</ele></trkpt>
    <trkpt lat="44.432820" lon="5.331654"><ele>679.5</ele></trkpt>
    <trkpt lat="44.432707" lon="5.331467"><ele>673.8</ele></trkpt>
    <trkpt lat="44.432624" lon="5.331392"><ele>671.0</ele></trkpt>
    <trkpt lat="44.432596" lon="5.331330"><ele>669.0</ele></trkpt>
    <trkpt lat="44.432573" lon="5.331305"><ele>668.2</ele></trkpt>
    <trkpt lat="44.432463" lon="5.331250"><ele>666.0</ele></trkpt>
    <trkpt lat="44.432432" lon="5.331246"><ele>666.0</ele></trkpt>
    <trkpt lat="44.432397" lon="5.331223"><ele>665.2</ele></trkpt>
    <trkpt lat="44.432307" lon="5.331240"><ele>666.0</ele></trkpt>
    <trkpt lat="44.432277" lon="5.331224"><ele>665.8</ele></trkpt>
    <trkpt lat="44.432229" lon="5.331214"><ele>665.5</ele></trkpt>
    <trkpt lat="44.432166" lon="5.331216"><ele>665.8</ele></trkpt>
    <trkpt lat="44.432119" lon="5.331195"><ele>665.5</ele></trkpt>
    <trkpt lat="44.432026" lon="5.331177"><ele>665.2</ele></trkpt>
    <trkpt lat="44.431868" lon="5.331310"><ele>668.8</ele></trkpt>
    <trkpt lat="44.432272" lon="5.331463"><ele>672.0</ele></trkpt>
    <trkpt lat="44.432451" lon="5.331508"><ele>673.2</ele></trkpt>
    <trkpt lat="44.432483" lon="5.331525"><ele>673.8</ele></trkpt>
    <trkpt lat="44.432492" lon="5.331560"><ele>674.8</ele></trkpt>
    <trkpt lat="44.432486" lon="5.331593"><ele>675.8</ele></trkpt>
    <trkpt lat="44.432461" lon="5.331620"><ele>676.5</ele></trkpt>
    <trkpt lat="44.432429" lon="5.331624"><ele>676.5</ele></trkpt>
    <trkpt lat="44.432282" lon="5.331612"><ele>676.0</ele></trkpt>
    <trkpt lat="44.432214" lon="5.331617"><ele>676.0</ele></trkpt>
    <trkpt lat="44.432148" lon="5.331627"><ele>676.0</ele></trkpt>
    <trkpt lat="44.432061" lon="5.331667"><ele>676.8</ele></trkpt>
    <trkpt lat="44.431762" lon="5.331860"><ele>680.0</ele></trkpt>
    <trkpt lat="44.431687" lon="5.331926"><ele>681.0</ele></trkpt>
    <trkpt lat="44.431626" lon="5.332001"><ele>681.8</ele></trkpt>
    <trkpt lat="44.431493" lon="5.332299"><ele>684.8</ele></trkpt>
    <trkpt lat="44.431344" lon="5.332575"><ele>686.2</ele></trkpt>
    <trkpt lat="44.431263" lon="5.332855"><ele>688.8</ele></trkpt>
    <trkpt lat="44.431090" lon="5.333306"><ele>691.8</ele></trkpt>
    <trkpt lat="44.431050" lon="5.333462"><ele>692.0</ele></trkpt>
    <trkpt lat="44.431041" lon="5.333581"><ele>692.5</ele></trkpt>
    <trkpt lat="44.431048" lon="5.333708"><ele>693.5</ele></trkpt>
    <trkpt lat="44.431078" lon="5.333857"><ele>695.0</ele></trkpt>
    <trkpt lat="44.431118" lon="5.333990"><ele>696.8</ele></trkpt>
    <trkpt lat="44.431241" lon="5.334286"><ele>700.5</ele></trkpt>
    <trkpt lat="44.431329" lon="5.334477"><ele>702.8</ele></trkpt>
    <trkpt lat="44.431405" lon="5.334695"><ele>704.8</ele></trkpt>
    <trkpt lat="44.431434" lon="5.334809"><ele>705.5</ele></trkpt>
    <trkpt lat="44.431470" lon="5.334913"><ele>706.5</ele></trkpt>
    <trkpt lat="44.431521" lon="5.335028"><ele>708.0</ele></trkpt>
    <trkpt lat="44.431651" lon="5.335231"><ele>713.2</ele></trkpt>
    <trkpt lat="44.431740" lon="5.335342"><ele>716.2</ele></trkpt>
    <trkpt lat="44.431824" lon="5.335429"><ele>719.0</ele></trkpt>
    <trkpt lat="44.431901" lon="5.335493"><ele>721.2</ele></trkpt>
    <trkpt lat="44.431924" lon="5.335532"><ele>722.0</ele></trkpt>
    <trkpt lat="44.431934" lon="5.335575"><ele>722.5</ele></trkpt>
    <trkpt lat="44.431931" lon="5.335621"><ele>722.8</ele></trkpt>
    <trkpt lat="44.431902" lon="5.335678"><ele>722.5</ele></trkpt>
    <trkpt lat="44.431840" lon="5.335748"><ele>721.2</ele></trkpt>
    <trkpt lat="44.431633" lon="5.335936"><ele>719.5</ele></trkpt>
    <trkpt lat="44.431399" lon="5.336101"><ele>718.5</ele></trkpt>
    <trkpt lat="44.431379" lon="5.336145"><ele>719.0</ele></trkpt>
    <trkpt lat="44.431375" lon="5.336198"><ele>720.0</ele></trkpt>
    <trkpt lat="44.431391" lon="5.336242"><ele>721.0</ele></trkpt>
    <trkpt lat="44.431418" lon="5.336258"><ele>722.0</ele></trkpt>
    <trkpt lat="44.431465" lon="5.336258"><ele>722.8</ele></trkpt>
    <trkpt lat="44.431732" lon="5.336216"><ele>727.0</ele></trkpt>
    <trkpt lat="44.432033" lon="5.336211"><ele>733.0</ele></trkpt>
    <trkpt lat="44.432105" lon="5.336203"><ele>734.2</ele></trkpt>
    <trkpt lat="44.432156" lon="5.336192"><ele>735.0</ele></trkpt>
    <trkpt lat="44.432263" lon="5.336133"><ele>736.2</ele></trkpt>
    <trkpt lat="44.432332" lon="5.336122"><ele>737.5</ele></trkpt>
    <trkpt lat="44.432417" lon="5.336118"><ele>739.2</ele></trkpt>
    <trkpt lat="44.432653" lon="5.336133"><ele>744.8</ele></trkpt>
    <trkpt lat="44.432685" lon="5.336130"><ele>745.5</ele></trkpt>
    <trkpt lat="44.432717" lon="5.336110"><ele>746.0</ele></trkpt>
    <trkpt lat="44.432738" lon="5.336064"><ele>746.0</ele></trkpt>
    <trkpt lat="44.432748" lon="5.335967"><ele>745.0</ele></trkpt>
    <trkpt lat="44.432701" lon="5.335771"><ele>742.0</ele></trkpt>
    <trkpt lat="44.432684" lon="5.335667"><ele>741.5</ele></trkpt>
    <trkpt lat="44.432660" lon="5.335391"><ele>740.5</ele></trkpt>
    <trkpt lat="44.432652" lon="5.335234"><ele>740.2</ele></trkpt>
    <trkpt lat="44.432652" lon="5.335101"><ele>740.2</ele></trkpt>
    <trkpt lat="44.432677" lon="5.334920"><ele>740.0</ele></trkpt>
    <trkpt lat="44.432698" lon="5.334812"><ele>739.8</ele></trkpt>
    <trkpt lat="44.432724" lon="5.334752"><ele>739.8</ele></trkpt>
    <trkpt lat="44.432768" lon="5.334688"><ele>740.2</ele></trkpt>
    <trkpt lat="44.432849" lon="5.334647"><ele>742.0</ele></trkpt>
    <trkpt lat="44.433227" lon="5.334428"><ele>748.2</ele></trkpt>
    <trkpt lat="44.433436" lon="5.334328"><ele>750.2</ele></trkpt>
    <trkpt lat="44.433462" lon="5.334324"><ele>750.5</ele></trkpt>
    <trkpt lat="44.433477" lon="5.334341"><ele>751.0</ele></trkpt>
    <trkpt lat="44.433482" lon="5.334367"><ele>751.5</ele></trkpt>
    <trkpt lat="44.433420" lon="5.334512"><ele>753.0</ele></trkpt>
    <trkpt lat="44.433408" lon="5.334560"><ele>753.5</ele></trkpt>
    <trkpt lat="44.433388" lon="5.334782"><ele>756.8</ele></trkpt>
    <trkpt lat="44.433353" lon="5.334936"><ele>758.2</ele></trkpt>
    <trkpt lat="44.433345" lon="5.335008"><ele>759.0</ele></trkpt>
    <trkpt lat="44.433335" lon="5.335177"><ele>758.8</ele></trkpt>
    <trkpt lat="44.433338" lon="5.335242"><ele>758.8</ele></trkpt>
    <trkpt lat="44.433358" lon="5.335321"><ele>759.0</ele></trkpt>
    <trkpt lat="44.433426" lon="5.335435"><ele>760.8</ele></trkpt>
    <trkpt lat="44.433651" lon="5.335738"><ele>767.5</ele></trkpt>
    <trkpt lat="44.433826" lon="5.335977"><ele>774.5</ele></trkpt>
    <trkpt lat="44.434012" lon="5.336262"><ele>782.5</ele></trkpt>
    <trkpt lat="44.434057" lon="5.336341"><ele>784.2</ele></trkpt>
    <trkpt lat="44.434066" lon="5.336374"><ele>784.8</ele></trkpt>
    <trkpt lat="44.434067" lon="5.336404"><ele>785.0</ele></trkpt>
    <trkpt lat="44.434056" lon="5.336431"><ele>785.0</ele></trkpt>
    <trkpt lat="44.433917" lon="5.336551"><ele>782.0</ele></trkpt>
    <trkpt lat="44.433826" lon="5.336649"><ele>780.2</ele></trkpt>
    <trkpt lat="44.433662" lon="5.336862"><ele>780.5</ele></trkpt>
    <trkpt lat="44.433606" lon="5.336905"><ele>780.0</ele></trkpt>
    <trkpt lat="44.433386" lon="5.337019"><ele>776.8</ele></trkpt>
    <trkpt lat="44.433260" lon="5.337120"><ele>775.8</ele></trkpt>
    <trkpt lat="44.433118" lon="5.337280"><ele>775.8</ele></trkpt>
    <trkpt lat="44.433053" lon="5.337387"><ele>776.2</ele></trkpt>
    <trkpt lat="44.432992" lon="5.337515"><ele>777.2</ele></trkpt>
    <trkpt lat="44.432939" lon="5.337651"><ele>778.2</ele></trkpt>
    <trkpt lat="44.432905" lon="5.337763"><ele>779.0</ele></trkpt>
    <trkpt lat="44.432892" lon="5.337832"><ele>780.0</ele></trkpt>
    <trkpt lat="44.432889" lon="5.337884"><ele>780.8</ele></trkpt>
    <trkpt lat="44.432893" lon="5.337912"><ele>781.2</ele></trkpt>
    <trkpt lat="44.432904" lon="5.337997"><ele>783.2</ele></trkpt>
    <trkpt lat="44.432904" lon="5.338061"><ele>784.2</ele></trkpt>
    <trkpt lat="44.432847" lon="5.338521"><ele>788.8</ele></trkpt>
    <trkpt lat="44.432844" lon="5.338617"><ele>789.5</ele></trkpt>
    <trkpt lat="44.432851" lon="5.338714"><ele>790.2</ele></trkpt>
    <trkpt lat="44.432866" lon="5.338800"><ele>791.5</ele></trkpt>
    <trkpt lat="44.432889" lon="5.338895"><ele>792.8</ele></trkpt>
    <trkpt lat="44.432986" lon="5.339075"><ele>796.5</ele></trkpt>
    <trkpt lat="44.433088" lon="5.339283"><ele>800.8</ele></trkpt>
    <trkpt lat="44.433152" lon="5.339517"><ele>804.0</ele></trkpt>
    <trkpt lat="44.433180" lon="5.339600"><ele>805.5</ele></trkpt>
    <trkpt lat="44.433267" lon="5.339809"><ele>809.0</ele></trkpt>
    <trkpt lat="44.433389" lon="5.340260"><ele>817.0</ele></trkpt>
    <trkpt lat="44.433496" lon="5.340497"><ele>823.2</ele></trkpt>
    <trkpt lat="44.433505" lon="5.340545"><ele>824.2</ele></trkpt>
    <trkpt lat="44.433501" lon="5.340594"><ele>824.5</ele></trkpt>
    <trkpt lat="44.433487" lon="5.340640"><ele>824.5</ele></trkpt>
    <trkpt lat="44.433455" lon="5.340664"><ele>823.8</ele></trkpt>
    <trkpt lat="44.433309" lon="5.340709"><ele>820.0</ele></trkpt>
    <trkpt lat="44.433237" lon="5.340742"><ele>819.5</ele></trkpt>
    <trkpt lat="44.433161" lon="5.340790"><ele>819.0</ele></trkpt>
    <trkpt lat="44.433098" lon="5.340840"><ele>819.0</ele></trkpt>
    <trkpt lat="44.432961" lon="5.340981"><ele>819.8</ele></trkpt>
    <trkpt lat="44.432931" lon="5.341032"><ele>820.2</ele></trkpt>
    <trkpt lat="44.432907" lon="5.341092"><ele>821.2</ele></trkpt>
    <trkpt lat="44.432887" lon="5.341174"><ele>822.5</ele></trkpt>
    <trkpt lat="44.432874" lon="5.341271"><ele>824.2</ele></trkpt>
    <trkpt lat="44.432873" lon="5.341436"><ele>827.5</ele></trkpt>
    <trkpt lat="44.432862" lon="5.341531"><ele>829.2</ele></trkpt>
    <trkpt lat="44.432835" lon="5.341612"><ele>830.5</ele></trkpt>
    <trkpt lat="44.432799" lon="5.341658"><ele>831.0</ele></trkpt>
    <trkpt lat="44.432685" lon="5.341739"><ele>831.0</ele></trkpt>
    <trkpt lat="44.432587" lon="5.341869"><ele>831.8</ele></trkpt>
    <trkpt lat="44.432523" lon="5.341977"><ele>832.8</ele></trkpt>
    <trkpt lat="44.432366" lon="5.342316"><ele>835.0</ele></trkpt>
    <trkpt lat="44.432323" lon="5.342434"><ele>836.0</ele></trkpt>
    <trkpt lat="44.432315" lon="5.342478"><ele>836.5</ele></trkpt>
    <trkpt lat="44.432321" lon="5.342517"><ele>837.2</ele></trkpt>
    <trkpt lat="44.432336" lon="5.342541"><ele>838.0</ele></trkpt>
    <trkpt lat="44.432375" lon="5.342557"><ele>839.0</ele></trkpt>
    <trkpt lat="44.432423" lon="5.342543"><ele>839.5</ele></trkpt>
    <trkpt lat="44.432507" lon="5.342480"><ele>839.8</ele></trkpt>
    <trkpt lat="44.432554" lon="5.342460"><ele>840.2</ele></trkpt>
    <trkpt lat="44.432590" lon="5.342454"><ele>840.8</ele></trkpt>
    <trkpt lat="44.432728" lon="5.342466"><ele>843.5</ele></trkpt>
    <trkpt lat="44.432799" lon="5.342462"><ele>844.5</ele></trkpt>
    <trkpt lat="44.432874" lon="5.342475"><ele>846.2</ele></trkpt>
    <trkpt lat="44.432928" lon="5.342494"><ele>847.5</ele></trkpt>
    <trkpt lat="44.432992" lon="5.342535"><ele>849.5</ele></trkpt>
    <trkpt lat="44.433044" lon="5.342558"><ele>851.0</ele></trkpt>
    <trkpt lat="44.433092" lon="5.342564"><ele>852.0</ele></trkpt>
    <trkpt lat="44.433261" lon="5.342529"><ele>854.2</ele></trkpt>
    <trkpt lat="44.433324" lon="5.342501"><ele>854.8</ele></trkpt>
    <trkpt lat="44.433529" lon="5.342374"><ele>857.8</ele></trkpt>
    <trkpt lat="44.433755" lon="5.342203"><ele>860.5</ele></trkpt>
    <trkpt lat="44.433924" lon="5.342040"><ele>861.5</ele></trkpt>
    <trkpt lat="44.434057" lon="5.341884"><ele>861.8</ele></trkpt>
    <trkpt lat="44.434216" lon="5.341739"><ele>862.8</ele></trkpt>
    <trkpt lat="44.434294" lon="5.341694"><ele>863.5</ele></trkpt>
    <trkpt lat="44.434492" lon="5.341625"><ele>867.2</ele></trkpt>
    <trkpt lat="44.434584" lon="5.341576"><ele>868.8</ele></trkpt>
    <trkpt lat="44.434702" lon="5.341472"><ele>870.5</ele></trkpt>
    <trkpt lat="44.434751" lon="5.341440"><ele>871.5</ele></trkpt>
    <trkpt lat="44.434875" lon="5.341400"><ele>874.2</ele></trkpt>
    <trkpt lat="44.434994" lon="5.341385"><ele>877.2</ele></trkpt>
    <trkpt lat="44.435074" lon="5.341378"><ele>879.2</ele></trkpt>
    <trkpt lat="44.435525" lon="5.341377"><ele>889.5</ele></trkpt>
    <trkpt lat="44.435597" lon="5.341371"><ele>891.0</ele></trkpt>
    <trkpt lat="44.435633" lon="5.341353"><ele>891.8</ele></trkpt>
    <trkpt lat="44.435658" lon="5.341310"><ele>892.0</ele></trkpt>
    <trkpt lat="44.435670" lon="5.341261"><ele>892.0</ele></trkpt>
    <trkpt lat="44.435671" lon="5.341217"><ele>892.0</ele></trkpt>
    <trkpt lat="44.435658" lon="5.341175"><ele>891.2</ele></trkpt>
    <trkpt lat="44.435627" lon="5.341132"><ele>890.2</ele></trkpt>
    <trkpt lat="44.435543" lon="5.341049"><ele>887.8</ele></trkpt>
    <trkpt lat="44.435422" lon="5.340906"><ele>884.0</ele></trkpt>
    <trkpt lat="44.435379" lon="5.340841"><ele>882.5</ele></trkpt>
    <trkpt lat="44.435331" lon="5.340751"><ele>881.5</ele></trkpt>
    <trkpt lat="44.435241" lon="5.340547"><ele>879.8</ele></trkpt>
    <trkpt lat="44.435212" lon="5.340457"><ele>879.2</ele></trkpt>
    <trkpt lat="44.435195" lon="5.340377"><ele>879.0</ele></trkpt>
    <trkpt lat="44.435189" lon="5.340301"><ele>879.0</ele></trkpt>
    <trkpt lat="44.435197" lon="5.340155"><ele>879.8</ele></trkpt>
    <trkpt lat="44.435215" lon="5.340076"><ele>880.2</ele></trkpt>
    <trkpt lat="44.435239" lon="5.340015"><ele>881.2</ele></trkpt>
    <trkpt lat="44.435285" lon="5.339929"><ele>881.2</ele></trkpt>
    <trkpt lat="44.435403" lon="5.339769"><ele>881.5</ele></trkpt>
    <trkpt lat="44.435645" lon="5.339488"><ele>881.8</ele></trkpt>
    <trkpt lat="44.435722" lon="5.339426"><ele>882.2</ele></trkpt>
    <trkpt lat="44.435924" lon="5.339291"><ele>884.0</ele></trkpt>
    <trkpt lat="44.436188" lon="5.339136"><ele>888.2</ele></trkpt>
    <trkpt lat="44.436332" lon="5.339075"><ele>891.2</ele></trkpt>
    <trkpt lat="44.436504" lon="5.339039"><ele>895.2</ele></trkpt>
    <trkpt lat="44.436534" lon="5.339022"><ele>896.0</ele></trkpt>
    <trkpt lat="44.436573" lon="5.338984"><ele>896.5</ele></trkpt>
    <trkpt lat="44.436658" lon="5.338843"><ele>896.5</ele></trkpt>
    <trkpt lat="44.436707" lon="5.338690"><ele>895.5</ele></trkpt>
    <trkpt lat="44.436790" lon="5.338492"><ele>894.8</ele></trkpt>
    <trkpt lat="44.436816" lon="5.338456"><ele>895.0</ele></trkpt>
    <trkpt lat="44.436845" lon="5.338439"><ele>895.5</ele></trkpt>
    <trkpt lat="44.436872" lon="5.338447"><ele>896.2</ele></trkpt>
    <trkpt lat="44.436886" lon="5.338471"><ele>897.2</ele></trkpt>
    <trkpt lat="44.436890" lon="5.338503"><ele>897.8</ele></trkpt>
    <trkpt lat="44.436877" lon="5.338655"><ele>900.0</ele></trkpt>
    <trkpt lat="44.436881" lon="5.338716"><ele>901.0</ele></trkpt>
    <trkpt lat="44.436906" lon="5.338894"><ele>904.5</ele></trkpt>
    <trkpt lat="44.436946" lon="5.339110"><ele>909.2</ele></trkpt>
    <trkpt lat="44.436950" lon="5.339178"><ele>910.5</ele></trkpt>
    <trkpt lat="44.436946" lon="5.339233"><ele>911.5</ele></trkpt>
    <trkpt lat="44.436898" lon="5.339364"><ele>912.2</ele></trkpt>
    <trkpt lat="44.436809" lon="5.339557"><ele>913.2</ele></trkpt>
    <trkpt lat="44.436629" lon="5.339984"><ele>915.8</ele></trkpt>
    <trkpt lat="44.436611" lon="5.340047"><ele>915.5</ele></trkpt>
    <trkpt lat="44.436601" lon="5.340109"><ele>915.2</ele></trkpt>
    <trkpt lat="44.436597" lon="5.340184"><ele>915.0</ele></trkpt>
    <trkpt lat="44.436604" lon="5.340253"><ele>915.0</ele></trkpt>
    <trkpt lat="44.436619" lon="5.340314"><ele>915.2</ele></trkpt>
    <trkpt lat="44.436649" lon="5.340370"><ele>916.0</ele></trkpt>
    <trkpt lat="44.436707" lon="5.340448"><ele>917.5</ele></trkpt>
    <trkpt lat="44.436800" lon="5.340533"><ele>920.0</ele></trkpt>
    <trkpt lat="44.437488" lon="5.341037"><ele>939.0</ele></trkpt>
    <trkpt lat="44.437551" lon="5.341093"><ele>940.8</ele></trkpt>
    <trkpt lat="44.437642" lon="5.341187"><ele>943.2</ele></trkpt>
    <trkpt lat="44.437728" lon="5.341298"><ele>945.5</ele></trkpt>
    <trkpt lat="44.437764" lon="5.341334"><ele>946.5</ele></trkpt>
    <trkpt lat="44.437825" lon="5.341347"><ele>948.0</ele></trkpt>
    <trkpt lat="44.438015" lon="5.341338"><ele>952.5</ele></trkpt>
    <trkpt lat="44.438097" lon="5.341324"><ele>954.2</ele></trkpt>
    <trkpt lat="44.438182" lon="5.341287"><ele>956.2</ele></trkpt>
    <trkpt lat="44.438230" lon="5.341232"><ele>957.2</ele></trkpt>
    <trkpt lat="44.438278" lon="5.341157"><ele>958.2</ele></trkpt>
    <trkpt lat="44.438318" lon="5.341111"><ele>959.2</ele></trkpt>
    <trkpt lat="44.438634" lon="5.340843"><ele>960.2</ele></trkpt>
    <trkpt lat="44.438721" lon="5.340737"><ele>961.5</ele></trkpt>
    <trkpt lat="44.438720" lon="5.340681"><ele>961.8</ele></trkpt>
    <trkpt lat="44.438741" lon="5.340546"><ele>963.0</ele></trkpt>
    <trkpt lat="44.438756" lon="5.340380"><ele>964.2</ele></trkpt>
    <trkpt lat="44.438773" lon="5.340297"><ele>965.0</ele></trkpt>
    <trkpt lat="44.438799" lon="5.340228"><ele>965.5</ele></trkpt>
    <trkpt lat="44.438884" lon="5.339859"><ele>967.8</ele></trkpt>
    <trkpt lat="44.438676" lon="5.339543"><ele>963.2</ele></trkpt>
    <trkpt lat="44.438620" lon="5.339422"><ele>961.0</ele></trkpt>
    <trkpt lat="44.438598" lon="5.339356"><ele>959.8</ele></trkpt>
    <trkpt lat="44.438597" lon="5.339331"><ele>959.5</ele></trkpt>
    <trkpt lat="44.438606" lon="5.339315"><ele>959.8</ele></trkpt>
    <trkpt lat="44.438565" lon="5.339204"><ele>957.5</ele></trkpt>
    <trkpt lat="44.438529" lon="5.339031"><ele>955.0</ele></trkpt>
    <trkpt lat="44.438477" lon="5.338865"><ele>951.8</ele></trkpt>
    <trkpt lat="44.438450" lon="5.338731"><ele>949.5</ele></trkpt>
    <trkpt lat="44.438400" lon="5.338654"><ele>947.0</ele></trkpt>
    <trkpt lat="44.438347" lon="5.338629"><ele>944.5</ele></trkpt>
    <trkpt lat="44.438321" lon="5.338592"><ele>943.2</ele></trkpt>
    <trkpt lat="44.438301" lon="5.338519"><ele>941.8</ele></trkpt>
    <trkpt lat="44.438170" lon="5.338309"><ele>935.0</ele></trkpt>
    <trkpt lat="44.438130" lon="5.338179"><ele>933.2</ele></trkpt>
    <trkpt lat="44.438087" lon="5.337999"><ele>931.2</ele></trkpt>
    <trkpt lat="44.438090" lon="5.337919"><ele>931.2</ele></trkpt>
    <trkpt lat="44.438035" lon="5.337812"><ele>929.0</ele></trkpt>
    <trkpt lat="44.437740" lon="5.337308"><ele>917.8</ele></trkpt>
    <trkpt lat="44.437612" lon="5.337105"><ele>913.2</ele></trkpt>
    <trkpt lat="44.437533" lon="5.336899"><ele>910.2</ele></trkpt>
    <trkpt lat="44.437515" lon="5.336729"><ele>909.5</ele></trkpt>
    <trkpt lat="44.437512" lon="5.336511"><ele>910.2</ele></trkpt>
    <trkpt lat="44.437490" lon="5.336285"><ele>910.8</ele></trkpt>
    <trkpt lat="44.437512" lon="5.336511"><ele>910.2</ele></trkpt>
    <trkpt lat="44.437515" lon="5.336729"><ele>909.5</ele></trkpt>
    <trkpt lat="44.437533" lon="5.336899"><ele>910.2</ele></trkpt>
    <trkpt lat="44.437612" lon="5.337105"><ele>913.2</ele></trkpt>
    <trkpt lat="44.437740" lon="5.337308"><ele>917.8</ele></trkpt>
    <trkpt lat="44.438035" lon="5.337812"><ele>929.0</ele></trkpt>
    <trkpt lat="44.438090" lon="5.337919"><ele>931.2</ele></trkpt>
    <trkpt lat="44.438087" lon="5.337999"><ele>931.2</ele></trkpt>
    <trkpt lat="44.438130" lon="5.338179"><ele>933.2</ele></trkpt>
    <trkpt lat="44.438170" lon="5.338309"><ele>935.0</ele></trkpt>
    <trkpt lat="44.438301" lon="5.338519"><ele>941.8</ele></trkpt>
    <trkpt lat="44.438321" lon="5.338592"><ele>943.2</ele></trkpt>
    <trkpt lat="44.438347" lon="5.338629"><ele>944.5</ele></trkpt>
    <trkpt lat="44.438400" lon="5.338654"><ele>947.0</ele></trkpt>
    <trkpt lat="44.438450" lon="5.338731"><ele>949.5</ele></trkpt>
    <trkpt lat="44.438477" lon="5.338865"><ele>951.8</ele></trkpt>
    <trkpt lat="44.438529" lon="5.339031"><ele>955.0</ele></trkpt>
    <trkpt lat="44.438565" lon="5.339204"><ele>957.5</ele></trkpt>
    <trkpt lat="44.438606" lon="5.339315"><ele>959.8</ele></trkpt>
    <trkpt lat="44.438597" lon="5.339331"><ele>959.5</ele></trkpt>
    <trkpt lat="44.438598" lon="5.339356"><ele>959.8</ele></trkpt>
    <trkpt lat="44.438620" lon="5.339422"><ele>961.0</ele></trkpt>
    <trkpt lat="44.438676" lon="5.339543"><ele>963.2</ele></trkpt>
    <trkpt lat="44.438884" lon="5.339859"><ele>967.8</ele></trkpt>
    <trkpt lat="44.438799" lon="5.340228"><ele>965.5</ele></trkpt>
    <trkpt lat="44.438773" lon="5.340297"><ele>965.0</ele></trkpt>
    <trkpt lat="44.438756" lon="5.340380"><ele>964.2</ele></trkpt>
    <trkpt lat="44.438741" lon="5.340546"><ele>963.0</ele></trkpt>
    <trkpt lat="44.438720" lon="5.340681"><ele>961.8</ele></trkpt>
    <trkpt lat="44.438721" lon="5.340737"><ele>961.5</ele></trkpt>
    <trkpt lat="44.438634" lon="5.340843"><ele>960.2</ele></trkpt>
    <trkpt lat="44.438318" lon="5.341111"><ele>959.2</ele></trkpt>
    <trkpt lat="44.438278" lon="5.341157"><ele>958.2</ele></trkpt>
    <trkpt lat="44.438230" lon="5.341232"><ele>957.2</ele></trkpt>
    <trkpt lat="44.438182" lon="5.341287"><ele>956.2</ele></trkpt>
    <trkpt lat="44.438097" lon="5.341324"><ele>954.2</ele></trkpt>
    <trkpt lat="44.438015" lon="5.341338"><ele>952.5</ele></trkpt>
    <trkpt lat="44.437825" lon="5.341347"><ele>948.0</ele></trkpt>
    <trkpt lat="44.437764" lon="5.341334"><ele>946.5</ele></trkpt>
    <trkpt lat="44.437728" lon="5.341298"><ele>945.5</ele></trkpt>
    <trkpt lat="44.437642" lon="5.341187"><ele>943.2</ele></trkpt>
    <trkpt lat="44.437551" lon="5.341093"><ele>940.8</ele></trkpt>
    <trkpt lat="44.437488" lon="5.341037"><ele>939.0</ele></trkpt>
    <trkpt lat="44.436800" lon="5.340533"><ele>920.0</ele></trkpt>
    <trkpt lat="44.436707" lon="5.340448"><ele>917.5</ele></trkpt>
    <trkpt lat="44.436649" lon="5.340370"><ele>916.0</ele></trkpt>
    <trkpt lat="44.436619" lon="5.340314"><ele>915.2</ele></trkpt>
    <trkpt lat="44.436604" lon="5.340253"><ele>915.0</ele></trkpt>
    <trkpt lat="44.436597" lon="5.340184"><ele>915.0</ele></trkpt>
    <trkpt lat="44.436601" lon="5.340109"><ele>915.2</ele></trkpt>
    <trkpt lat="44.436611" lon="5.340047"><ele>915.5</ele></trkpt>
    <trkpt lat="44.436629" lon="5.339984"><ele>915.8</ele></trkpt>
    <trkpt lat="44.436809" lon="5.339557"><ele>913.2</ele></trkpt>
    <trkpt lat="44.436898" lon="5.339364"><ele>912.2</ele></trkpt>
    <trkpt lat="44.436946" lon="5.339233"><ele>911.5</ele></trkpt>
    <trkpt lat="44.436950" lon="5.339178"><ele>910.5</ele></trkpt>
    <trkpt lat="44.436946" lon="5.339110"><ele>909.2</ele></trkpt>
    <trkpt lat="44.436906" lon="5.338894"><ele>904.5</ele></trkpt>
    <trkpt lat="44.436881" lon="5.338716"><ele>901.0</ele></trkpt>
    <trkpt lat="44.436877" lon="5.338655"><ele>900.0</ele></trkpt>
    <trkpt lat="44.436890" lon="5.338503"><ele>897.8</ele></trkpt>
    <trkpt lat="44.436886" lon="5.338471"><ele>897.2</ele></trkpt>
    <trkpt lat="44.436872" lon="5.338447"><ele>896.2</ele></trkpt>
    <trkpt lat="44.436845" lon="5.338439"><ele>895.5</ele></trkpt>
    <trkpt lat="44.436816" lon="5.338456"><ele>895.0</ele></trkpt>
    <trkpt lat="44.436790" lon="5.338492"><ele>894.8</ele></trkpt>
    <trkpt lat="44.436707" lon="5.338690"><ele>895.5</ele></trkpt>
    <trkpt lat="44.436658" lon="5.338843"><ele>896.5</ele></trkpt>
    <trkpt lat="44.436573" lon="5.338984"><ele>896.5</ele></trkpt>
    <trkpt lat="44.436534" lon="5.339022"><ele>896.0</ele></trkpt>
    <trkpt lat="44.436504" lon="5.339039"><ele>895.2</ele></trkpt>
    <trkpt lat="44.436332" lon="5.339075"><ele>891.2</ele></trkpt>
    <trkpt lat="44.436188" lon="5.339136"><ele>888.2</ele></trkpt>
    <trkpt lat="44.435924" lon="5.339291"><ele>884.0</ele></trkpt>
    <trkpt lat="44.435722" lon="5.339426"><ele>882.2</ele></trkpt>
    <trkpt lat="44.435645" lon="5.339488"><ele>881.8</ele></trkpt>
    <trkpt lat="44.435403" lon="5.339769"><ele>881.5</ele></trkpt>
    <trkpt lat="44.435285" lon="5.339929"><ele>881.2</ele></trkpt>
    <trkpt lat="44.435239" lon="5.340015"><ele>881.2</ele></trkpt>
    <trkpt lat="44.435215" lon="5.340076"><ele>880.2</ele></trkpt>
    <trkpt lat="44.435197" lon="5.340155"><ele>879.8</ele></trkpt>
    <trkpt lat="44.435189" lon="5.340301"><ele>879.0</ele></trkpt>
    <trkpt lat="44.435195" lon="5.340377"><ele>879.0</ele></trkpt>
    <trkpt lat="44.435212" lon="5.340457"><ele>879.2</ele></trkpt>
    <trkpt lat="44.435241" lon="5.340547"><ele>879.8</ele></trkpt>
    <trkpt lat="44.435331" lon="5.340751"><ele>881.5</ele></trkpt>
    <trkpt lat="44.435379" lon="5.340841"><ele>882.5</ele></trkpt>
    <trkpt lat="44.435422" lon="5.340906"><ele>884.0</ele></trkpt>
    <trkpt lat="44.435543" lon="5.341049"><ele>887.8</ele></trkpt>
    <trkpt lat="44.435627" lon="5.341132"><ele>890.2</ele></trkpt>
    <trkpt lat="44.435658" lon="5.341175"><ele>891.2</ele></trkpt>
    <trkpt lat="44.435671" lon="5.341217"><ele>892.0</ele></trkpt>
    <trkpt lat="44.435670" lon="5.341261"><ele>892.0</ele></trkpt>
    <trkpt lat="44.435658" lon="5.341310"><ele>892.0</ele></trkpt>
    <trkpt lat="44.435633" lon="5.341353"><ele>891.8</ele></trkpt>
    <trkpt lat="44.435597" lon="5.341371"><ele>891.0</ele></trkpt>
    <trkpt lat="44.435525" lon="5.341377"><ele>889.5</ele></trkpt>
    <trkpt lat="44.435074" lon="5.341378"><ele>879.2</ele></trkpt>
    <trkpt lat="44.434994" lon="5.341385"><ele>877.2</ele></trkpt>
    <trkpt lat="44.434875" lon="5.341400"><ele>874.2</ele></trkpt>
    <trkpt lat="44.434751" lon="5.341440"><ele>871.5</ele></trkpt>
    <trkpt lat="44.434702" lon="5.341472"><ele>870.5</ele></trkpt>
    <trkpt lat="44.434584" lon="5.341576"><ele>868.8</ele></trkpt>
    <trkpt lat="44.434492" lon="5.341625"><ele>867.2</ele></trkpt>
    <trkpt lat="44.434294" lon="5.341694"><ele>863.5</ele></trkpt>
    <trkpt lat="44.434216" lon="5.341739"><ele>862.8</ele></trkpt>
    <trkpt lat="44.434057" lon="5.341884"><ele>861.8</ele></trkpt>
    <trkpt lat="44.433924" lon="5.342040"><ele>861.5</ele></trkpt>
    <trkpt lat="44.433755" lon="5.342203"><ele>860.5</ele></trkpt>
    <trkpt lat="44.433529" lon="5.342374"><ele>857.8</ele></trkpt>
    <trkpt lat="44.433324" lon="5.342501"><ele>854.8</ele></trkpt>
    <trkpt lat="44.433261" lon="5.342529"><ele>854.2</ele></trkpt>
    <trkpt lat="44.433092" lon="5.342564"><ele>852.0</ele></trkpt>
    <trkpt lat="44.433044" lon="5.342558"><ele>851.0</ele></trkpt>
    <trkpt lat="44.432992" lon="5.342535"><ele>849.5</ele></trkpt>
    <trkpt lat="44.432928" lon="5.342494"><ele>847.5</ele></trkpt>
    <trkpt lat="44.432874" lon="5.342475"><ele>846.2</ele></trkpt>
    <trkpt lat="44.432799" lon="5.342462"><ele>844.5</ele></trkpt>
    <trkpt lat="44.432728" lon="5.342466"><ele>843.5</ele></trkpt>
    <trkpt lat="44.432590" lon="5.342454"><ele>840.8</ele></trkpt>
    <trkpt lat="44.432554" lon="5.342460"><ele>840.2</ele></trkpt>
    <trkpt lat="44.432507" lon="5.342480"><ele>839.8</ele></trkpt>
    <trkpt lat="44.432423" lon="5.342543"><ele>839.5</ele></trkpt>
    <trkpt lat="44.432375" lon="5.342557"><ele>839.0</ele></trkpt>
    <trkpt lat="44.432336" lon="5.342541"><ele>838.0</ele></trkpt>
    <trkpt lat="44.432321" lon="5.342517"><ele>837.2</ele></trkpt>
    <trkpt lat="44.432315" lon="5.342478"><ele>836.5</ele></trkpt>
    <trkpt lat="44.432323" lon="5.342434"><ele>836.0</ele></trkpt>
    <trkpt lat="44.432366" lon="5.342316"><ele>835.0</ele></trkpt>
    <trkpt lat="44.432523" lon="5.341977"><ele>832.8</ele></trkpt>
    <trkpt lat="44.432587" lon="5.341869"><ele>831.8</ele></trkpt>
    <trkpt lat="44.432685" lon="5.341739"><ele>831.0</ele></trkpt>
    <trkpt lat="44.432799" lon="5.341658"><ele>831.0</ele></trkpt>
    <trkpt lat="44.432835" lon="5.341612"><ele>830.5</ele></trkpt>
    <trkpt lat="44.432862" lon="5.341531"><ele>829.2</ele></trkpt>
    <trkpt lat="44.432873" lon="5.341436"><ele>827.5</ele></trkpt>
    <trkpt lat="44.432874" lon="5.341271"><ele>824.2</ele></trkpt>
    <trkpt lat="44.432887" lon="5.341174"><ele>822.5</ele></trkpt>
    <trkpt lat="44.432907" lon="5.341092"><ele>821.2</ele></trkpt>
    <trkpt lat="44.432931" lon="5.341032"><ele>820.2</ele></trkpt>
    <trkpt lat="44.432961" lon="5.340981"><ele>819.8</ele></trkpt>
    <trkpt lat="44.433098" lon="5.340840"><ele>819.0</ele></trkpt>
    <trkpt lat="44.433161" lon="5.340790"><ele>819.0</ele></trkpt>
    <trkpt lat="44.433237" lon="5.340742"><ele>819.5</ele></trkpt>
    <trkpt lat="44.433309" lon="5.340709"><ele>820.0</ele></trkpt>
    <trkpt lat="44.433455" lon="5.340664"><ele>823.8</ele></trkpt>
    <trkpt lat="44.433487" lon="5.340640"><ele>824.5</ele></trkpt>
    <trkpt lat="44.433501" lon="5.340594"><ele>824.5</ele></trkpt>
    <trkpt lat="44.433505" lon="5.340545"><ele>824.2</ele></trkpt>
    <trkpt lat="44.433496" lon="5.340497"><ele>823.2</ele></trkpt>
    <trkpt lat="44.433389" lon="5.340260"><ele>817.0</ele></trkpt>
    <trkpt lat="44.433267" lon="5.339809"><ele>809.0</ele></trkpt>
    <trkpt lat="44.433180" lon="5.339600"><ele>805.5</ele></trkpt>
    <trkpt lat="44.433152" lon="5.339517"><ele>804.0</ele></trkpt>
    <trkpt lat="44.433088" lon="5.339283"><ele>800.8</ele></trkpt>
    <trkpt lat="44.432986" lon="5.339075"><ele>796.5</ele></trkpt>
    <trkpt lat="44.432889" lon="5.338895"><ele>792.8</ele></trkpt>
    <trkpt lat="44.432866" lon="5.338800"><ele>791.5</ele></trkpt>
    <trkpt lat="44.432851" lon="5.338714"><ele>790.2</ele></trkpt>
    <trkpt lat="44.432844" lon="5.338617"><ele>789.5</ele></trkpt>
    <trkpt lat="44.432847" lon="5.338521"><ele>788.8</ele></trkpt>
    <trkpt lat="44.432904" lon="5.338061"><ele>784.2</ele></trkpt>
    <trkpt lat="44.432904" lon="5.337997"><ele>783.2</ele></trkpt>
    <trkpt lat="44.432893" lon="5.337912"><ele>781.2</ele></trkpt>
    <trkpt lat="44.432889" lon="5.337884"><ele>780.8</ele></trkpt>
    <trkpt lat="44.432892" lon="5.337832"><ele>780.0</ele></trkpt>
    <trkpt lat="44.432905" lon="5.337763"><ele>779.0</ele></trkpt>
    <trkpt lat="44.432939" lon="5.337651"><ele>778.2</ele></trkpt>
    <trkpt lat="44.432992" lon="5.337515"><ele>777.2</ele></trkpt>
    <trkpt lat="44.433053" lon="5.337387"><ele>776.2</ele></trkpt>
    <trkpt lat="44.433118" lon="5.337280"><ele>775.8</ele></trkpt>
    <trkpt lat="44.433260" lon="5.337120"><ele>775.8</ele></trkpt>
    <trkpt lat="44.433386" lon="5.337019"><ele>776.8</ele></trkpt>
    <trkpt lat="44.433606" lon="5.336905"><ele>780.0</ele></trkpt>
    <trkpt lat="44.433662" lon="5.336862"><ele>780.5</ele></trkpt>
    <trkpt lat="44.433826" lon="5.336649"><ele>780.2</ele></trkpt>
    <trkpt lat="44.433917" lon="5.336551"><ele>782.0</ele></trkpt>
    <trkpt lat="44.434056" lon="5.336431"><ele>785.0</ele></trkpt>
    <trkpt lat="44.434067" lon="5.336404"><ele>785.0</ele></trkpt>
    <trkpt lat="44.434066" lon="5.336374"><ele>784.8</ele></trkpt>
    <trkpt lat="44.434057" lon="5.336341"><ele>784.2</ele></trkpt>
    <trkpt lat="44.434012" lon="5.336262"><ele>782.5</ele></trkpt>
    <trkpt lat="44.433826" lon="5.335977"><ele>774.5</ele></trkpt>
    <trkpt lat="44.433651" lon="5.335738"><ele>767.5</ele></trkpt>
    <trkpt lat="44.433426" lon="5.335435"><ele>760.8</ele></trkpt>
    <trkpt lat="44.433358" lon="5.335321"><ele>759.0</ele></trkpt>
    <trkpt lat="44.433338" lon="5.335242"><ele>758.8</ele></trkpt>
    <trkpt lat="44.433335" lon="5.335177"><ele>758.8</ele></trkpt>
    <trkpt lat="44.433345" lon="5.335008"><ele>759.0</ele></trkpt>
    <trkpt lat="44.433353" lon="5.334936"><ele>758.2</ele></trkpt>
    <trkpt lat="44.433388" lon="5.334782"><ele>756.8</ele></trkpt>
    <trkpt lat="44.433408" lon="5.334560"><ele>753.5</ele></trkpt>
    <trkpt lat="44.433420" lon="5.334512"><ele>753.0</ele></trkpt>
    <trkpt lat="44.433482" lon="5.334367"><ele>751.5</ele></trkpt>
    <trkpt lat="44.433477" lon="5.334341"><ele>751.0</ele></trkpt>
    <trkpt lat="44.433462" lon="5.334324"><ele>750.5</ele></trkpt>
    <trkpt lat="44.433436" lon="5.334328"><ele>750.2</ele></trkpt>
    <trkpt lat="44.433227" lon="5.334428"><ele>748.2</ele></trkpt>
    <trkpt lat="44.432849" lon="5.334647"><ele>742.0</ele></trkpt>
    <trkpt lat="44.432768" lon="5.334688"><ele>740.2</ele></trkpt>
    <trkpt lat="44.432724" lon="5.334752"><ele>739.8</ele></trkpt>
    <trkpt lat="44.432698" lon="5.334812"><ele>739.8</ele></trkpt>
    <trkpt lat="44.432677" lon="5.334920"><ele>740.0</ele></trkpt>
    <trkpt lat="44.432652" lon="5.335101"><ele>740.2</ele></trkpt>
    <trkpt lat="44.432652" lon="5.335234"><ele>740.2</ele></trkpt>
    <trkpt lat="44.432660" lon="5.335391"><ele>740.5</ele></trkpt>
    <trkpt lat="44.432684" lon="5.335667"><ele>741.5</ele></trkpt>
    <trkpt lat="44.432701" lon="5.335771"><ele>742.0</ele></trkpt>
    <trkpt lat="44.432748" lon="5.335967"><ele>745.0</ele></trkpt>
    <trkpt lat="44.432738" lon="5.336064"><ele>746.0</ele></trkpt>
    <trkpt lat="44.432717" lon="5.336110"><ele>746.0</ele></trkpt>
    <trkpt lat="44.432685" lon="5.336130"><ele>745.5</ele></trkpt>
    <trkpt lat="44.432653" lon="5.336133"><ele>744.8</ele></trkpt>
    <trkpt lat="44.432417" lon="5.336118"><ele>739.2</ele></trkpt>
    <trkpt lat="44.432332" lon="5.336122"><ele>737.5</ele></trkpt>
    <trkpt lat="44.432263" lon="5.336133"><ele>736.2</ele></trkpt>
    <trkpt lat="44.432156" lon="5.336192"><ele>735.0</ele></trkpt>
    <trkpt lat="44.432105" lon="5.336203"><ele>734.2</ele></trkpt>
    <trkpt lat="44.432033" lon="5.336211"><ele>733.0</ele></trkpt>
    <trkpt lat="44.431732" lon="5.336216"><ele>727.0</ele></trkpt>
    <trkpt lat="44.431507" lon="5.336408"><ele>726.5</ele></trkpt>
    <trkpt lat="44.431337" lon="5.336723"><ele>728.8</ele></trkpt>
    <trkpt lat="44.431293" lon="5.336805"><ele>729.0</ele></trkpt>
    <trkpt lat="44.431105" lon="5.337315"><ele>730.5</ele></trkpt>
    <trkpt lat="44.431056" lon="5.337699"><ele>732.8</ele></trkpt>
    <trkpt lat="44.431108" lon="5.338080"><ele>737.0</ele></trkpt>
    <trkpt lat="44.431172" lon="5.338310"><ele>740.5</ele></trkpt>
    <trkpt lat="44.430851" lon="5.338513"><ele>736.8</ele></trkpt>
    <trkpt lat="44.430565" lon="5.338680"><ele>735.8</ele></trkpt>
    <trkpt lat="44.430352" lon="5.338684"><ele>732.8</ele></trkpt>
    <trkpt lat="44.430172" lon="5.338857"><ele>733.0</ele></trkpt>
    <trkpt lat="44.430068" lon="5.339140"><ele>735.5</ele></trkpt>
    <trkpt lat="44.429963" lon="5.339355"><ele>738.0</ele></trkpt>
    <trkpt lat="44.430068" lon="5.339140"><ele>735.5</ele></trkpt>
    <trkpt lat="44.430172" lon="5.338857"><ele>733.0</ele></trkpt>
    <trkpt lat="44.430352" lon="5.338684"><ele>732.8</ele></trkpt>
    <trkpt lat="44.430565" lon="5.338680"><ele>735.8</ele></trkpt>
    <trkpt lat="44.430851" lon="5.338513"><ele>736.8</ele></trkpt>
    <trkpt lat="44.431172" lon="5.338310"><ele>740.5</ele></trkpt>
    <trkpt lat="44.431108" lon="5.338080"><ele>737.0</ele></trkpt>
    <trkpt lat="44.431056" lon="5.337699"><ele>732.8</ele></trkpt>
    <trkpt lat="44.431105" lon="5.337315"><ele>730.5</ele></trkpt>
    <trkpt lat="44.431293" lon="5.336805"><ele>729.0</ele></trkpt>
    <trkpt lat="44.431337" lon="5.336723"><ele>728.8</ele></trkpt>
    <trkpt lat="44.431507" lon="5.336408"><ele>726.5</ele></trkpt>
    <trkpt lat="44.431732" lon="5.336216"><ele>727.0</ele></trkpt>
    <trkpt lat="44.431465" lon="5.336258"><ele>722.8</ele></trkpt>
    <trkpt lat="44.431418" lon="5.336258"><ele>722.0</ele></trkpt>
    <trkpt lat="44.431391" lon="5.336242"><ele>721.0</ele></trkpt>
    <trkpt lat="44.431375" lon="5.336198"><ele>720.0</ele></trkpt>
    <trkpt lat="44.431379" lon="5.336145"><ele>719.0</ele></trkpt>
    <trkpt lat="44.431399" lon="5.336101"><ele>718.5</ele></trkpt>
    <trkpt lat="44.431633" lon="5.335936"><ele>719.5</ele></trkpt>
    <trkpt lat="44.431840" lon="5.335748"><ele>721.2</ele></trkpt>
    <trkpt lat="44.431902" lon="5.335678"><ele>722.5</ele></trkpt>
    <trkpt lat="44.431931" lon="5.335621"><ele>722.8</ele></trkpt>
    <trkpt lat="44.431934" lon="5.335575"><ele>722.5</ele></trkpt>
    <trkpt lat="44.431924" lon="5.335532"><ele>722.0</ele></trkpt>
    <trkpt lat="44.431901" lon="5.335493"><ele>721.2</ele></trkpt>
    <trkpt lat="44.431824" lon="5.335429"><ele>719.0</ele></trkpt>
    <trkpt lat="44.431740" lon="5.335342"><ele>716.2</ele></trkpt>
    <trkpt lat="44.431651" lon="5.335231"><ele>713.2</ele></trkpt>
    <trkpt lat="44.431521" lon="5.335028"><ele>708.0</ele></trkpt>
    <trkpt lat="44.431470" lon="5.334913"><ele>706.5</ele></trkpt>
    <trkpt lat="44.431434" lon="5.334809"><ele>705.5</ele></trkpt>
    <trkpt lat="44.431405" lon="5.334695"><ele>704.8</ele></trkpt>
    <trkpt lat="44.431329" lon="5.334477"><ele>702.8</ele></trkpt>
    <trkpt lat="44.431241" lon="5.334286"><ele>700.5</ele></trkpt>
    <trkpt lat="44.431118" lon="5.333990"><ele>696.8</ele></trkpt>
    <trkpt lat="44.431078" lon="5.333857"><ele>695.0</ele></trkpt>
    <trkpt lat="44.431048" lon="5.333708"><ele>693.5</ele></trkpt>
    <trkpt lat="44.431041" lon="5.333581"><ele>692.5</ele></trkpt>
    <trkpt lat="44.431050" lon="5.333462"><ele>692.0</ele></trkpt>
    <trkpt lat="44.431090" lon="5.333306"><ele>691.8</ele></trkpt>
    <trkpt lat="44.431263" lon="5.332855"><ele>688.8</ele></trkpt>
    <trkpt lat="44.431344" lon="5.332575"><ele>686.2</ele></trkpt>
    <trkpt lat="44.431493" lon="5.332299"><ele>684.8</ele></trkpt>
    <trkpt lat="44.431626" lon="5.332001"><ele>681.8</ele></trkpt>
    <trkpt lat="44.431687" lon="5.331926"><ele>681.0</ele></trkpt>
    <trkpt lat="44.431762" lon="5.331860"><ele>680.0</ele></trkpt>
    <trkpt lat="44.432061" lon="5.331667"><ele>676.8</ele></trkpt>
    <trkpt lat="44.432148" lon="5.331627"><ele>676.0</ele></trkpt>
    <trkpt lat="44.432214" lon="5.331617"><ele>676.0</ele></trkpt>
    <trkpt lat="44.432282" lon="5.331612"><ele>676.0</ele></trkpt>
    <trkpt lat="44.432429" lon="5.331624"><ele>676.5</ele></trkpt>
    <trkpt lat="44.432461" lon="5.331620"><ele>676.5</ele></trkpt>
    <trkpt lat="44.432486" lon="5.331593"><ele>675.8</ele></trkpt>
    <trkpt lat="44.432492" lon="5.331560"><ele>674.8</ele></trkpt>
    <trkpt lat="44.432483" lon="5.331525"><ele>673.8</ele></trkpt>
    <trkpt lat="44.432451" lon="5.331508"><ele>673.2</ele></trkpt>
    <trkpt lat="44.432272" lon="5.331463"><ele>672.0</ele></trkpt>
    <trkpt lat="44.431868" lon="5.331310"><ele>668.8</ele></trkpt>
    <trkpt lat="44.431667" lon="5.331214"><ele>667.2</ele></trkpt>
    <trkpt lat="44.431482" lon="5.331085"><ele>663.0</ele></trkpt>
    <trkpt lat="44.431331" lon="5.330948"><ele>659.5</ele></trkpt>
    <trkpt lat="44.431295" lon="5.330925"><ele>658.8</ele></trkpt>
    <trkpt lat="44.431254" lon="5.330921"><ele>658.2</ele></trkpt>
    <trkpt lat="44.431210" lon="5.330936"><ele>658.2</ele></trkpt>
    <trkpt lat="44.431174" lon="5.330968"><ele>658.5</ele></trkpt>
    <trkpt lat="44.431128" lon="5.331017"><ele>658.8</ele></trkpt>
    <trkpt lat="44.431045" lon="5.331127"><ele>659.8</ele></trkpt>
    <trkpt lat="44.430950" lon="5.331270"><ele>660.8</ele></trkpt>
    <trkpt lat="44.430744" lon="5.331629"><ele>663.0</ele></trkpt>
    <trkpt lat="44.430683" lon="5.331717"><ele>663.0</ele></trkpt>
    <trkpt lat="44.430647" lon="5.331735"><ele>662.8</ele></trkpt>
    <trkpt lat="44.430585" lon="5.331726"><ele>661.5</ele></trkpt>
    <trkpt lat="44.430515" lon="5.331665"><ele>660.0</ele></trkpt>
    <trkpt lat="44.430456" lon="5.331597"><ele>658.2</ele></trkpt>
    <trkpt lat="44.430249" lon="5.331321"><ele>653.2</ele></trkpt>
    <trkpt lat="44.430072" lon="5.331039"><ele>649.5</ele></trkpt>
    <trkpt lat="44.430010" lon="5.330966"><ele>648.5</ele></trkpt>
    <trkpt lat="44.429859" lon="5.330920"><ele>647.2</ele></trkpt>
    <trkpt lat="44.429753" lon="5.330872"><ele>646.2</ele></trkpt>
    <trkpt lat="44.429715" lon="5.330877"><ele>646.0</ele></trkpt>
    <trkpt lat="44.429687" lon="5.330907"><ele>645.8</ele></trkpt>
    <trkpt lat="44.429657" lon="5.330963"><ele>645.5</ele></trkpt>
    <trkpt lat="44.429637" lon="5.331067"><ele>645.5</ele></trkpt>
    <trkpt lat="44.429632" lon="5.331143"><ele>645.5</ele></trkpt>
    <trkpt lat="44.429658" lon="5.331282"><ele>645.8</ele></trkpt>
    <trkpt lat="44.429679" lon="5.331348"><ele>646.2</ele></trkpt>
    <trkpt lat="44.429686" lon="5.331415"><ele>646.2</ele></trkpt>
    <trkpt lat="44.429753" lon="5.331557"><ele>647.5</ele></trkpt>
    <trkpt lat="44.429778" lon="5.331648"><ele>648.0</ele></trkpt>
    <trkpt lat="44.429793" lon="5.331745"><ele>648.8</ele></trkpt>
    <trkpt lat="44.429789" lon="5.331903"><ele>649.2</ele></trkpt>
    <trkpt lat="44.429767" lon="5.332047"><ele>649.2</ele></trkpt>
    <trkpt lat="44.429683" lon="5.332333"><ele>648.5</ele></trkpt>
    <trkpt lat="44.429629" lon="5.332627"><ele>648.2</ele></trkpt>
    <trkpt lat="44.429543" lon="5.333198"><ele>648.0</ele></trkpt>
    <trkpt lat="44.429541" lon="5.333287"><ele>648.2</ele></trkpt>
    <trkpt lat="44.429550" lon="5.333395"><ele>649.0</ele></trkpt>
    <trkpt lat="44.429569" lon="5.333508"><ele>650.0</ele></trkpt>
    <trkpt lat="44.429601" lon="5.333646"><ele>651.8</ele></trkpt>
    <trkpt lat="44.429653" lon="5.333821"><ele>654.0</ele></trkpt>
    <trkpt lat="44.429813" lon="5.334213"><ele>659.5</ele></trkpt>
    <trkpt lat="44.429868" lon="5.334329"><ele>661.5</ele></trkpt>
    <trkpt lat="44.429934" lon="5.334434"><ele>663.2</ele></trkpt>
    <trkpt lat="44.430058" lon="5.334579"><ele>666.5</ele></trkpt>
    <trkpt lat="44.430090" lon="5.334635"><ele>667.8</ele></trkpt>
    <trkpt lat="44.430102" lon="5.334684"><ele>668.0</ele></trkpt>
    <trkpt lat="44.430103" lon="5.334740"><ele>668.2</ele></trkpt>
    <trkpt lat="44.430086" lon="5.334785"><ele>667.8</ele></trkpt>
    <trkpt lat="44.429988" lon="5.334896"><ele>665.5</ele></trkpt>
    <trkpt lat="44.429962" lon="5.334939"><ele>665.5</ele></trkpt>
    <trkpt lat="44.429943" lon="5.335013"><ele>665.8</ele></trkpt>
    <trkpt lat="44.429931" lon="5.335099"><ele>667.2</ele></trkpt>
    <trkpt lat="44.429909" lon="5.335348"><ele>671.5</ele></trkpt>
    <trkpt lat="44.429896" lon="5.335417"><ele>672.8</ele></trkpt>
    <trkpt lat="44.429884" lon="5.335465"><ele>673.5</ele></trkpt>
    <trkpt lat="44.429849" lon="5.335518"><ele>674.2</ele></trkpt>
    <trkpt lat="44.429817" lon="5.335535"><ele>674.5</ele></trkpt>
    <trkpt lat="44.429778" lon="5.335532"><ele>674.2</ele></trkpt>
    <trkpt lat="44.429635" lon="5.335449"><ele>671.8</ele></trkpt>
    <trkpt lat="44.429570" lon="5.335427"><ele>671.0</ele></trkpt>
    <trkpt lat="44.429259" lon="5.335404"><ele>668.8</ele></trkpt>
    <trkpt lat="44.429188" lon="5.335409"><ele>668.2</ele></trkpt>
    <trkpt lat="44.429141" lon="5.335427"><ele>668.5</ele></trkpt>
    <trkpt lat="44.429081" lon="5.335469"><ele>668.8</ele></trkpt>
    <trkpt lat="44.428831" lon="5.335670"><ele>671.0</ele></trkpt>
    <trkpt lat="44.428767" lon="5.335736"><ele>672.0</ele></trkpt>
    <trkpt lat="44.428665" lon="5.335803"><ele>672.8</ele></trkpt>
    <trkpt lat="44.428553" lon="5.335814"><ele>672.0</ele></trkpt>
    <trkpt lat="44.428343" lon="5.335722"><ele>668.8</ele></trkpt>
    <trkpt lat="44.428265" lon="5.335710"><ele>668.0</ele></trkpt>
    <trkpt lat="44.428155" lon="5.335720"><ele>667.5</ele></trkpt>
    <trkpt lat="44.428059" lon="5.335761"><ele>667.8</ele></trkpt>
    <trkpt lat="44.427951" lon="5.335822"><ele>668.2</ele></trkpt>
    <trkpt lat="44.427909" lon="5.335857"><ele>668.8</ele></trkpt>
    <trkpt lat="44.427772" lon="5.336018"><ele>669.8</ele></trkpt>
    <trkpt lat="44.427576" lon="5.336202"><ele>670.0</ele></trkpt>
    <trkpt lat="44.427506" lon="5.336195"><ele>669.5</ele></trkpt>
    <trkpt lat="44.427149" lon="5.335963"><ele>664.8</ele></trkpt>
    <trkpt lat="44.427049" lon="5.335914"><ele>663.5</ele></trkpt>
    <trkpt lat="44.426805" lon="5.335831"><ele>660.8</ele></trkpt>
    <trkpt lat="44.426805" lon="5.335750"><ele>659.5</ele></trkpt>
    <trkpt lat="44.426777" lon="5.335508"><ele>655.5</ele></trkpt>
    <trkpt lat="44.426735" lon="5.335450"><ele>654.2</ele></trkpt>
    <trkpt lat="44.426539" lon="5.335229"><ele>649.2</ele></trkpt>
    <trkpt lat="44.426499" lon="5.335165"><ele>647.8</ele></trkpt>
    <trkpt lat="44.426469" lon="5.335055"><ele>645.8</ele></trkpt>
    <trkpt lat="44.426463" lon="5.334920"><ele>643.5</ele></trkpt>
    <trkpt lat="44.426468" lon="5.334803"><ele>641.2</ele></trkpt>
    <trkpt lat="44.426479" lon="5.334721"><ele>639.8</ele></trkpt>
    <trkpt lat="44.426471" lon="5.334657"><ele>638.5</ele></trkpt>
    <trkpt lat="44.426447" lon="5.334602"><ele>637.5</ele></trkpt>
    <trkpt lat="44.426431" lon="5.334404"><ele>633.8</ele></trkpt>
    <trkpt lat="44.426433" lon="5.334362"><ele>633.0</ele></trkpt>
    <trkpt lat="44.426477" lon="5.334304"><ele>632.0</ele></trkpt>
    <trkpt lat="44.426433" lon="5.334362"><ele>633.0</ele></trkpt>
    <trkpt lat="44.426431" lon="5.334404"><ele>633.8</ele></trkpt>
    <trkpt lat="44.426447" lon="5.334602"><ele>637.5</ele></trkpt>
    <trkpt lat="44.426471" lon="5.334657"><ele>638.5</ele></trkpt>
    <trkpt lat="44.426479" lon="5.334721"><ele>639.8</ele></trkpt>
    <trkpt lat="44.426468" lon="5.334803"><ele>641.2</ele></trkpt>
    <trkpt lat="44.426463" lon="5.334920"><ele>643.5</ele></trkpt>
    <trkpt lat="44.426469" lon="5.335055"><ele>645.8</ele></trkpt>
    <trkpt lat="44.426499" lon="5.335165"><ele>647.8</ele></trkpt>
    <trkpt lat="44.426539" lon="5.335229"><ele>649.2</ele></trkpt>
    <trkpt lat="44.426735" lon="5.335450"><ele>654.2</ele></trkpt>
    <trkpt lat="44.426777" lon="5.335508"><ele>655.5</ele></trkpt>
    <trkpt lat="44.426805" lon="5.335750"><ele>659.5</ele></trkpt>
    <trkpt lat="44.426805" lon="5.335831"><ele>660.8</ele></trkpt>
    <trkpt lat="44.427049" lon="5.335914"><ele>663.5</ele></trkpt>
    <trkpt lat="44.427149" lon="5.335963"><ele>664.8</ele></trkpt>
    <trkpt lat="44.427506" lon="5.336195"><ele>669.5</ele></trkpt>
    <trkpt lat="44.427576" lon="5.336202"><ele>670.0</ele></trkpt>
    <trkpt lat="44.427772" lon="5.336018"><ele>669.8</ele></trkpt>
    <trkpt lat="44.427909" lon="5.335857"><ele>668.8</ele></trkpt>
    <trkpt lat="44.427951" lon="5.335822"><ele>668.2</ele></trkpt>
    <trkpt lat="44.428059" lon="5.335761"><ele>667.8</ele></trkpt>
    <trkpt lat="44.428155" lon="5.335720"><ele>667.5</ele></trkpt>
    <trkpt lat="44.428265" lon="5.335710"><ele>668.0</ele></trkpt>
    <trkpt lat="44.428343" lon="5.335722"><ele>668.8</ele></trkpt>
    <trkpt lat="44.428553" lon="5.335814"><ele>672.0</ele></trkpt>
    <trkpt lat="44.428665" lon="5.335803"><ele>672.8</ele></trkpt>
    <trkpt lat="44.428767" lon="5.335736"><ele>672.0</ele></trkpt>
    <trkpt lat="44.428831" lon="5.335670"><ele>671.0</ele></trkpt>
    <trkpt lat="44.429081" lon="5.335469"><ele>668.8</ele></trkpt>
    <trkpt lat="44.429141" lon="5.335427"><ele>668.5</ele></trkpt>
    <trkpt lat="44.429188" lon="5.335409"><ele>668.2</ele></trkpt>
    <trkpt lat="44.429259" lon="5.335404"><ele>668.8</ele></trkpt>
    <trkpt lat="44.429570" lon="5.335427"><ele>671.0</ele></trkpt>
    <trkpt lat="44.429635" lon="5.335449"><ele>671.8</ele></trkpt>
    <trkpt lat="44.429778" lon="5.335532"><ele>674.2</ele></trkpt>
    <trkpt lat="44.429817" lon="5.335535"><ele>674.5</ele></trkpt>
    <trkpt lat="44.429849" lon="5.335518"><ele>674.2</ele></trkpt>
    <trkpt lat="44.429884" lon="5.335465"><ele>673.5</ele></trkpt>
    <trkpt lat="44.429896" lon="5.335417"><ele>672.8</ele></trkpt>
    <trkpt lat="44.429909" lon="5.335348"><ele>671.5</ele></trkpt>
    <trkpt lat="44.429931" lon="5.335099"><ele>667.2</ele></trkpt>
    <trkpt lat="44.429943" lon="5.335013"><ele>665.8</ele></trkpt>
    <trkpt lat="44.429962" lon="5.334939"><ele>665.5</ele></trkpt>
    <trkpt lat="44.429988" lon="5.334896"><ele>665.5</ele></trkpt>
    <trkpt lat="44.430086" lon="5.334785"><ele>667.8</ele></trkpt>
    <trkpt lat="44.430103" lon="5.334740"><ele>668.2</ele></trkpt>
    <trkpt lat="44.430102" lon="5.334684"><ele>668.0</ele></trkpt>
    <trkpt lat="44.430090" lon="5.334635"><ele>667.8</ele></trkpt>
    <trkpt lat="44.430058" lon="5.334579"><ele>666.5</ele></trkpt>
    <trkpt lat="44.429934" lon="5.334434"><ele>663.2</ele></trkpt>
    <trkpt lat="44.429868" lon="5.334329"><ele>661.5</ele></trkpt>
    <trkpt lat="44.429813" lon="5.334213"><ele>659.5</ele></trkpt>
    <trkpt lat="44.429653" lon="5.333821"><ele>654.0</ele></trkpt>
    <trkpt lat="44.429601" lon="5.333646"><ele>651.8</ele></trkpt>
    <trkpt lat="44.429569" lon="5.333508"><ele>650.0</ele></trkpt>
    <trkpt lat="44.429550" lon="5.333395"><ele>649.0</ele></trkpt>
    <trkpt lat="44.429541" lon="5.333287"><ele>648.2</ele></trkpt>
    <trkpt lat="44.429543" lon="5.333198"><ele>648.0</ele></trkpt>
    <trkpt lat="44.429629" lon="5.332627"><ele>648.2</ele></trkpt>
    <trkpt lat="44.429683" lon="5.332333"><ele>648.5</ele></trkpt>
    <trkpt lat="44.429767" lon="5.332047"><ele>649.2</ele></trkpt>
    <trkpt lat="44.429789" lon="5.331903"><ele>649.2</ele></trkpt>
    <trkpt lat="44.429793" lon="5.331745"><ele>648.8</ele></trkpt>
    <trkpt lat="44.429778" lon="5.331648"><ele>648.0</ele></trkpt>
    <trkpt lat="44.429753" lon="5.331557"><ele>647.5</ele></trkpt>
    <trkpt lat="44.429686" lon="5.331415"><ele>646.2</ele></trkpt>
    <trkpt lat="44.429603" lon="5.331396"><ele>645.2</ele></trkpt>
    <trkpt lat="44.429556" lon="5.331359"><ele>644.5</ele></trkpt>
    <trkpt lat="44.429463" lon="5.331258"><ele>643.5</ele></trkpt>
    <trkpt lat="44.429379" lon="5.331143"><ele>642.8</ele></trkpt>
    <trkpt lat="44.429331" lon="5.331044"><ele>642.5</ele></trkpt>
    <trkpt lat="44.429309" lon="5.330940"><ele>642.5</ele></trkpt>
    <trkpt lat="44.429285" lon="5.330615"><ele>643.0</ele></trkpt>
    <trkpt lat="44.429266" lon="5.330527"><ele>643.0</ele></trkpt>
    <trkpt lat="44.429221" lon="5.330443"><ele>643.0</ele></trkpt>
    <trkpt lat="44.429180" lon="5.330395"><ele>643.0</ele></trkpt>
    <trkpt lat="44.429082" lon="5.330308"><ele>641.0</ele></trkpt>
    <trkpt lat="44.429037" lon="5.330257"><ele>640.0</ele></trkpt>
    <trkpt lat="44.429003" lon="5.330207"><ele>639.2</ele></trkpt>
    <trkpt lat="44.428976" lon="5.330152"><ele>638.8</ele></trkpt>
    <trkpt lat="44.428963" lon="5.330096"><ele>638.5</ele></trkpt>
    <trkpt lat="44.428913" lon="5.329741"><ele>636.8</ele></trkpt>
    <trkpt lat="44.428764" lon="5.328879"><ele>631.0</ele></trkpt>
    <trkpt lat="44.428728" lon="5.328579"><ele>629.5</ele></trkpt>
    <trkpt lat="44.428722" lon="5.328421"><ele>629.0</ele></trkpt>
    <trkpt lat="44.428724" lon="5.328300"><ele>628.8</ele></trkpt>
    <trkpt lat="44.428737" lon="5.328198"><ele>628.2</ele></trkpt>
    <trkpt lat="44.428778" lon="5.328099"><ele>628.0</ele></trkpt>
    <trkpt lat="44.428841" lon="5.327993"><ele>628.0</ele></trkpt>
    <trkpt lat="44.429038" lon="5.327721"><ele>626.0</ele></trkpt>
    <trkpt lat="44.429057" lon="5.327536"><ele>623.5</ele></trkpt>
    <trkpt lat="44.429157" lon="5.327115"><ele>618.0</ele></trkpt>
    <trkpt lat="44.429259" lon="5.326838"><ele>611.5</ele></trkpt>
    <trkpt lat="44.429271" lon="5.326722"><ele>609.2</ele></trkpt>
    <trkpt lat="44.429296" lon="5.326627"><ele>607.2</ele></trkpt>
    <trkpt lat="44.429323" lon="5.326587"><ele>605.8</ele></trkpt>
    <trkpt lat="44.429346" lon="5.326569"><ele>604.8</ele></trkpt>
    <trkpt lat="44.429393" lon="5.326557"><ele>602.8</ele></trkpt>
    <trkpt lat="44.429505" lon="5.326537"><ele>598.5</ele></trkpt>
    <trkpt lat="44.429661" lon="5.326577"><ele>593.8</ele></trkpt>
    <trkpt lat="44.429758" lon="5.326588"><ele>590.5</ele></trkpt>
    <trkpt lat="44.429842" lon="5.326658"><ele>589.8</ele></trkpt>
    <trkpt lat="44.429895" lon="5.326744"><ele>590.0</ele></trkpt>
    <trkpt lat="44.429910" lon="5.326819"><ele>591.5</ele></trkpt>
    <trkpt lat="44.429952" lon="5.326954"><ele>593.5</ele></trkpt>
    <trkpt lat="44.429995" lon="5.327052"><ele>594.8</ele></trkpt>
    <trkpt lat="44.430086" lon="5.327114"><ele>592.5</ele></trkpt>
    <trkpt lat="44.430240" lon="5.327129"><ele>586.0</ele></trkpt>
    <trkpt lat="44.430334" lon="5.327162"><ele>582.8</ele></trkpt>
    <trkpt lat="44.430428" lon="5.327212"><ele>579.8</ele></trkpt>
    <trkpt lat="44.430566" lon="5.327318"><ele>576.2</ele></trkpt>
    <trkpt lat="44.430828" lon="5.327467"><ele>568.2</ele></trkpt>
    <trkpt lat="44.430925" lon="5.327544"><ele>570.8</ele></trkpt>
    <trkpt lat="44.431067" lon="5.327687"><ele>575.5</ele></trkpt>
    <trkpt lat="44.431118" lon="5.327720"><ele>576.5</ele></trkpt>
    <trkpt lat="44.431175" lon="5.327744"><ele>577.0</ele></trkpt>
    <trkpt lat="44.431237" lon="5.327787"><ele>577.8</ele></trkpt>
    <trkpt lat="44.431586" lon="5.328091"><ele>581.2</ele></trkpt>
    <trkpt lat="44.431616" lon="5.328100"><ele>581.0</ele></trkpt>
    <trkpt lat="44.431630" lon="5.328088"><ele>580.5</ele></trkpt>
    <trkpt lat="44.431643" lon="5.328057"><ele>580.0</ele></trkpt>
    <trkpt lat="44.431662" lon="5.327987"><ele>578.5</ele></trkpt>
    <trkpt lat="44.431667" lon="5.327943"><ele>577.8</ele></trkpt>
    <trkpt lat="44.431647" lon="5.327864"><ele>576.8</ele></trkpt>
    <trkpt lat="44.431624" lon="5.327783"><ele>575.5</ele></trkpt>
    <trkpt lat="44.431595" lon="5.327742"><ele>575.0</ele></trkpt>
    <trkpt lat="44.431547" lon="5.327688"><ele>574.2</ele></trkpt>
    <trkpt lat="44.431477" lon="5.327530"><ele>571.0</ele></trkpt>
    <trkpt lat="44.431451" lon="5.327422"><ele>569.2</ele></trkpt>
    <trkpt lat="44.431445" lon="5.327353"><ele>568.0</ele></trkpt>
    <trkpt lat="44.431408" lon="5.327293"><ele>567.0</ele></trkpt>
    <trkpt lat="44.431364" lon="5.327341"><ele>567.5</ele></trkpt>
    <trkpt lat="44.431329" lon="5.327353"><ele>567.5</ele></trkpt>
    <trkpt lat="44.431293" lon="5.327344"><ele>567.2</ele></trkpt>
    <trkpt lat="44.431195" lon="5.327235"><ele>564.8</ele></trkpt>
    <trkpt lat="44.431120" lon="5.327170"><ele>563.0</ele></trkpt>
    <trkpt lat="44.430992" lon="5.327102"><ele>560.5</ele></trkpt>
    <trkpt lat="44.430889" lon="5.327036"><ele>558.2</ele></trkpt>
    <trkpt lat="44.430825" lon="5.326978"><ele>556.8</ele></trkpt>
    <trkpt lat="44.430781" lon="5.326913"><ele>557.0</ele></trkpt>
    <trkpt lat="44.430664" lon="5.326691"><ele>556.8</ele></trkpt>
    <trkpt lat="44.430578" lon="5.326561"><ele>557.0</ele></trkpt>
    <trkpt lat="44.430534" lon="5.326428"><ele>555.2</ele></trkpt>
    <trkpt lat="44.430518" lon="5.326361"><ele>554.0</ele></trkpt>
    <trkpt lat="44.430483" lon="5.326024"><ele>546.0</ele></trkpt>
    <trkpt lat="44.430403" lon="5.325781"><ele>542.2</ele></trkpt>
    <trkpt lat="44.430368" lon="5.325704"><ele>541.5</ele></trkpt>
    <trkpt lat="44.430330" lon="5.325655"><ele>541.2</ele></trkpt>
    <trkpt lat="44.430275" lon="5.325614"><ele>541.8</ele></trkpt>
    <trkpt lat="44.430208" lon="5.325597"><ele>543.0</ele></trkpt>
    <trkpt lat="44.430143" lon="5.325594"><ele>544.5</ele></trkpt>
    <trkpt lat="44.430090" lon="5.325570"><ele>545.2</ele></trkpt>
    <trkpt lat="44.430046" lon="5.325535"><ele>545.0</ele></trkpt>
    <trkpt lat="44.429755" lon="5.324998"><ele>544.8</ele></trkpt>
    <trkpt lat="44.429646" lon="5.324825"><ele>546.5</ele></trkpt>
    <trkpt lat="44.429537" lon="5.324570"><ele>544.5</ele></trkpt>
    <trkpt lat="44.429380" lon="5.324282"><ele>543.0</ele></trkpt>
    <trkpt lat="44.429287" lon="5.324072"><ele>540.2</ele></trkpt>
    <trkpt lat="44.429031" lon="5.323386"><ele>531.8</ele></trkpt>
    <trkpt lat="44.428823" lon="5.322874"><ele>533.2</ele></trkpt>
    <trkpt lat="44.428548" lon="5.322122"><ele>527.5</ele></trkpt>
    <trkpt lat="44.428390" lon="5.321663"><ele>516.2</ele></trkpt>
    <trkpt lat="44.428317" lon="5.321432"><ele>514.5</ele></trkpt>
    <trkpt lat="44.428200" lon="5.320998"><ele>508.2</ele></trkpt>
    <trkpt lat="44.428089" lon="5.320636"><ele>501.5</ele></trkpt>
    <trkpt lat="44.428051" lon="5.320528"><ele>500.2</ele></trkpt>
    <trkpt lat="44.427962" lon="5.320345"><ele>498.8</ele></trkpt>
    <trkpt lat="44.427939" lon="5.320284"><ele>498.0</ele></trkpt>
    <trkpt lat="44.427938" lon="5.320244"><ele>496.8</ele></trkpt>
    <trkpt lat="44.427950" lon="5.320220"><ele>495.8</ele></trkpt>
    <trkpt lat="44.427870" lon="5.320029"><ele>493.0</ele></trkpt>
    <trkpt lat="44.427805" lon="5.319724"><ele>487.5</ele></trkpt>
    <trkpt lat="44.427776" lon="5.319660"><ele>486.8</ele></trkpt>
    <trkpt lat="44.427647" lon="5.319529"><ele>487.2</ele></trkpt>
    <trkpt lat="44.427511" lon="5.319384"><ele>487.0</ele></trkpt>
    <trkpt lat="44.427469" lon="5.319314"><ele>485.0</ele></trkpt>
    <trkpt lat="44.427419" lon="5.319155"><ele>479.5</ele></trkpt>
    <trkpt lat="44.427346" lon="5.319095"><ele>476.8</ele></trkpt>
    <trkpt lat="44.427265" lon="5.318976"><ele>472.8</ele></trkpt>
    <trkpt lat="44.427194" lon="5.318856"><ele>469.2</ele></trkpt>
    <trkpt lat="44.427119" lon="5.318759"><ele>466.5</ele></trkpt>
    <trkpt lat="44.427028" lon="5.318708"><ele>465.0</ele></trkpt>
    <trkpt lat="44.426984" lon="5.318669"><ele>464.0</ele></trkpt>
    <trkpt lat="44.426965" lon="5.318627"><ele>463.2</ele></trkpt>
    <trkpt lat="44.426962" lon="5.318548"><ele>461.8</ele></trkpt>
    <trkpt lat="44.426976" lon="5.318405"><ele>458.8</ele></trkpt>
    <trkpt lat="44.426985" lon="5.318314"><ele>457.0</ele></trkpt>
    <trkpt lat="44.426961" lon="5.318170"><ele>454.5</ele></trkpt>
    <trkpt lat="44.426954" lon="5.318043"><ele>452.2</ele></trkpt>
    <trkpt lat="44.427024" lon="5.318072"><ele>452.2</ele></trkpt>
    <trkpt lat="44.427090" lon="5.318118"><ele>452.5</ele></trkpt>
    <trkpt lat="44.427227" lon="5.318244"><ele>454.0</ele></trkpt>
    <trkpt lat="44.427342" lon="5.318335"><ele>455.8</ele></trkpt>
    <trkpt lat="44.427448" lon="5.318381"><ele>456.5</ele></trkpt>
    <trkpt lat="44.427722" lon="5.318447"><ele>453.2</ele></trkpt>
    <trkpt lat="44.427900" lon="5.318478"><ele>448.8</ele></trkpt>
  </trkseg></trk></gpx>