<?xml version="1.0" encoding="UTF-8"?>
<gpx version="1.1" creator="Chemins Noirs — Waypoints Visorando"
  xmlns="http://www.topografix.com/GPX/1/1" xmlns:xsi="http://www.w3.org/2001/XMLSchema-instance"
  xsi:schemaLocation="http://www.topografix.com/GPX/1/1 http://www.topografix.com/GPX/1/1/gpx.xsd">
<metadata><name>J5 — Montbrun-les-Bains + thermes</name>
<desc>Village médiéval perché, thermes, panorama. Boucle PR depuis Montbrun. Finir aux thermes ! — 14.5km +678m. Suivre balisage PR jaune.</desc></metadata>
<wpt lat="44.175000" lon="5.438000"><name>🅿️ Montbrun-les-Bains, parking thermes</name><sym>Parking Area</sym></wpt>
<trk><name>J5 — Montbrun-les-Bains + thermes</name><desc>Village médiéval perché, thermes, panorama. Boucle PR depuis Montbrun. Finir aux thermes !</desc><trkseg>
    <trkpt lat="44.175000" lon="5.438000"><ele>520.0</ele></trkpt>
    <trkpt lat="44.180000" lon="5.430000"><ele>600.0</ele></trkpt>
    <trkpt lat="44.190000" lon="5.420000"><ele>720.0</ele></trkpt>
    <trkpt lat="44.200000" lon="5.405000"><ele>780.0</ele></trkpt>
    <trkpt lat="44.209500" lon="5.403400"><ele>779.0</ele></trkpt>
    <trkpt lat="44.200000" lon="5.415000"><ele>700.0</ele></trkpt>
    <trkpt lat="44.190000" lon="5.428000"><ele>620.0</ele></trkpt>
    <trkpt lat="44.180000" lon="5.435000"><ele>550.0</ele></trkpt>
    <trkpt lat="44.175000" lon="5.438000"><ele>520.0</ele></trkpt>
  </trkseg></trk></gpx>