<?xml version="1.0" encoding="UTF-8"?>
<gpx version="1.1" creator="Chemins Noirs + BRouter"
  xmlns="http://www.topografix.com/GPX/1/1" xmlns:xsi="http://www.w3.org/2001/XMLSchema-instance"
  xsi:schemaLocation="http://www.topografix.com/GPX/1/1 http://www.topografix.com/GPX/1/1/gpx.xsd">
<metadata><name>J6 — Montagne d'Angèle (1622m)</name><desc>⛰️ Vue Dévoluy + Ventoux + Vercors. Depuis Sahune/Villeperdrix. — 15.7km +485m</desc></metadata>
<wpt lat="44.418400" lon="5.275100"><name>🅿️ Sahune, parking stade</name><sym>Parking Area</sym></wpt>
<trk><name>J6 — Montagne d'Angèle (1622m)</name><desc>⛰️ Vue Dévoluy + Ventoux + Vercors. Depuis Sahune/Villeperdrix.</desc><trkseg>
    <trkpt lat="44.418383" lon="5.275122"><ele>358.0</ele></trkpt>
    <trkpt lat="44.418644" lon="5.275489"><ele>358.2</ele></trkpt>
    <trkpt lat="44.418649" lon="5.275519"><ele>358.2</ele></trkpt>
    <trkpt lat="44.418655" lon="5.275554"><ele>358.2</ele></trkpt>
    <trkpt lat="44.418709" lon="5.275575"><ele>358.2</ele></trkpt>
    <trkpt lat="44.418996" lon="5.275723"><ele>358.8</ele></trkpt>
    <trkpt lat="44.419189" lon="5.275776"><ele>359.0</ele></trkpt>
    <trkpt lat="44.419314" lon="5.275828"><ele>359.0</ele></trkpt>
    <trkpt lat="44.419526" lon="5.275947"><ele>358.8</ele></trkpt>
    <trkpt lat="44.419754" lon="5.275995"><ele>358.8</ele></trkpt>
    <trkpt lat="44.420157" lon="5.276114"><ele>358.5</ele></trkpt>
    <trkpt lat="44.420610" lon="5.276310"><ele>358.8</ele></trkpt>
    <trkpt lat="44.421912" lon="5.276853"><ele>359.0</ele></trkpt>
    <trkpt lat="44.422537" lon="5.277140"><ele>359.5</ele></trkpt>
    <trkpt lat="44.422921" lon="5.277256"><ele>360.5</ele></trkpt>
    <trkpt lat="44.424059" lon="5.277651"><ele>362.2</ele></trkpt>
    <trkpt lat="44.424473" lon="5.277899"><ele>362.8</ele></trkpt>
    <trkpt lat="44.424614" lon="5.278039"><ele>362.2</ele></trkpt>
    <trkpt lat="44.424811" lon="5.278289"><ele>361.8</ele></trkpt>
    <trkpt lat="44.424614" lon="5.278039"><ele>362.2</ele></trkpt>
    <trkpt lat="44.424473" lon="5.277899"><ele>362.8</ele></trkpt>
    <trkpt lat="44.424059" lon="5.277651"><ele>362.2</ele></trkpt>
    <trkpt lat="44.422921" lon="5.277256"><ele>360.5</ele></trkpt>
    <trkpt lat="44.422537" lon="5.277140"><ele>359.5</ele></trkpt>
    <trkpt lat="44.421912" lon="5.276853"><ele>359.0</ele></trkpt>
    <trkpt lat="44.420610" lon="5.276310"><ele>358.8</ele></trkpt>
    <trkpt lat="44.420157" lon="5.276114"><ele>358.5</ele></trkpt>
    <trkpt lat="44.419754" lon="5.275995"><ele>358.8</ele></trkpt>
    <trkpt lat="44.419526" lon="5.275947"><ele>358.8</ele></trkpt>
    <trkpt lat="44.419314" lon="5.275828"><ele>359.0</ele></trkpt>
    <trkpt lat="44.419189" lon="5.275776"><ele>359.0</ele></trkpt>
    <trkpt lat="44.418996" lon="5.275723"><ele>358.8</ele></trkpt>
    <trkpt lat="44.418709" lon="5.275575"><ele>358.2</ele></trkpt>
    <trkpt lat="44.418655" lon="5.275554"><ele>358.2</ele></trkpt>
    <trkpt lat="44.418174" lon="5.276478"><ele>359.5</ele></trkpt>
    <trkpt lat="44.417749" lon="5.275930"><ele>359.2</ele></trkpt>
    <trkpt lat="44.417641" lon="5.275773"><ele>359.5</ele></trkpt>
    <trkpt lat="44.417520" lon="5.275548"><ele>359.2</ele></trkpt>
    <trkpt lat="44.417452" lon="5.275432"><ele>359.0</ele></trkpt>
    <trkpt lat="44.417373" lon="5.275315"><ele>359.0</ele></trkpt>
    <trkpt lat="44.417300" lon="5.275253"><ele>359.0</ele></trkpt>
    <trkpt lat="44.417181" lon="5.275212"><ele>359.0</ele></trkpt>
    <trkpt lat="44.416700" lon="5.275156"><ele>360.0</ele></trkpt>
    <trkpt lat="44.416451" lon="5.275118"><ele>360.8</ele></trkpt>
    <trkpt lat="44.416284" lon="5.274975"><ele>361.2</ele></trkpt>
    <trkpt lat="44.416085" lon="5.274785"><ele>361.5</ele></trkpt>
    <trkpt lat="44.416042" lon="5.274695"><ele>361.5</ele></trkpt>
    <trkpt lat="44.415959" lon="5.274586"><ele>361.5</ele></trkpt>
    <trkpt lat="44.415915" lon="5.274529"><ele>361.5</ele></trkpt>
    <trkpt lat="44.415904" lon="5.274425"><ele>361.2</ele></trkpt>
    <trkpt lat="44.415914" lon="5.274319"><ele>361.0</ele></trkpt>
    <trkpt lat="44.415964" lon="5.274210"><ele>360.5</ele></trkpt>
    <trkpt lat="44.416524" lon="5.273680"><ele>357.5</ele></trkpt>
    <trkpt lat="44.416564" lon="5.273618"><ele>357.2</ele></trkpt>
    <trkpt lat="44.416598" lon="5.273548"><ele>357.2</ele></trkpt>
    <trkpt lat="44.416720" lon="5.272979"><ele>356.0</ele></trkpt>
    <trkpt lat="44.416735" lon="5.272902"><ele>355.8</ele></trkpt>
    <trkpt lat="44.416803" lon="5.272466"><ele>355.0</ele></trkpt>
    <trkpt lat="44.416858" lon="5.271820"><ele>356.0</ele></trkpt>
    <trkpt lat="44.416757" lon="5.271653"><ele>355.8</ele></trkpt>
    <trkpt lat="44.416165" lon="5.271128"><ele>357.2</ele></trkpt>
    <trkpt lat="44.415699" lon="5.270704"><ele>356.8</ele></trkpt>
    <trkpt lat="44.415287" lon="5.270363"><ele>356.8</ele></trkpt>
    <trkpt lat="44.415032" lon="5.270140"><ele>355.8</ele></trkpt>
    <trkpt lat="44.414709" lon="5.269854"><ele>356.2</ele></trkpt>
    <trkpt lat="44.414169" lon="5.269296"><ele>355.0</ele></trkpt>
    <trkpt lat="44.413921" lon="5.269008"><ele>355.5</ele></trkpt>
    <trkpt lat="44.413546" lon="5.268527"><ele>356.5</ele></trkpt>
    <trkpt lat="44.413312" lon="5.268172"><ele>357.5</ele></trkpt>
    <trkpt lat="44.413256" lon="5.267966"><ele>359.0</ele></trkpt>
    <trkpt lat="44.413220" lon="5.267714"><ele>360.2</ele></trkpt>
    <trkpt lat="44.413204" lon="5.267669"><ele>360.8</ele></trkpt>
    <trkpt lat="44.413261" lon="5.267646"><ele>359.5</ele></trkpt>
    <trkpt lat="44.413317" lon="5.267643"><ele>358.0</ele></trkpt>
    <trkpt lat="44.413782" lon="5.267640"><ele>358.2</ele></trkpt>
    <trkpt lat="44.414043" lon="5.267533"><ele>358.8</ele></trkpt>
    <trkpt lat="44.414075" lon="5.267502"><ele>358.8</ele></trkpt>
    <trkpt lat="44.414180" lon="5.267376"><ele>359.2</ele></trkpt>
    <trkpt lat="44.414211" lon="5.267276"><ele>359.8</ele></trkpt>
    <trkpt lat="44.414210" lon="5.267149"><ele>359.8</ele></trkpt>
    <trkpt lat="44.414203" lon="5.266917"><ele>359.8</ele></trkpt>
    <trkpt lat="44.414188" lon="5.266839"><ele>359.2</ele></trkpt>
    <trkpt lat="44.414174" lon="5.266803"><ele>359.0</ele></trkpt>
    <trkpt lat="44.414168" lon="5.266758"><ele>359.0</ele></trkpt>
    <trkpt lat="44.414177" lon="5.266726"><ele>359.0</ele></trkpt>
    <trkpt lat="44.414195" lon="5.266700"><ele>359.5</ele></trkpt>
    <trkpt lat="44.414251" lon="5.266681"><ele>360.8</ele></trkpt>
    <trkpt lat="44.414278" lon="5.266681"><ele>361.2</ele></trkpt>
    <trkpt lat="44.414312" lon="5.266217"><ele>361.5</ele></trkpt>
    <trkpt lat="44.414339" lon="5.266221"><ele>362.2</ele></trkpt>
    <trkpt lat="44.414469" lon="5.266240"><ele>365.0</ele></trkpt>
    <trkpt lat="44.414502" lon="5.266232"><ele>365.8</ele></trkpt>
    <trkpt lat="44.414536" lon="5.266201"><ele>366.5</ele></trkpt>
    <trkpt lat="44.414560" lon="5.266059"><ele>367.0</ele></trkpt>
    <trkpt lat="44.414570" lon="5.265951"><ele>367.2</ele></trkpt>
    <trkpt lat="44.414590" lon="5.265904"><ele>367.5</ele></trkpt>
    <trkpt lat="44.414642" lon="5.265899"><ele>368.8</ele></trkpt>
    <trkpt lat="44.414665" lon="5.265925"><ele>369.2</ele></trkpt>
    <trkpt lat="44.414676" lon="5.265975"><ele>369.5</ele></trkpt>
    <trkpt lat="44.414653" lon="5.266156"><ele>369.0</ele></trkpt>
    <trkpt lat="44.414598" lon="5.266254"><ele>368.0</ele></trkpt>
    <trkpt lat="44.414577" lon="5.266477"><ele>367.5</ele></trkpt>
    <trkpt lat="44.414590" lon="5.266517"><ele>368.0</ele></trkpt>
    <trkpt lat="44.414623" lon="5.266538"><ele>368.8</ele></trkpt>
    <trkpt lat="44.414825" lon="5.266522"><ele>373.0</ele></trkpt>
    <trkpt lat="44.414860" lon="5.266531"><ele>373.8</ele></trkpt>
    <trkpt lat="44.414889" lon="5.266574"><ele>374.5</ele></trkpt>
    <trkpt lat="44.414919" lon="5.266726"><ele>375.0</ele></trkpt>
    <trkpt lat="44.414988" lon="5.266965"><ele>376.0</ele></trkpt>
    <trkpt lat="44.415036" lon="5.266986"><ele>377.0</ele></trkpt>
    <trkpt lat="44.415204" lon="5.266949"><ele>381.8</ele></trkpt>
    <trkpt lat="44.415238" lon="5.266908"><ele>382.8</ele></trkpt>
    <trkpt lat="44.415257" lon="5.266842"><ele>383.5</ele></trkpt>
    <trkpt lat="44.415259" lon="5.266361"><ele>385.2</ele></trkpt>
    <trkpt lat="44.415282" lon="5.266310"><ele>386.0</ele></trkpt>
    <trkpt lat="44.415316" lon="5.266294"><ele>387.2</ele></trkpt>
    <trkpt lat="44.415353" lon="5.266308"><ele>388.5</ele></trkpt>
    <trkpt lat="44.415510" lon="5.266466"><ele>392.5</ele></trkpt>
    <trkpt lat="44.415546" lon="5.266524"><ele>393.0</ele></trkpt>
    <trkpt lat="44.415607" lon="5.266893"><ele>393.0</ele></trkpt>
    <trkpt lat="44.415693" lon="5.267247"><ele>394.0</ele></trkpt>
    <trkpt lat="44.415853" lon="5.267598"><ele>396.5</ele></trkpt>
    <trkpt lat="44.415981" lon="5.267772"><ele>398.2</ele></trkpt>
    <trkpt lat="44.416029" lon="5.267778"><ele>399.5</ele></trkpt>
    <trkpt lat="44.416132" lon="5.267724"><ele>403.0</ele></trkpt>
    <trkpt lat="44.416268" lon="5.267778"><ele>406.2</ele></trkpt>
    <trkpt lat="44.416354" lon="5.267802"><ele>408.2</ele></trkpt>
    <trkpt lat="44.416502" lon="5.267960"><ele>411.0</ele></trkpt>
    <trkpt lat="44.416600" lon="5.268234"><ele>411.0</ele></trkpt>
    <trkpt lat="44.416590" lon="5.268456"><ele>408.2</ele></trkpt>
    <trkpt lat="44.416793" lon="5.268832"><ele>410.2</ele></trkpt>
    <trkpt lat="44.416786" lon="5.268435"><ele>415.8</ele></trkpt>
    <trkpt lat="44.416801" lon="5.268354"><ele>417.8</ele></trkpt>
    <trkpt lat="44.416887" lon="5.268223"><ele>423.2</ele></trkpt>
    <trkpt lat="44.416924" lon="5.268130"><ele>426.0</ele></trkpt>
    <trkpt lat="44.416929" lon="5.268039"><ele>427.2</ele></trkpt>
    <trkpt lat="44.416951" lon="5.267950"><ele>429.5</ele></trkpt>
    <trkpt lat="44.416977" lon="5.267932"><ele>431.0</ele></trkpt>
    <trkpt lat="44.416998" lon="5.267960"><ele>431.8</ele></trkpt>
    <trkpt lat="44.417009" lon="5.268030"><ele>431.2</ele></trkpt>
    <trkpt lat="44.416998" lon="5.268118"><ele>429.8</ele></trkpt>
    <trkpt lat="44.416956" lon="5.268285"><ele>425.8</ele></trkpt>
    <trkpt lat="44.417019" lon="5.268502"><ele>425.0</ele></trkpt>
    <trkpt lat="44.417224" lon="5.268869"><ele>426.2</ele></trkpt>
    <trkpt lat="44.417366" lon="5.268985"><ele>429.2</ele></trkpt>
    <trkpt lat="44.417581" lon="5.268993"><ele>437.0</ele></trkpt>
    <trkpt lat="44.417824" lon="5.269124"><ele>442.2</ele></trkpt>
    <trkpt lat="44.417968" lon="5.269288"><ele>442.2</ele></trkpt>
    <trkpt lat="44.418192" lon="5.269524"><ele>441.5</ele></trkpt>
    <trkpt lat="44.418343" lon="5.269642"><ele>442.0</ele></trkpt>
    <trkpt lat="44.418519" lon="5.269709"><ele>443.2</ele></trkpt>
    <trkpt lat="44.418627" lon="5.269706"><ele>445.8</ele></trkpt>
    <trkpt lat="44.418793" lon="5.269618"><ele>452.8</ele></trkpt>
    <trkpt lat="44.418887" lon="5.269481"><ele>460.2</ele></trkpt>
    <trkpt lat="44.419077" lon="5.269390"><ele>468.5</ele></trkpt>
    <trkpt lat="44.419157" lon="5.269373"><ele>471.0</ele></trkpt>
    <trkpt lat="44.419372" lon="5.269545"><ele>471.2</ele></trkpt>
    <trkpt lat="44.419567" lon="5.269811"><ele>466.8</ele></trkpt>
    <trkpt lat="44.419719" lon="5.269972"><ele>465.2</ele></trkpt>
    <trkpt lat="44.419906" lon="5.269996"><ele>470.8</ele></trkpt>
    <trkpt lat="44.420073" lon="5.270221"><ele>471.0</ele></trkpt>
    <trkpt lat="44.420142" lon="5.270454"><ele>467.5</ele></trkpt>
    <trkpt lat="44.420268" lon="5.270618"><ele>468.8</ele></trkpt>
    <trkpt lat="44.420607" lon="5.270817"><ele>479.2</ele></trkpt>
    <trkpt lat="44.420757" lon="5.271015"><ele>480.8</ele></trkpt>
    <trkpt lat="44.420912" lon="5.271096"><ele>485.5</ele></trkpt>
    <trkpt lat="44.421136" lon="5.271179"><ele>492.5</ele></trkpt>
    <trkpt lat="44.421312" lon="5.271345"><ele>494.0</ele></trkpt>
    <trkpt lat="44.421435" lon="5.271399"><ele>497.2</ele></trkpt>
    <trkpt lat="44.421492" lon="5.271560"><ele>493.5</ele></trkpt>
    <trkpt lat="44.421820" lon="5.271643"><ele>504.5</ele></trkpt>
    <trkpt lat="44.422042" lon="5.271817"><ele>507.0</ele></trkpt>
    <trkpt lat="44.422552" lon="5.272249"><ele>509.2</ele></trkpt>
    <trkpt lat="44.422678" lon="5.272434"><ele>505.8</ele></trkpt>
    <trkpt lat="44.422916" lon="5.272525"><ele>512.2</ele></trkpt>
    <trkpt lat="44.423266" lon="5.272624"><ele>523.5</ele></trkpt>
    <trkpt lat="44.423379" lon="5.272697"><ele>524.5</ele></trkpt>
    <trkpt lat="44.423504" lon="5.272665"><ele>530.8</ele></trkpt>
    <trkpt lat="44.423354" lon="5.272512"><ele>533.0</ele></trkpt>
    <trkpt lat="44.423268" lon="5.272407"><ele>535.0</ele></trkpt>
    <trkpt lat="44.423247" lon="5.272316"><ele>539.0</ele></trkpt>
    <trkpt lat="44.423299" lon="5.272265"><ele>544.5</ele></trkpt>
    <trkpt lat="44.423412" lon="5.272316"><ele>546.0</ele></trkpt>
    <trkpt lat="44.423699" lon="5.272415"><ele>551.0</ele></trkpt>
    <trkpt lat="44.423837" lon="5.272501"><ele>551.5</ele></trkpt>
    <trkpt lat="44.423908" lon="5.272670"><ele>545.0</ele></trkpt>
    <trkpt lat="44.423960" lon="5.272691"><ele>545.8</ele></trkpt>
    <trkpt lat="44.424151" lon="5.272640"><ele>555.5</ele></trkpt>
    <trkpt lat="44.424372" lon="5.272640"><ele>560.0</ele></trkpt>
    <trkpt lat="44.424741" lon="5.272509"><ele>571.8</ele></trkpt>
    <trkpt lat="44.425155" lon="5.272552"><ele>578.0</ele></trkpt>
    <trkpt lat="44.425281" lon="5.272353"><ele>585.5</ele></trkpt>
    <trkpt lat="44.425328" lon="5.271991"><ele>594.8</ele></trkpt>
    <trkpt lat="44.425410" lon="5.271541"><ele>605.5</ele></trkpt>
    <trkpt lat="44.425622" lon="5.271568"><ele>606.0</ele></trkpt>
    <trkpt lat="44.425789" lon="5.271747"><ele>603.5</ele></trkpt>
    <trkpt lat="44.426025" lon="5.272150"><ele>603.8</ele></trkpt>
    <trkpt lat="44.426222" lon="5.272514"><ele>606.0</ele></trkpt>
    <trkpt lat="44.426297" lon="5.272859"><ele>605.5</ele></trkpt>
    <trkpt lat="44.426326" lon="5.272879"><ele>606.2</ele></trkpt>
    <trkpt lat="44.426354" lon="5.272847"><ele>607.2</ele></trkpt>
    <trkpt lat="44.426416" lon="5.272437"><ele>612.5</ele></trkpt>
    <trkpt lat="44.426442" lon="5.272185"><ele>615.0</ele></trkpt>
    <trkpt lat="44.426543" lon="5.272051"><ele>618.8</ele></trkpt>
    <trkpt lat="44.426577" lon="5.272125"><ele>619.2</ele></trkpt>
    <trkpt lat="44.426609" lon="5.272306"><ele>619.0</ele></trkpt>
    <trkpt lat="44.426679" lon="5.272439"><ele>619.8</ele></trkpt>
    <trkpt lat="44.426668" lon="5.272749"><ele>617.5</ele></trkpt>
    <trkpt lat="44.426729" lon="5.272920"><ele>614.5</ele></trkpt>
    <trkpt lat="44.426872" lon="5.273022"><ele>610.5</ele></trkpt>
    <trkpt lat="44.426963" lon="5.273186"><ele>607.2</ele></trkpt>
    <trkpt lat="44.427053" lon="5.273167"><ele>605.5</ele></trkpt>
    <trkpt lat="44.427385" lon="5.273565"><ele>596.8</ele></trkpt>
    <trkpt lat="44.427583" lon="5.273398"><ele>592.8</ele></trkpt>
    <trkpt lat="44.427794" lon="5.273530"><ele>584.2</ele></trkpt>
    <trkpt lat="44.427963" lon="5.272809"><ele>580.0</ele></trkpt>
    <trkpt lat="44.428400" lon="5.271602"><ele>564.2</ele></trkpt>
    <trkpt lat="44.429126" lon="5.271082"><ele>533.5</ele></trkpt>
    <trkpt lat="44.429134" lon="5.271475"><ele>529.2</ele></trkpt>
    <trkpt lat="44.429189" lon="5.271968"><ele>521.5</ele></trkpt>
    <trkpt lat="44.429215" lon="5.272140"><ele>518.8</ele></trkpt>
    <trkpt lat="44.429186" lon="5.272428"><ele>516.2</ele></trkpt>
    <trkpt lat="44.429205" lon="5.272876"><ele>515.0</ele></trkpt>
    <trkpt lat="44.429276" lon="5.272916"><ele>512.8</ele></trkpt>
    <trkpt lat="44.429322" lon="5.273108"><ele>511.2</ele></trkpt>
    <trkpt lat="44.429470" lon="5.273309"><ele>505.8</ele></trkpt>
    <trkpt lat="44.429513" lon="5.273453"><ele>502.8</ele></trkpt>
    <trkpt lat="44.429640" lon="5.273631"><ele>496.0</ele></trkpt>
    <trkpt lat="44.429791" lon="5.273787"><ele>489.0</ele></trkpt>
    <trkpt lat="44.429989" lon="5.273875"><ele>481.0</ele></trkpt>
    <trkpt lat="44.430235" lon="5.273915"><ele>479.8</ele></trkpt>
    <trkpt lat="44.430354" lon="5.273960"><ele>478.8</ele></trkpt>
    <trkpt lat="44.430499" lon="5.274029"><ele>477.0</ele></trkpt>
    <trkpt lat="44.430577" lon="5.274138"><ele>475.0</ele></trkpt>
    <trkpt lat="44.430673" lon="5.274099"><ele>475.0</ele></trkpt>
    <trkpt lat="44.430762" lon="5.273995"><ele>476.8</ele></trkpt>
    <trkpt lat="44.430785" lon="5.273829"><ele>479.8</ele></trkpt>
    <trkpt lat="44.430850" lon="5.273986"><ele>476.5</ele></trkpt>
    <trkpt lat="44.430923" lon="5.274037"><ele>475.8</ele></trkpt>
    <trkpt lat="44.430968" lon="5.274183"><ele>472.5</ele></trkpt>
    <trkpt lat="44.430968" lon="5.274476"><ele>464.5</ele></trkpt>
    <trkpt lat="44.430910" lon="5.274830"><ele>455.0</ele></trkpt>
    <trkpt lat="44.430948" lon="5.274916"><ele>452.5</ele></trkpt>
    <trkpt lat="44.431035" lon="5.274822"><ele>454.8</ele></trkpt>
    <trkpt lat="44.431171" lon="5.274507"><ele>463.2</ele></trkpt>
    <trkpt lat="44.431340" lon="5.274347"><ele>467.5</ele></trkpt>
    <trkpt lat="44.431765" lon="5.274035"><ele>474.2</ele></trkpt>
    <trkpt lat="44.432078" lon="5.273890"><ele>469.8</ele></trkpt>
    <trkpt lat="44.433312" lon="5.273363"><ele>457.5</ele></trkpt>
    <trkpt lat="44.433724" lon="5.273032"><ele>465.5</ele></trkpt>
    <trkpt lat="44.433860" lon="5.272903"><ele>467.5</ele></trkpt>
    <trkpt lat="44.433891" lon="5.272976"><ele>467.0</ele></trkpt>
    <trkpt lat="44.433909" lon="5.273085"><ele>465.8</ele></trkpt>
    <trkpt lat="44.433875" lon="5.273220"><ele>464.0</ele></trkpt>
    <trkpt lat="44.433894" lon="5.273317"><ele>463.0</ele></trkpt>
    <trkpt lat="44.434001" lon="5.273391"><ele>465.0</ele></trkpt>
    <trkpt lat="44.433979" lon="5.273464"><ele>466.0</ele></trkpt>
    <trkpt lat="44.433911" lon="5.273500"><ele>465.8</ele></trkpt>
    <trkpt lat="44.433763" lon="5.273699"><ele>467.0</ele></trkpt>
    <trkpt lat="44.433759" lon="5.273768"><ele>468.0</ele></trkpt>
    <trkpt lat="44.433837" lon="5.273785"><ele>469.2</ele></trkpt>
    <trkpt lat="44.434011" lon="5.273799"><ele>471.8</ele></trkpt>
    <trkpt lat="44.434114" lon="5.273828"><ele>473.5</ele></trkpt>
    <trkpt lat="44.434262" lon="5.273846"><ele>476.0</ele></trkpt>
    <trkpt lat="44.434359" lon="5.273932"><ele>478.5</ele></trkpt>
    <trkpt lat="44.434365" lon="5.273975"><ele>479.2</ele></trkpt>
    <trkpt lat="44.434259" lon="5.274038"><ele>478.8</ele></trkpt>
    <trkpt lat="44.434224" lon="5.274128"><ele>479.8</ele></trkpt>
    <trkpt lat="44.434044" lon="5.274330"><ele>482.5</ele></trkpt>
    <trkpt lat="44.434027" lon="5.274381"><ele>483.5</ele></trkpt>
    <trkpt lat="44.434055" lon="5.274424"><ele>485.0</ele></trkpt>
    <trkpt lat="44.434126" lon="5.274400"><ele>485.5</ele></trkpt>
    <trkpt lat="44.434250" lon="5.274381"><ele>486.2</ele></trkpt>
    <trkpt lat="44.434361" lon="5.274424"><ele>488.2</ele></trkpt>
    <trkpt lat="44.434458" lon="5.274510"><ele>491.2</ele></trkpt>
    <trkpt lat="44.434490" lon="5.274622"><ele>494.2</ele></trkpt>
    <trkpt lat="44.434531" lon="5.274669"><ele>495.5</ele></trkpt>
    <trkpt lat="44.434593" lon="5.274845"><ele>500.2</ele></trkpt>
    <trkpt lat="44.434655" lon="5.274898"><ele>501.8</ele></trkpt>
    <trkpt lat="44.434741" lon="5.275127"><ele>505.8</ele></trkpt>
    <trkpt lat="44.434838" lon="5.275276"><ele>507.5</ele></trkpt>
    <trkpt lat="44.434857" lon="5.275349"><ele>508.2</ele></trkpt>
    <trkpt lat="44.434862" lon="5.275426"><ele>509.0</ele></trkpt>
    <trkpt lat="44.434869" lon="5.275484"><ele>509.5</ele></trkpt>
    <trkpt lat="44.434976" lon="5.275514"><ele>510.0</ele></trkpt>
    <trkpt lat="44.435011" lon="5.275514"><ele>510.2</ele></trkpt>
    <trkpt lat="44.435609" lon="5.275974"><ele>518.2</ele></trkpt>
    <trkpt lat="44.436054" lon="5.276268"><ele>521.2</ele></trkpt>
    <trkpt lat="44.436422" lon="5.276552"><ele>522.8</ele></trkpt>
    <trkpt lat="44.436677" lon="5.276712"><ele>523.2</ele></trkpt>
    <trkpt lat="44.437023" lon="5.276791"><ele>520.8</ele></trkpt>
    <trkpt lat="44.437433" lon="5.276686"><ele>522.5</ele></trkpt>
    <trkpt lat="44.437571" lon="5.276628"><ele>524.0</ele></trkpt>
    <trkpt lat="44.437849" lon="5.276682"><ele>524.2</ele></trkpt>
    <trkpt lat="44.438148" lon="5.276791"><ele>523.5</ele></trkpt>
    <trkpt lat="44.438160" lon="5.276917"><ele>521.2</ele></trkpt>
    <trkpt lat="44.438208" lon="5.276996"><ele>520.2</ele></trkpt>
    <trkpt lat="44.438402" lon="5.277135"><ele>519.5</ele></trkpt>
    <trkpt lat="44.438579" lon="5.277386"><ele>517.2</ele></trkpt>
    <trkpt lat="44.438713" lon="5.277516"><ele>516.8</ele></trkpt>
    <trkpt lat="44.438968" lon="5.277822"><ele>515.8</ele></trkpt>
    <trkpt lat="44.439171" lon="5.277947"><ele>516.0</ele></trkpt>
    <trkpt lat="44.439341" lon="5.277968"><ele>514.2</ele></trkpt>
    <trkpt lat="44.439458" lon="5.278014"><ele>512.8</ele></trkpt>
    <trkpt lat="44.439524" lon="5.278144"><ele>510.5</ele></trkpt>
    <trkpt lat="44.439731" lon="5.278021"><ele>510.2</ele></trkpt>
    <trkpt lat="44.439790" lon="5.278019"><ele>509.8</ele></trkpt>
    <trkpt lat="44.439883" lon="5.278082"><ele>508.2</ele></trkpt>
    <trkpt lat="44.439912" lon="5.278164"><ele>506.8</ele></trkpt>
    <trkpt lat="44.440009" lon="5.278291"><ele>504.5</ele></trkpt>
    <trkpt lat="44.440087" lon="5.278346"><ele>503.2</ele></trkpt>
    <trkpt lat="44.440201" lon="5.278456"><ele>501.0</ele></trkpt>
    <trkpt lat="44.440313" lon="5.278485"><ele>500.0</ele></trkpt>
    <trkpt lat="44.440484" lon="5.278446"><ele>499.8</ele></trkpt>
    <trkpt lat="44.440658" lon="5.278889"><ele>492.0</ele></trkpt>
    <trkpt lat="44.440808" lon="5.279193"><ele>486.8</ele></trkpt>
    <trkpt lat="44.440797" lon="5.279331"><ele>485.0</ele></trkpt>
    <trkpt lat="44.440803" lon="5.279427"><ele>483.5</ele></trkpt>
    <trkpt lat="44.440807" lon="5.279496"><ele>482.8</ele></trkpt>
    <trkpt lat="44.440774" lon="5.279745"><ele>479.8</ele></trkpt>
    <trkpt lat="44.440786" lon="5.279888"><ele>477.8</ele></trkpt>
    <trkpt lat="44.440770" lon="5.280078"><ele>475.5</ele></trkpt>
    <trkpt lat="44.440770" lon="5.280269"><ele>473.8</ele></trkpt>
    <trkpt lat="44.440762" lon="5.280340"><ele>473.2</ele></trkpt>
    <trkpt lat="44.440724" lon="5.280483"><ele>472.0</ele></trkpt>
    <trkpt lat="44.440660" lon="5.280849"><ele>469.2</ele></trkpt>
    <trkpt lat="44.440623" lon="5.281105"><ele>467.0</ele></trkpt>
    <trkpt lat="44.440638" lon="5.281263"><ele>465.2</ele></trkpt>
    <trkpt lat="44.440622" lon="5.281419"><ele>463.8</ele></trkpt>
    <trkpt lat="44.440624" lon="5.281557"><ele>462.5</ele></trkpt>
    <trkpt lat="44.440669" lon="5.281907"><ele>459.5</ele></trkpt>
    <trkpt lat="44.440778" lon="5.282170"><ele>456.5</ele></trkpt>
    <trkpt lat="44.440815" lon="5.282432"><ele>454.5</ele></trkpt>
    <trkpt lat="44.440832" lon="5.282700"><ele>452.5</ele></trkpt>
    <trkpt lat="44.440851" lon="5.282796"><ele>451.8</ele></trkpt>
    <trkpt lat="44.440888" lon="5.282888"><ele>450.8</ele></trkpt>
    <trkpt lat="44.441062" lon="5.283432"><ele>445.2</ele></trkpt>
    <trkpt lat="44.441079" lon="5.283519"><ele>444.8</ele></trkpt>
    <trkpt lat="44.441126" lon="5.283650"><ele>444.0</ele></trkpt>
    <trkpt lat="44.441180" lon="5.283686"><ele>443.8</ele></trkpt>
    <trkpt lat="44.441378" lon="5.283621"><ele>442.8</ele></trkpt>
    <trkpt lat="44.441426" lon="5.283652"><ele>442.5</ele></trkpt>
    <trkpt lat="44.441438" lon="5.283677"><ele>442.5</ele></trkpt>
    <trkpt lat="44.441447" lon="5.283698"><ele>442.5</ele></trkpt>
    <trkpt lat="44.441471" lon="5.283725"><ele>442.5</ele></trkpt>
    <trkpt lat="44.441502" lon="5.283761"><ele>442.5</ele></trkpt>
    <trkpt lat="44.441513" lon="5.283803"><ele>442.5</ele></trkpt>
    <trkpt lat="44.441429" lon="5.283966"><ele>443.0</ele></trkpt>
    <trkpt lat="44.441392" lon="5.284163"><ele>443.2</ele></trkpt>
    <trkpt lat="44.441399" lon="5.284307"><ele>443.5</ele></trkpt>
    <trkpt lat="44.441385" lon="5.284387"><ele>443.5</ele></trkpt>
    <trkpt lat="44.441319" lon="5.284705"><ele>443.5</ele></trkpt>
    <trkpt lat="44.441344" lon="5.284816"><ele>443.8</ele></trkpt>
    <trkpt lat="44.441464" lon="5.284927"><ele>445.2</ele></trkpt>
    <trkpt lat="44.441508" lon="5.285021"><ele>446.2</ele></trkpt>
    <trkpt lat="44.441465" lon="5.285125"><ele>447.2</ele></trkpt>
    <trkpt lat="44.441417" lon="5.285158"><ele>447.2</ele></trkpt>
    <trkpt lat="44.441357" lon="5.285199"><ele>447.2</ele></trkpt>
    <trkpt lat="44.441223" lon="5.285272"><ele>447.0</ele></trkpt>
    <trkpt lat="44.441115" lon="5.285452"><ele>449.0</ele></trkpt>
    <trkpt lat="44.441057" lon="5.285640"><ele>451.8</ele></trkpt>
    <trkpt lat="44.441068" lon="5.285805"><ele>454.8</ele></trkpt>
    <trkpt lat="44.441075" lon="5.286082"><ele>459.2</ele></trkpt>
    <trkpt lat="44.441022" lon="5.286613"><ele>466.8</ele></trkpt>
    <trkpt lat="44.441127" lon="5.286657"><ele>469.2</ele></trkpt>
    <trkpt lat="44.441248" lon="5.286686"><ele>472.0</ele></trkpt>
    <trkpt lat="44.441386" lon="5.286791"><ele>475.2</ele></trkpt>
    <trkpt lat="44.441531" lon="5.286703"><ele>477.5</ele></trkpt>
    <trkpt lat="44.441578" lon="5.286768"><ele>478.8</ele></trkpt>
    <trkpt lat="44.441639" lon="5.286732"><ele>479.8</ele></trkpt>
    <trkpt lat="44.441743" lon="5.286664"><ele>480.2</ele></trkpt>
    <trkpt lat="44.441786" lon="5.286706"><ele>481.0</ele></trkpt>
    <trkpt lat="44.441682" lon="5.286871"><ele>481.5</ele></trkpt>
    <trkpt lat="44.441801" lon="5.286986"><ele>483.0</ele></trkpt>
    <trkpt lat="44.441810" lon="5.286972"><ele>483.0</ele></trkpt>
    <trkpt lat="44.441841" lon="5.287030"><ele>483.8</ele></trkpt>
    <trkpt lat="44.441930" lon="5.287110"><ele>484.8</ele></trkpt>
    <trkpt lat="44.441985" lon="5.286987"><ele>484.2</ele></trkpt>
    <trkpt lat="44.441930" lon="5.287110"><ele>484.8</ele></trkpt>
    <trkpt lat="44.441841" lon="5.287030"><ele>483.8</ele></trkpt>
    <trkpt lat="44.441810" lon="5.286972"><ele>483.0</ele></trkpt>
    <trkpt lat="44.441801" lon="5.286986"><ele>483.0</ele></trkpt>
    <trkpt lat="44.441682" lon="5.286871"><ele>481.5</ele></trkpt>
    <trkpt lat="44.441786" lon="5.286706"><ele>481.0</ele></trkpt>
    <trkpt lat="44.441743" lon="5.286664"><ele>480.2</ele></trkpt>
    <trkpt lat="44.441639" lon="5.286732"><ele>479.8</ele></trkpt>
    <trkpt lat="44.441578" lon="5.286768"><ele>478.8</ele></trkpt>
    <trkpt lat="44.441531" lon="5.286703"><ele>477.5</ele></trkpt>
    <trkpt lat="44.441386" lon="5.286791"><ele>475.2</ele></trkpt>
    <trkpt lat="44.441248" lon="5.286686"><ele>472.0</ele></trkpt>
    <trkpt lat="44.441127" lon="5.286657"><ele>469.2</ele></trkpt>
    <trkpt lat="44.441022" lon="5.286613"><ele>466.8</ele></trkpt>
    <trkpt lat="44.440767" lon="5.286533"><ele>461.5</ele></trkpt>
    <trkpt lat="44.440664" lon="5.286500"><ele>460.0</ele></trkpt>
    <trkpt lat="44.440560" lon="5.286541"><ele>459.5</ele></trkpt>
    <trkpt lat="44.440302" lon="5.286552"><ele>456.8</ele></trkpt>
    <trkpt lat="44.440120" lon="5.286416"><ele>453.2</ele></trkpt>
    <trkpt lat="44.440186" lon="5.286170"><ele>451.0</ele></trkpt>
    <trkpt lat="44.440125" lon="5.286170"><ele>450.2</ele></trkpt>
    <trkpt lat="44.440093" lon="5.286105"><ele>449.2</ele></trkpt>
    <trkpt lat="44.440054" lon="5.286003"><ele>447.5</ele></trkpt>
    <trkpt lat="44.439968" lon="5.285936"><ele>445.8</ele></trkpt>
    <trkpt lat="44.439920" lon="5.285987"><ele>446.0</ele></trkpt>
    <trkpt lat="44.439882" lon="5.285950"><ele>445.2</ele></trkpt>
    <trkpt lat="44.439811" lon="5.285960"><ele>444.8</ele></trkpt>
    <trkpt lat="44.439704" lon="5.285955"><ele>443.8</ele></trkpt>
    <trkpt lat="44.439579" lon="5.285928"><ele>442.2</ele></trkpt>
    <trkpt lat="44.439484" lon="5.285800"><ele>439.8</ele></trkpt>
    <trkpt lat="44.439572" lon="5.285709"><ele>440.0</ele></trkpt>
    <trkpt lat="44.439829" lon="5.285508"><ele>439.5</ele></trkpt>
    <trkpt lat="44.439871" lon="5.285387"><ele>438.2</ele></trkpt>
    <trkpt lat="44.439763" lon="5.285349"><ele>437.8</ele></trkpt>
    <trkpt lat="44.439030" lon="5.285638"><ele>436.2</ele></trkpt>
    <trkpt lat="44.438950" lon="5.285638"><ele>436.0</ele></trkpt>
    <trkpt lat="44.438920" lon="5.285554"><ele>436.2</ele></trkpt>
    <trkpt lat="44.438991" lon="5.285408"><ele>437.0</ele></trkpt>
    <trkpt lat="44.438974" lon="5.285349"><ele>437.2</ele></trkpt>
    <trkpt lat="44.438519" lon="5.285257"><ele>437.5</ele></trkpt>
    <trkpt lat="44.438088" lon="5.285337"><ele>434.2</ele></trkpt>
    <trkpt lat="44.437634" lon="5.285542"><ele>427.5</ele></trkpt>
    <trkpt lat="44.437460" lon="5.285529"><ele>426.2</ele></trkpt>
    <trkpt lat="44.437343" lon="5.285528"><ele>425.5</ele></trkpt>
    <trkpt lat="44.437280" lon="5.285482"><ele>425.5</ele></trkpt>
    <trkpt lat="44.437264" lon="5.285388"><ele>426.2</ele></trkpt>
    <trkpt lat="44.437293" lon="5.285316"><ele>427.2</ele></trkpt>
    <trkpt lat="44.437326" lon="5.285056"><ele>430.5</ele></trkpt>
    <trkpt lat="44.437316" lon="5.284900"><ele>432.2</ele></trkpt>
    <trkpt lat="44.437274" lon="5.284865"><ele>432.2</ele></trkpt>
    <trkpt lat="44.437218" lon="5.284900"><ele>431.2</ele></trkpt>
    <trkpt lat="44.437176" lon="5.284991"><ele>429.5</ele></trkpt>
    <trkpt lat="44.436931" lon="5.285142"><ele>425.5</ele></trkpt>
    <trkpt lat="44.436851" lon="5.285211"><ele>424.2</ele></trkpt>
    <trkpt lat="44.436785" lon="5.285246"><ele>423.5</ele></trkpt>
    <trkpt lat="44.436615" lon="5.285254"><ele>422.0</ele></trkpt>
    <trkpt lat="44.436447" lon="5.285193"><ele>421.2</ele></trkpt>
    <trkpt lat="44.436316" lon="5.285013"><ele>419.8</ele></trkpt>
    <trkpt lat="44.436261" lon="5.284922"><ele>420.8</ele></trkpt>
    <trkpt lat="44.436167" lon="5.284814"><ele>422.0</ele></trkpt>
    <trkpt lat="44.436021" lon="5.284621"><ele>424.2</ele></trkpt>
    <trkpt lat="44.435847" lon="5.284428"><ele>425.8</ele></trkpt>
    <trkpt lat="44.435725" lon="5.284281"><ele>429.8</ele></trkpt>
    <trkpt lat="44.435560" lon="5.284297"><ele>431.0</ele></trkpt>
    <trkpt lat="44.435441" lon="5.284313"><ele>431.8</ele></trkpt>
    <trkpt lat="44.435250" lon="5.284385"><ele>431.8</ele></trkpt>
    <trkpt lat="44.435190" lon="5.284391"><ele>432.2</ele></trkpt>
    <trkpt lat="44.435039" lon="5.284455"><ele>432.0</ele></trkpt>
    <trkpt lat="44.434968" lon="5.284506"><ele>431.2</ele></trkpt>
    <trkpt lat="44.434792" lon="5.284527"><ele>432.2</ele></trkpt>
    <trkpt lat="44.434618" lon="5.284610"><ele>432.5</ele></trkpt>
    <trkpt lat="44.434649" lon="5.284484"><ele>434.0</ele></trkpt>
    <trkpt lat="44.434473" lon="5.284564"><ele>434.5</ele></trkpt>
    <trkpt lat="44.434392" lon="5.284589"><ele>435.0</ele></trkpt>
    <trkpt lat="44.434329" lon="5.284476"><ele>436.5</ele></trkpt>
    <trkpt lat="44.434543" lon="5.283703"><ele>444.2</ele></trkpt>
    <trkpt lat="44.434641" lon="5.283476"><ele>449.5</ele></trkpt>
    <trkpt lat="44.434946" lon="5.283033"><ele>464.8</ele></trkpt>
    <trkpt lat="44.434950" lon="5.282919"><ele>466.8</ele></trkpt>
    <trkpt lat="44.434931" lon="5.282880"><ele>466.8</ele></trkpt>
    <trkpt lat="44.434930" lon="5.282771"><ele>468.2</ele></trkpt>
    <trkpt lat="44.434957" lon="5.282693"><ele>470.2</ele></trkpt>
    <trkpt lat="44.434945" lon="5.282607"><ele>471.2</ele></trkpt>
    <trkpt lat="44.434925" lon="5.282522"><ele>471.8</ele></trkpt>
    <trkpt lat="44.434948" lon="5.282431"><ele>474.0</ele></trkpt>
    <trkpt lat="44.435014" lon="5.282372"><ele>477.0</ele></trkpt>
    <trkpt lat="44.435047" lon="5.282277"><ele>479.0</ele></trkpt>
    <trkpt lat="44.435058" lon="5.282204"><ele>480.2</ele></trkpt>
    <trkpt lat="44.435094" lon="5.282131"><ele>481.8</ele></trkpt>
    <trkpt lat="44.435082" lon="5.282079"><ele>482.5</ele></trkpt>
    <trkpt lat="44.435088" lon="5.282060"><ele>484.2</ele></trkpt>
    <trkpt lat="44.435082" lon="5.282079"><ele>482.5</ele></trkpt>
    <trkpt lat="44.435094" lon="5.282131"><ele>481.8</ele></trkpt>
    <trkpt lat="44.435058" lon="5.282204"><ele>480.2</ele></trkpt>
    <trkpt lat="44.435047" lon="5.282277"><ele>479.0</ele></trkpt>
    <trkpt lat="44.435014" lon="5.282372"><ele>477.0</ele></trkpt>
    <trkpt lat="44.434948" lon="5.282431"><ele>474.0</ele></trkpt>
    <trkpt lat="44.434925" lon="5.282522"><ele>471.8</ele></trkpt>
    <trkpt lat="44.434945" lon="5.282607"><ele>471.2</ele></trkpt>
    <trkpt lat="44.434957" lon="5.282693"><ele>470.2</ele></trkpt>
    <trkpt lat="44.434930" lon="5.282771"><ele>468.2</ele></trkpt>
    <trkpt lat="44.434931" lon="5.282880"><ele>466.8</ele></trkpt>
    <trkpt lat="44.434950" lon="5.282919"><ele>466.8</ele></trkpt>
    <trkpt lat="44.434946" lon="5.283033"><ele>464.8</ele></trkpt>
    <trkpt lat="44.434641" lon="5.283476"><ele>449.5</ele></trkpt>
    <trkpt lat="44.434543" lon="5.283703"><ele>444.2</ele></trkpt>
    <trkpt lat="44.434329" lon="5.284476"><ele>436.5</ele></trkpt>
    <trkpt lat="44.434392" lon="5.284589"><ele>435.0</ele></trkpt>
    <trkpt lat="44.434248" lon="5.284723"><ele>436.0</ele></trkpt>
    <trkpt lat="44.434194" lon="5.284704"><ele>436.8</ele></trkpt>
    <trkpt lat="44.434045" lon="5.284709"><ele>434.2</ele></trkpt>
    <trkpt lat="44.433651" lon="5.284870"><ele>427.0</ele></trkpt>
    <trkpt lat="44.433532" lon="5.284972"><ele>426.5</ele></trkpt>
    <trkpt lat="44.433569" lon="5.284586"><ele>421.0</ele></trkpt>
    <trkpt lat="44.433519" lon="5.284320"><ele>415.0</ele></trkpt>
    <trkpt lat="44.433387" lon="5.283988"><ele>405.0</ele></trkpt>
    <trkpt lat="44.433458" lon="5.283720"><ele>405.2</ele></trkpt>
    <trkpt lat="44.433207" lon="5.284020"><ele>401.0</ele></trkpt>
    <trkpt lat="44.433145" lon="5.283754"><ele>397.2</ele></trkpt>
    <trkpt lat="44.433210" lon="5.283518"><ele>395.5</ele></trkpt>
    <trkpt lat="44.433249" lon="5.283325"><ele>394.0</ele></trkpt>
    <trkpt lat="44.433289" lon="5.282982"><ele>399.0</ele></trkpt>
    <trkpt lat="44.433257" lon="5.282854"><ele>400.0</ele></trkpt>
    <trkpt lat="44.433243" lon="5.282626"><ele>402.5</ele></trkpt>
    <trkpt lat="44.433173" lon="5.282466"><ele>403.2</ele></trkpt>
    <trkpt lat="44.433045" lon="5.282289"><ele>405.8</ele></trkpt>
    <trkpt lat="44.432924" lon="5.282160"><ele>407.2</ele></trkpt>
    <trkpt lat="44.432762" lon="5.282087"><ele>405.2</ele></trkpt>
    <trkpt lat="44.432565" lon="5.282085"><ele>399.8</ele></trkpt>
    <trkpt lat="44.432256" lon="5.282171"><ele>390.5</ele></trkpt>
    <trkpt lat="44.432030" lon="5.282202"><ele>386.5</ele></trkpt>
    <trkpt lat="44.431889" lon="5.282224"><ele>384.0</ele></trkpt>
    <trkpt lat="44.431784" lon="5.282203"><ele>383.0</ele></trkpt>
    <trkpt lat="44.431689" lon="5.282108"><ele>382.2</ele></trkpt>
    <trkpt lat="44.431596" lon="5.281948"><ele>386.8</ele></trkpt>
    <trkpt lat="44.431567" lon="5.281752"><ele>389.2</ele></trkpt>
    <trkpt lat="44.431565" lon="5.281563"><ele>389.8</ele></trkpt>
    <trkpt lat="44.431617" lon="5.281325"><ele>387.5</ele></trkpt>
    <trkpt lat="44.431964" lon="5.280281"><ele>400.5</ele></trkpt>
    <trkpt lat="44.432054" lon="5.279980"><ele>404.0</ele></trkpt>
    <trkpt lat="44.432078" lon="5.279728"><ele>405.0</ele></trkpt>
    <trkpt lat="44.432017" lon="5.279046"><ele>403.5</ele></trkpt>
    <trkpt lat="44.431959" lon="5.278802"><ele>403.8</ele></trkpt>
    <trkpt lat="44.431856" lon="5.278546"><ele>402.0</ele></trkpt>
    <trkpt lat="44.431615" lon="5.278084"><ele>394.8</ele></trkpt>
    <trkpt lat="44.431388" lon="5.277761"><ele>389.8</ele></trkpt>
    <trkpt lat="44.431124" lon="5.277463"><ele>383.8</ele></trkpt>
    <trkpt lat="44.430976" lon="5.277324"><ele>383.0</ele></trkpt>
    <trkpt lat="44.430684" lon="5.277117"><ele>382.5</ele></trkpt>
    <trkpt lat="44.430328" lon="5.276917"><ele>384.2</ele></trkpt>
    <trkpt lat="44.429969" lon="5.276755"><ele>385.5</ele></trkpt>
    <trkpt lat="44.429877" lon="5.276725"><ele>385.8</ele></trkpt>
    <trkpt lat="44.429789" lon="5.276714"><ele>386.0</ele></trkpt>
    <trkpt lat="44.429648" lon="5.276700"><ele>386.2</ele></trkpt>
    <trkpt lat="44.429496" lon="5.276716"><ele>386.0</ele></trkpt>
    <trkpt lat="44.429212" lon="5.276811"><ele>383.8</ele></trkpt>
    <trkpt lat="44.429003" lon="5.276929"><ele>392.5</ele></trkpt>
    <trkpt lat="44.428859" lon="5.277058"><ele>397.8</ele></trkpt>
    <trkpt lat="44.428762" lon="5.277169"><ele>399.0</ele></trkpt>
    <trkpt lat="44.428670" lon="5.277304"><ele>398.2</ele></trkpt>
    <trkpt lat="44.428592" lon="5.277459"><ele>394.5</ele></trkpt>
    <trkpt lat="44.428512" lon="5.277665"><ele>392.5</ele></trkpt>
    <trkpt lat="44.428460" lon="5.277894"><ele>389.8</ele></trkpt>
    <trkpt lat="44.428228" lon="5.279296"><ele>372.8</ele></trkpt>
    <trkpt lat="44.428145" lon="5.279596"><ele>370.5</ele></trkpt>
    <trkpt lat="44.428068" lon="5.279717"><ele>369.5</ele></trkpt>
    <trkpt lat="44.428012" lon="5.279782"><ele>368.8</ele></trkpt>
    <trkpt lat="44.427901" lon="5.279812"><ele>368.5</ele></trkpt>
    <trkpt lat="44.427802" lon="5.279789"><ele>369.0</ele></trkpt>
    <trkpt lat="44.427677" lon="5.279718"><ele>370.2</ele></trkpt>
    <trkpt lat="44.427440" lon="5.279548"><ele>373.8</ele></trkpt>
    <trkpt lat="44.427292" lon="5.279368"><ele>375.2</ele></trkpt>
    <trkpt lat="44.427049" lon="5.278971"><ele>380.2</ele></trkpt>
    <trkpt lat="44.426792" lon="5.278620"><ele>384.2</ele></trkpt>
    <trkpt lat="44.426511" lon="5.278306"><ele>385.0</ele></trkpt>
    <trkpt lat="44.426233" lon="5.278056"><ele>388.0</ele></trkpt>
    <trkpt lat="44.426021" lon="5.277901"><ele>386.8</ele></trkpt>
    <trkpt lat="44.424930" lon="5.277209"><ele>379.5</ele></trkpt>
    <trkpt lat="44.424474" lon="5.276919"><ele>379.5</ele></trkpt>
    <trkpt lat="44.423963" lon="5.276699"><ele>373.8</ele></trkpt>
    <trkpt lat="44.423511" lon="5.276532"><ele>372.5</ele></trkpt>
    <trkpt lat="44.422968" lon="5.276231"><ele>374.5</ele></trkpt>
    <trkpt lat="44.422415" lon="5.276001"><ele>373.2</ele></trkpt>
    <trkpt lat="44.422176" lon="5.275912"><ele>372.0</ele></trkpt>
    <trkpt lat="44.421795" lon="5.275730"><ele>370.0</ele></trkpt>
    <trkpt lat="44.421418" lon="5.275424"><ele>370.5</ele></trkpt>
    <trkpt lat="44.421087" lon="5.275066"><ele>369.5</ele></trkpt>
    <trkpt lat="44.420858" lon="5.274798"><ele>369.0</ele></trkpt>
    <trkpt lat="44.419996" lon="5.273717"><ele>372.0</ele></trkpt>
    <trkpt lat="44.419751" lon="5.273449"><ele>372.8</ele></trkpt>
    <trkpt lat="44.419110" lon="5.272970"><ele>368.0</ele></trkpt>
    <trkpt lat="44.418935" lon="5.272779"><ele>368.8</ele></trkpt>
    <trkpt lat="44.418626" lon="5.272405"><ele>368.2</ele></trkpt>
    <trkpt lat="44.418450" lon="5.272230"><ele>368.2</ele></trkpt>
    <trkpt lat="44.418268" lon="5.272078"><ele>368.0</ele></trkpt>
    <trkpt lat="44.417848" lon="5.271651"><ele>368.2</ele></trkpt>
    <trkpt lat="44.416939" lon="5.270786"><ele>370.5</ele></trkpt>
    <trkpt lat="44.416593" lon="5.270439"><ele>371.2</ele></trkpt>
    <trkpt lat="44.415930" lon="5.269884"><ele>368.0</ele></trkpt>
    <trkpt lat="44.415471" lon="5.269510"><ele>366.0</ele></trkpt>
    <trkpt lat="44.415315" lon="5.269323"><ele>365.2</ele></trkpt>
    <trkpt lat="44.415150" lon="5.269013"><ele>364.8</ele></trkpt>
    <trkpt lat="44.415204" lon="5.269015"><ele>366.0</ele></trkpt>
    <trkpt lat="44.415272" lon="5.269048"><ele>367.0</ele></trkpt>
    <trkpt lat="44.415384" lon="5.269223"><ele>367.5</ele></trkpt>
    <trkpt lat="44.415443" lon="5.269274"><ele>368.2</ele></trkpt>
    <trkpt lat="44.415521" lon="5.269327"><ele>369.2</ele></trkpt>
    <trkpt lat="44.415662" lon="5.269417"><ele>370.5</ele></trkpt>
    <trkpt lat="44.415828" lon="5.269542"><ele>371.5</ele></trkpt>
    <trkpt lat="44.415918" lon="5.269578"><ele>373.0</ele></trkpt>
    <trkpt lat="44.416183" lon="5.269691"><ele>377.5</ele></trkpt>
    <trkpt lat="44.416386" lon="5.269768"><ele>380.8</ele></trkpt>
    <trkpt lat="44.416718" lon="5.270040"><ele>382.5</ele></trkpt>
    <trkpt lat="44.417051" lon="5.270286"><ele>385.8</ele></trkpt>
    <trkpt lat="44.417303" lon="5.270504"><ele>386.0</ele></trkpt>
    <trkpt lat="44.417695" lon="5.270815"><ele>385.8</ele></trkpt>
    <trkpt lat="44.417833" lon="5.270848"><ele>387.8</ele></trkpt>
    <trkpt lat="44.418041" lon="5.270917"><ele>390.5</ele></trkpt>
    <trkpt lat="44.418206" lon="5.270922"><ele>394.0</ele></trkpt>
    <trkpt lat="44.418247" lon="5.270912"><ele>395.0</ele></trkpt>
    <trkpt lat="44.418262" lon="5.270896"><ele>395.8</ele></trkpt>
    <trkpt lat="44.418255" lon="5.270875"><ele>396.2</ele></trkpt>
    <trkpt lat="44.418231" lon="5.270860"><ele>396.0</ele></trkpt>
    <trkpt lat="44.418055" lon="5.270802"><ele>394.0</ele></trkpt>
    <trkpt lat="44.417940" lon="5.270677"><ele>395.5</ele></trkpt>
    <trkpt lat="44.417836" lon="5.270525"><ele>398.2</ele></trkpt>
    <trkpt lat="44.417708" lon="5.270384"><ele>399.5</ele></trkpt>
    <trkpt lat="44.417532" lon="5.270243"><ele>399.5</ele></trkpt>
    <trkpt lat="44.417385" lon="5.270053"><ele>401.0</ele></trkpt>
    <trkpt lat="44.417031" lon="5.269560"><ele>403.5</ele></trkpt>
    <trkpt lat="44.416883" lon="5.269167"><ele>408.5</ele></trkpt>
    <trkpt lat="44.416793" lon="5.268832"><ele>410.2</ele></trkpt>
    <trkpt lat="44.416590" lon="5.268456"><ele>408.2</ele></trkpt>
    <trkpt lat="44.416600" lon="5.268234"><ele>411.0</ele></trkpt>
    <trkpt lat="44.416502" lon="5.267960"><ele>411.0</ele></trkpt>
    <trkpt lat="44.416354" lon="5.267802"><ele>408.2</ele></trkpt>
    <trkpt lat="44.416268" lon="5.267778"><ele>406.2</ele></trkpt>
    <trkpt lat="44.416132" lon="5.267724"><ele>403.0</ele></trkpt>
    <trkpt lat="44.416029" lon="5.267778"><ele>399.5</ele></trkpt>
    <trkpt lat="44.415981" lon="5.267772"><ele>398.2</ele></trkpt>
    <trkpt lat="44.415853" lon="5.267598"><ele>396.5</ele></trkpt>
    <trkpt lat="44.415693" lon="5.267247"><ele>394.0</ele></trkpt>
    <trkpt lat="44.415607" lon="5.266893"><ele>393.0</ele></trkpt>
    <trkpt lat="44.415546" lon="5.266524"><ele>393.0</ele></trkpt>
    <trkpt lat="44.415510" lon="5.266466"><ele>392.5</ele></trkpt>
    <trkpt lat="44.415353" lon="5.266308"><ele>388.5</ele></trkpt>
    <trkpt lat="44.415316" lon="5.266294"><ele>387.2</ele></trkpt>
    <trkpt lat="44.415282" lon="5.266310"><ele>386.0</ele></trkpt>
    <trkpt lat="44.415259" lon="5.266361"><ele>385.2</ele></trkpt>
    <trkpt lat="44.415257" lon="5.266842"><ele>383.5</ele></trkpt>
    <trkpt lat="44.415238" lon="5.266908"><ele>382.8</ele></trkpt>
    <trkpt lat="44.415204" lon="5.266949"><ele>381.8</ele></trkpt>
    <trkpt lat="44.415036" lon="5.266986"><ele>377.0</ele></trkpt>
    <trkpt lat="44.414988" lon="5.266965"><ele>376.0</ele></trkpt>
    <trkpt lat="44.414919" lon="5.266726"><ele>375.0</ele></trkpt>
    <trkpt lat="44.414889" lon="5.266574"><ele>374.5</ele></trkpt>
    <trkpt lat="44.414860" lon="5.266531"><ele>373.8</ele></trkpt>
    <trkpt lat="44.414825" lon="5.266522"><ele>373.0</ele></trkpt>
    <trkpt lat="44.414623" lon="5.266538"><ele>368.8</ele></trkpt>
    <trkpt lat="44.414590" lon="5.266517"><ele>368.0</ele></trkpt>
    <trkpt lat="44.414577" lon="5.266477"><ele>367.5</ele></trkpt>
    <trkpt lat="44.414598" lon="5.266254"><ele>368.0</ele></trkpt>
    <trkpt lat="44.414653" lon="5.266156"><ele>369.0</ele></trkpt>
    <trkpt lat="44.414676" lon="5.265975"><ele>369.5</ele></trkpt>
    <trkpt lat="44.414665" lon="5.265925"><ele>369.2</ele></trkpt>
    <trkpt lat="44.414642" lon="5.265899"><ele>368.8</ele></trkpt>
    <trkpt lat="44.414590" lon="5.265904"><ele>367.5</ele></trkpt>
    <trkpt lat="44.414570" lon="5.265951"><ele>367.2</ele></trkpt>
    <trkpt lat="44.414560" lon="5.266059"><ele>367.0</ele></trkpt>
    <trkpt lat="44.414536" lon="5.266201"><ele>366.5</ele></trkpt>
    <trkpt lat="44.414502" lon="5.266232"><ele>365.8</ele></trkpt>
    <trkpt lat="44.414469" lon="5.266240"><ele>365.0</ele></trkpt>
    <trkpt lat="44.414339" lon="5.266221"><ele>362.2</ele></trkpt>
    <trkpt lat="44.414312" lon="5.266217"><ele>361.5</ele></trkpt>
    <trkpt lat="44.414278" lon="5.266681"><ele>361.2</ele></trkpt>
    <trkpt lat="44.414251" lon="5.266681"><ele>360.8</ele></trkpt>
    <trkpt lat="44.414195" lon="5.266700"><ele>359.5</ele></trkpt>
    <trkpt lat="44.414177" lon="5.266726"><ele>359.0</ele></trkpt>
    <trkpt lat="44.414168" lon="5.266758"><ele>359.0</ele></trkpt>
    <trkpt lat="44.414174" lon="5.266803"><ele>359.0</ele></trkpt>
    <trkpt lat="44.414188" lon="5.266839"><ele>359.2</ele></trkpt>
    <trkpt lat="44.414203" lon="5.266917"><ele>359.8</ele></trkpt>
    <trkpt lat="44.414210" lon="5.267149"><ele>359.8</ele></trkpt>
    <trkpt lat="44.414211" lon="5.267276"><ele>359.8</ele></trkpt>
    <trkpt lat="44.414180" lon="5.267376"><ele>359.2</ele></trkpt>
    <trkpt lat="44.414075" lon="5.267502"><ele>358.8</ele></trkpt>
    <trkpt lat="44.414043" lon="5.267533"><ele>358.8</ele></trkpt>
    <trkpt lat="44.413782" lon="5.267640"><ele>358.2</ele></trkpt>
    <trkpt lat="44.413317" lon="5.267643"><ele>358.0</ele></trkpt>
    <trkpt lat="44.413261" lon="5.267646"><ele>359.5</ele></trkpt>
    <trkpt lat="44.413204" lon="5.267669"><ele>360.8</ele></trkpt>
    <trkpt lat="44.413220" lon="5.267714"><ele>360.2</ele></trkpt>
    <trkpt lat="44.413256" lon="5.267966"><ele>359.0</ele></trkpt>
    <trkpt lat="44.413312" lon="5.268172"><ele>357.5</ele></trkpt>
    <trkpt lat="44.413546" lon="5.268527"><ele>356.5</ele></trkpt>
    <trkpt lat="44.413921" lon="5.269008"><ele>355.5</ele></trkpt>
    <trkpt lat="44.414169" lon="5.269296"><ele>355.0</ele></trkpt>
    <trkpt lat="44.414709" lon="5.269854"><ele>356.2</ele></trkpt>
    <trkpt lat="44.415032" lon="5.270140"><ele>355.8</ele></trkpt>
    <trkpt lat="44.415287" lon="5.270363"><ele>356.8</ele></trkpt>
    <trkpt lat="44.415699" lon="5.270704"><ele>356.8</ele></trkpt>
    <trkpt lat="44.416165" lon="5.271128"><ele>357.2</ele></trkpt>
    <trkpt lat="44.416757" lon="5.271653"><ele>355.8</ele></trkpt>
    <trkpt lat="44.416858" lon="5.271820"><ele>356.0</ele></trkpt>
    <trkpt lat="44.416803" lon="5.272466"><ele>355.0</ele></trkpt>
    <trkpt lat="44.416735" lon="5.272902"><ele>355.8</ele></trkpt>
    <trkpt lat="44.416720" lon="5.272979"><ele>356.0</ele></trkpt>
    <trkpt lat="44.416598" lon="5.273548"><ele>357.2</ele></trkpt>
    <trkpt lat="44.416564" lon="5.273618"><ele>357.2</ele></trkpt>
    <trkpt lat="44.416524" lon="5.273680"><ele>357.5</ele></trkpt>
    <trkpt lat="44.415964" lon="5.274210"><ele>360.5</ele></trkpt>
    <trkpt lat="44.415914" lon="5.274319"><ele>361.0</ele></trkpt>
    <trkpt lat="44.415904" lon="5.274425"><ele>361.2</ele></trkpt>
    <trkpt lat="44.415915" lon="5.274529"><ele>361.5</ele></trkpt>
    <trkpt lat="44.415959" lon="5.274586"><ele>361.5</ele></trkpt>
    <trkpt lat="44.416042" lon="5.274695"><ele>361.5</ele></trkpt>
    <trkpt lat="44.416085" lon="5.274785"><ele>361.5</ele></trkpt>
    <trkpt lat="44.416284" lon="5.274975"><ele>361.2</ele></trkpt>
    <trkpt lat="44.416451" lon="5.275118"><ele>360.8</ele></trkpt>
    <trkpt lat="44.416700" lon="5.275156"><ele>360.0</ele></trkpt>
    <trkpt lat="44.417181" lon="5.275212"><ele>359.0</ele></trkpt>
    <trkpt lat="44.417300" lon="5.275253"><ele>359.0</ele></trkpt>
    <trkpt lat="44.417373" lon="5.275315"><ele>359.0</ele></trkpt>
    <trkpt lat="44.417430" lon="5.275217"><ele>358.5</ele></trkpt>
    <trkpt lat="44.417505" lon="5.274869"><ele>357.8</ele></trkpt>
    <trkpt lat="44.417583" lon="5.274708"><ele>357.8</ele></trkpt>
    <trkpt lat="44.417699" lon="5.274585"><ele>357.8</ele></trkpt>
    <trkpt lat="44.417791" lon="5.274521"><ele>357.8</ele></trkpt>
    <trkpt lat="44.417867" lon="5.274493"><ele>357.5</ele></trkpt>
    <trkpt lat="44.417948" lon="5.274511"><ele>357.5</ele></trkpt>
    <trkpt lat="44.418060" lon="5.274627"><ele>357.5</ele></trkpt>
    <trkpt lat="44.418345" lon="5.275067"><ele>358.0</ele></trkpt>
    <trkpt lat="44.418383" lon="5.275122"><ele>358.2</ele></trkpt>
  </trkseg></trk></gpx>