<?xml version="1.0" encoding="UTF-8"?>
<gpx version="1.1" creator="Chemins Noirs — Boucles Visorando Baronnies"
  xmlns="http://www.topografix.com/GPX/1/1"
  xmlns:xsi="http://www.w3.org/2001/XMLSchema-instance"
  xsi:schemaLocation="http://www.topografix.com/GPX/1/1 http://www.topografix.com/GPX/1/1/gpx.xsd">
<metadata><name>J6 — Plateau Saint-Laurent + Rocher du Caire</name>
<desc>Boucle Visorando depuis Saint-May. Rocher du Caire (belvédère vautours), crêtes 1033m. — 12.83 km, +613m. Suivre balisage PR jaune sur le terrain.</desc></metadata>
<wpt lat="44.428068" lon="5.318627"><ele>450</ele>
  <name>🅿️ Départ Saint-May</name><sym>Flag, Green</sym></wpt>
<wpt lat="44.430000" lon="5.320000"><ele>455</ele>
  <name>Bifurcation cimetière</name><sym>Flag, Green</sym></wpt>
<wpt lat="44.432000" lon="5.322000"><ele>494</ele>
  <name>Intersection route</name><sym>Flag, Green</sym></wpt>
<wpt lat="44.434000" lon="5.326000"><ele>630</ele>
  <name>Le Prieuré</name><sym>Flag, Green</sym></wpt>
<wpt lat="44.435000" lon="5.328000"><ele>646</ele>
  <name>Bifurcation chapelle</name><sym>Flag, Green</sym></wpt>
<wpt lat="44.440000" lon="5.340000"><ele>968</ele>
  <name>Col de Saint-May</name><sym>Flag, Green</sym></wpt>
<wpt lat="44.442000" lon="5.345000"><ele>1033</ele>
  <name>⛰️ Crêtes — point haut 1033m</name><sym>Flag, Green</sym></wpt>
<wpt lat="44.435000" lon="5.355000"><ele>900</ele>
  <name>Descente vers Rocher du Caire</name><sym>Flag, Green</sym></wpt>
<wpt lat="44.420000" lon="5.350000"><ele>758</ele>
  <name>🦅 Rocher du Caire — belvédère vautours</name><sym>Flag, Green</sym></wpt>
<wpt lat="44.422000" lon="5.340000"><ele>600</ele>
  <name>Sentier retour</name><sym>Flag, Green</sym></wpt>
<wpt lat="44.425000" lon="5.325000"><ele>500</ele>
  <name>Vallée</name><sym>Flag, Green</sym></wpt>
<wpt lat="44.428068" lon="5.318627"><ele>450</ele>
  <name>🅿️ Retour Saint-May</name><sym>Flag, Green</sym></wpt>
<trk><name>J6 — Plateau Saint-Laurent + Rocher du Caire</name>
  <desc>Boucle Visorando depuis Saint-May. Rocher du Caire (belvédère vautours), crêtes 1033m.</desc><trkseg>
    <trkpt lat="44.428068" lon="5.318627"><ele>450.0</ele></trkpt>
    <trkpt lat="44.430000" lon="5.320000"><ele>455.0</ele></trkpt>
    <trkpt lat="44.432000" lon="5.322000"><ele>494.0</ele></trkpt>
    <trkpt lat="44.434000" lon="5.326000"><ele>630.0</ele></trkpt>
    <trkpt lat="44.435000" lon="5.328000"><ele>646.0</ele></trkpt>
    <trkpt lat="44.440000" lon="5.340000"><ele>968.0</ele></trkpt>
    <trkpt lat="44.442000" lon="5.345000"><ele>1033.0</ele></trkpt>
    <trkpt lat="44.435000" lon="5.355000"><ele>900.0</ele></trkpt>
    <trkpt lat="44.420000" lon="5.350000"><ele>758.0</ele></trkpt>
    <trkpt lat="44.422000" lon="5.340000"><ele>600.0</ele></trkpt>
    <trkpt lat="44.425000" lon="5.325000"><ele>500.0</ele></trkpt>
    <trkpt lat="44.428068" lon="5.318627"><ele>450.0</ele></trkpt>
  </trkseg></trk></gpx>