<?xml version="1.0" encoding="UTF-8"?>
<gpx version="1.1" creator="Chemins Noirs — Waypoints Visorando"
  xmlns="http://www.topografix.com/GPX/1/1" xmlns:xsi="http://www.w3.org/2001/XMLSchema-instance"
  xsi:schemaLocation="http://www.topografix.com/GPX/1/1 http://www.topografix.com/GPX/1/1/gpx.xsd">
<metadata><name>J7 — Sainte-Jalle — Crêtes et chapelle romane</name>
<desc>Village discret, chapelle romane, crêtes vallée Ennuye. Boucle PR depuis Sainte-Jalle. — 12.0km +491m. Suivre balisage PR jaune.</desc></metadata>
<wpt lat="44.345100" lon="5.283300"><name>🅿️ Sainte-Jalle, parking mairie</name><sym>Parking Area</sym></wpt>
<trk><name>J7 — Sainte-Jalle — Crêtes et chapelle romane</name><desc>Village discret, chapelle romane, crêtes vallée Ennuye. Boucle PR depuis Sainte-Jalle.</desc><trkseg>
    <trkpt lat="44.345100" lon="5.283300"><ele>403.0</ele></trkpt>
    <trkpt lat="44.350000" lon="5.278000"><ele>450.0</ele></trkpt>
    <trkpt lat="44.355000" lon="5.270000"><ele>520.0</ele></trkpt>
    <trkpt lat="44.360000" lon="5.265000"><ele>600.0</ele></trkpt>
    <trkpt lat="44.362000" lon="5.260000"><ele>650.0</ele></trkpt>
    <trkpt lat="44.358000" lon="5.255000"><ele>620.0</ele></trkpt>
    <trkpt lat="44.352000" lon="5.258000"><ele>550.0</ele></trkpt>
    <trkpt lat="44.347000" lon="5.265000"><ele>480.0</ele></trkpt>
    <trkpt lat="44.343000" lon="5.275000"><ele>430.0</ele></trkpt>
    <trkpt lat="44.345100" lon="5.283300"><ele>403.0</ele></trkpt>
  </trkseg></trk></gpx>